{"source":"https://aviationweather.gov/data/cache/metars.cache.csv.gz","updatedAt":"2026-03-26T08:56:35.609Z","stationCount":4949,"stations":{"KFMH":{"rawOb":"METAR KFMH 260856Z 19010KT 10SM SCT060 OVC120 08/06 A3005","observationTime":"2026-03-26T08:56:00.000Z","flightCategory":"VFR","latitude":41.6608,"longitude":-70.5221},"K6L4":{"rawOb":"METAR K6L4 260855Z AUTO 18005KT 10SM SCT050 15/05 A3005 RMK AO2","observationTime":"2026-03-26T08:55:00.000Z","flightCategory":"VFR","latitude":37.8552,"longitude":-81.915},"TXKF":{"rawOb":"METAR TXKF 260855Z 09010KT 9999 SCT016 BKN067 BKN300 19/16 Q1023","observationTime":"2026-03-26T08:55:00.000Z","flightCategory":"VFR","latitude":32.364,"longitude":-64.679},"KDLO":{"rawOb":"METAR KDLO 260855Z AUTO 15004KT 10SM CLR 11/09 A3001 RMK AO2 T01110085","observationTime":"2026-03-26T08:55:00.000Z","flightCategory":"VFR","latitude":35.7449,"longitude":-119.2387},"KGNT":{"rawOb":"METAR KGNT 260855Z AUTO 32003KT 10SM CLR 12/M10 A3019 RMK AO2 T01181100","observationTime":"2026-03-26T08:55:00.000Z","flightCategory":"VFR","latitude":35.1653,"longitude":-107.9021},"KMUO":{"rawOb":"METAR KMUO 260855Z AUTO 29022G29KT 10SM CLR 08/M00 A3008 RMK AO2 PK WND 28030/19 SLP172 T00781004 52043 $","observationTime":"2026-03-26T08:55:00.000Z","flightCategory":"VFR","latitude":43.03,"longitude":-115.859},"KTBN":{"rawOb":"METAR KTBN 260855Z AUTO 20008KT 10SM CLR 20/14 A2983 RMK AO2 SLP092 T02030137 58013","observationTime":"2026-03-26T08:55:00.000Z","flightCategory":"VFR","latitude":37.7445,"longitude":-92.1447},"K2J9":{"rawOb":"METAR K2J9 260855Z AUTO 10004KT 3SM BR OVC005 15/15 A3017 RMK AO2","observationTime":"2026-03-26T08:55:00.000Z","flightCategory":"IFR","latitude":30.5987,"longitude":-84.555},"FJDG":{"rawOb":"METAR FJDG 260855Z 27003KT 9999 FEW020 30/25 A2980 RMK SLP088 8/100 T03000250 57020","observationTime":"2026-03-26T08:55:00.000Z","flightCategory":"VFR","latitude":-7.313,"longitude":72.411},"KOPN":{"rawOb":"METAR KOPN 260855Z AUTO 00000KT 7SM CLR 11/10 A3019 RMK AO2","observationTime":"2026-03-26T08:55:00.000Z","flightCategory":"VFR","latitude":32.954,"longitude":-84.2595},"KLRY":{"rawOb":"METAR KLRY 260855Z AUTO 22007KT 10SM CLR 21/15 A2983 RMK AO2","observationTime":"2026-03-26T08:55:00.000Z","flightCategory":"VFR","latitude":38.6074,"longitude":-94.3453},"K2C8":{"rawOb":"METAR K2C8 260855Z AUTO 34021KT 10SM -SN OVC009 M08/M08 A3001 RMK AO2","observationTime":"2026-03-26T08:55:00.000Z","flightCategory":"IFR","latitude":48.7838,"longitude":-97.6297},"K20U":{"rawOb":"METAR K20U 260855Z AUTO 36018KT M03/M03 A3003 RMK AO2 TSNO","observationTime":"2026-03-26T08:55:00.000Z","flightCategory":"null","latitude":46.9251,"longitude":-103.9852},"KL18":{"rawOb":"METAR KL18 260855Z AUTO 08003KT 1/4SM FG OVC002 13/13 A2996 RMK AO2","observationTime":"2026-03-26T08:55:00.000Z","flightCategory":"LIFR","latitude":33.3551,"longitude":-117.249},"KLDJ":{"rawOb":"METAR KLDJ 260855Z AUTO 25003KT 10SM OVC100 09/03 A3002 RMK AO2 T00940030","observationTime":"2026-03-26T08:55:00.000Z","flightCategory":"VFR","latitude":40.6162,"longitude":-74.2451},"KW96":{"rawOb":"METAR KW96 260855Z AUTO 20006KT 10SM CLR 13/09 A3011 RMK AO1 T01270086","observationTime":"2026-03-26T08:55:00.000Z","flightCategory":"VFR","latitude":37.5027,"longitude":-77.126},"KW31":{"rawOb":"METAR KW31 260855Z AUTO 19004KT 10SM CLR 10/07 A3013 RMK AO1 T01020073","observationTime":"2026-03-26T08:55:00.000Z","flightCategory":"VFR","latitude":36.9599,"longitude":-78.1838},"KPTB":{"rawOb":"METAR KPTB 260855Z AUTO 21003KT 10SM 11/08 A3013 RMK AO2 T01100076","observationTime":"2026-03-26T08:55:00.000Z","flightCategory":"VFR","latitude":37.1803,"longitude":-77.5081},"KMTC":{"rawOb":"METAR KMTC 260855Z AUTO 23007KT 10SM CLR 13/02 A2975 RMK AO2 SLP080 T01260022 58003","observationTime":"2026-03-26T08:55:00.000Z","flightCategory":"VFR","latitude":42.6045,"longitude":-82.8353},"KMFV":{"rawOb":"METAR KMFV 260855Z AUTO 21010G14KT 10SM SCT120 13/08 A3013 RMK AO2 T01310076","observationTime":"2026-03-26T08:55:00.000Z","flightCategory":"VFR","latitude":37.646,"longitude":-75.763},"KEMV":{"rawOb":"METAR KEMV 260855Z AUTO 15004KT 10SM OVC050 12/09 A3017 RMK AO2 T01200087","observationTime":"2026-03-26T08:55:00.000Z","flightCategory":"VFR","latitude":36.6858,"longitude":-77.485},"KVDF":{"rawOb":"METAR KVDF 260855Z AUTO 07005KT 8SM CLR 18/18 A3008 RMK AO2 T01830179 56012","observationTime":"2026-03-26T08:55:00.000Z","flightCategory":"VFR","latitude":28.0198,"longitude":-82.3415},"CYBW":{"rawOb":"SPECI CYBW 260855Z AUTO 04006KT 3/4SM R35/P6000FT/D -SN VV018 M12/M14 A3009 RMK PRESRR SLP266","observationTime":"2026-03-26T08:55:00.000Z","flightCategory":"LIFR","latitude":51.108,"longitude":-114.382},"KEDC":{"rawOb":"METAR KEDC 260855Z AUTO 18009KT 9SM OVC024 21/18 A3000 RMK AO2","observationTime":"2026-03-26T08:55:00.000Z","flightCategory":"MVFR","latitude":30.3926,"longitude":-97.5622},"KJYO":{"rawOb":"METAR KJYO 260855Z AUTO 19003KT 10SM CLR 11/02 A3002 RMK AO2","observationTime":"2026-03-26T08:55:00.000Z","flightCategory":"VFR","latitude":39.0826,"longitude":-77.5606},"OEPS":{"rawOb":"METAR OEPS 260855Z 20018KT 8000 HZ SCT140 31/12 A2964 RMK AO2A SLPNO","observationTime":"2026-03-26T08:55:00.000Z","flightCategory":"MVFR","latitude":24.063,"longitude":47.581},"KPSK":{"rawOb":"METAR KPSK 260855Z AUTO 22003KT 10SM SCT060 08/03 A3011 RMK AO2 T00760027","observationTime":"2026-03-26T08:55:00.000Z","flightCategory":"VFR","latitude":37.1337,"longitude":-80.6789},"K0V4":{"rawOb":"METAR K0V4 260855Z AUTO 16005KT 10SM BKN090 06/01 A3012 RMK AO1","observationTime":"2026-03-26T08:55:00.000Z","flightCategory":"VFR","latitude":37.1399,"longitude":-79.0171},"KJXI":{"rawOb":"METAR KJXI 260855Z AUTO 17004KT 10SM CLR 19/16 A3003 RMK AO2 T01900155","observationTime":"2026-03-26T08:55:00.000Z","flightCategory":"VFR","latitude":32.7036,"longitude":-94.9471},"KCPF":{"rawOb":"METAR KCPF 260855Z AUTO 19003KT 10SM BKN060 15/08 A3007 RMK AO2","observationTime":"2026-03-26T08:55:00.000Z","flightCategory":"VFR","latitude":37.3869,"longitude":-83.2593},"KW75":{"rawOb":"METAR KW75 260855Z AUTO 20008KT 10SM BKN110 13/09 A3011 RMK AO1 T01330090","observationTime":"2026-03-26T08:55:00.000Z","flightCategory":"VFR","latitude":37.6024,"longitude":-76.4477},"KW81":{"rawOb":"METAR KW81 260855Z AUTO 00000KT 10SM SCT100 12/04 A3011 RMK AO1 T01150041","observationTime":"2026-03-26T08:55:00.000Z","flightCategory":"VFR","latitude":37.1813,"longitude":-78.0977},"KO26":{"rawOb":"METAR KO26 260855Z AUTO 03005KT 10SM CLR 11/03 A3002 RMK A01","observationTime":"2026-03-26T08:55:00.000Z","flightCategory":"VFR","latitude":36.5883,"longitude":-118.052},"KLBO":{"rawOb":"METAR KLBO 260855Z AUTO 22011G15KT 10SM CLR 21/14 A2988 RMK AO2","observationTime":"2026-03-26T08:55:00.000Z","flightCategory":"VFR","latitude":37.6449,"longitude":-92.6544},"KLUA":{"rawOb":"METAR KLUA 260855Z AUTO 21007KT 10SM CLR 10/M02 A3003 RMK AO2","observationTime":"2026-03-26T08:55:00.000Z","flightCategory":"VFR","latitude":38.667,"longitude":-78.501},"CYRV":{"rawOb":"SPECI CYRV 260855Z AUTO 19003KT 9SM -FZRA SCT060 BKN076 OVC100 01/01 A3011 RMK ICE SLP213","observationTime":"2026-03-26T08:55:00.000Z","flightCategory":"VFR","latitude":50.958,"longitude":-118.176},"CYHU":{"rawOb":"SPECI CYHU 260855Z AUTO 01005KT 9SM -RA OVC055 M04/M05 A2983 RMK ICE PAST HR SLP105","observationTime":"2026-03-26T08:55:00.000Z","flightCategory":"VFR","latitude":45.516,"longitude":-73.415},"KRMN":{"rawOb":"METAR KRMN 260855Z AUTO 21003KT 10SM CLR 11/01 A3005 RMK AO2 T01100010","observationTime":"2026-03-26T08:55:00.000Z","flightCategory":"VFR","latitude":38.3941,"longitude":-77.4523},"KIUA":{"rawOb":"METAR KIUA 260855Z AUTO 24008G18KT 200V290 10SM BKN100 12/03 A2977 RMK AO2 T01210032","observationTime":"2026-03-26T08:55:00.000Z","flightCategory":"VFR","latitude":42.9058,"longitude":-77.3227},"KW63":{"rawOb":"METAR KW63 260855Z AUTO 00000KT 10SM BKN080 A3015 RMK AO1","observationTime":"2026-03-26T08:55:00.000Z","flightCategory":"VFR","latitude":36.6008,"longitude":-78.5559},"KCBK":{"rawOb":"METAR KCBK 260855Z AUTO 24008KT 10SM CLR 11/04 A2973 RMK AO2 T01150043","observationTime":"2026-03-26T08:55:00.000Z","flightCategory":"VFR","latitude":39.4301,"longitude":-101.0512},"KCHD":{"rawOb":"METAR KCHD 260855Z AUTO 08003KT 10SM CLR 20/04 A2987 RMK AO2 T02030041","observationTime":"2026-03-26T08:55:00.000Z","flightCategory":"VFR","latitude":33.2669,"longitude":-111.8086},"K10G":{"rawOb":"METAR K10G 260855Z AUTO 23009G15KT 10SM CLR 15/08 A2991 RMK AO2","observationTime":"2026-03-26T08:55:00.000Z","flightCategory":"VFR","latitude":40.5357,"longitude":-81.9531},"K4S2":{"rawOb":"METAR K4S2 260855Z AUTO 00000KT 10SM CLR 00/00 A3040 RMK AO2","observationTime":"2026-03-26T08:55:00.000Z","flightCategory":"VFR","latitude":45.6746,"longitude":-121.535},"KLKU":{"rawOb":"METAR KLKU 260855Z AUTO 21008KT 170V250 10SM BKN100 11/02 A3008 RMK AO2 T01110019","observationTime":"2026-03-26T08:55:00.000Z","flightCategory":"VFR","latitude":38.0085,"longitude":-77.9681},"KMCX":{"rawOb":"METAR KMCX 260855Z AUTO 20018G23KT 10SM OVC070 18/13 A2982 RMK AO2 T01790126","observationTime":"2026-03-26T08:55:00.000Z","flightCategory":"VFR","latitude":40.7127,"longitude":-86.7649},"KBRG":{"rawOb":"METAR KBRG 260855Z AUTO 20006KT 10SM CLR 16/M09 A3006 RMK AO2 T01571092","observationTime":"2026-03-26T08:55:00.000Z","flightCategory":"VFR","latitude":34.6477,"longitude":-106.8331},"KHAE":{"rawOb":"METAR KHAE 260855Z AUTO 19007KT 10SM CLR 18/12 A2975 RMK AO2","observationTime":"2026-03-26T08:55:00.000Z","flightCategory":"VFR","latitude":39.7262,"longitude":-91.4425},"KEZM":{"rawOb":"METAR KEZM 260855Z AUTO 00000KT 3/4SM BR OVC003 10/09 A3021 RMK AO2 VIS 1/4V5","observationTime":"2026-03-26T08:55:00.000Z","flightCategory":"LIFR","latitude":32.2136,"longitude":-83.1321},"KMAW":{"rawOb":"METAR KMAW 260855Z AUTO 19008KT 10SM CLR 17/13 A2996 RMK AO1","observationTime":"2026-03-26T08:55:00.000Z","flightCategory":"VFR","latitude":36.5945,"longitude":-89.9865},"KMBY":{"rawOb":"METAR KMBY 260855Z AUTO 23013G22KT 10SM CLR 21/14 A2977 RMK AO2","observationTime":"2026-03-26T08:55:00.000Z","flightCategory":"VFR","latitude":39.464,"longitude":-92.4244},"KIIY":{"rawOb":"METAR KIIY 260855Z AUTO 19003KT 5SM HZ SCT011 OVC080 11/ A3019 RMK AO2 T0113////","observationTime":"2026-03-26T08:55:00.000Z","flightCategory":"MVFR","latitude":33.7797,"longitude":-82.8135},"KIOB":{"rawOb":"METAR KIOB 260855Z AUTO 22009KT 10SM SCT120 16/10 A3002 RMK AO2 PWINO","observationTime":"2026-03-26T08:55:00.000Z","flightCategory":"VFR","latitude":38.0575,"longitude":-83.9829},"KJFZ":{"rawOb":"METAR KJFZ 260855Z AUTO 24005KT 10SM SCT045 BKN065 13/06 A3013 RMK AO2 T01250063","observationTime":"2026-03-26T08:55:00.000Z","flightCategory":"VFR","latitude":37.0634,"longitude":-81.7969},"KXSA":{"rawOb":"METAR KXSA 260855Z AUTO 20006KT 10SM CLR 12/09 A3010 RMK AO2 T01150088","observationTime":"2026-03-26T08:55:00.000Z","flightCategory":"VFR","latitude":37.8606,"longitude":-76.9016},"KY19":{"rawOb":"METAR KY19 260855Z AUTO 36021G28KT 10SM BKN009 OVC080 M03/M02 A3000 RMK AO2","observationTime":"2026-03-26T08:55:00.000Z","flightCategory":"IFR","latitude":46.7648,"longitude":-100.8941},"KMDS":{"rawOb":"METAR KMDS 260855Z AUTO 05015KT 10SM CLR 12/07 A2967 RMK AO2 TSNO","observationTime":"2026-03-26T08:55:00.000Z","flightCategory":"VFR","latitude":44.0141,"longitude":-97.0817},"K3R7":{"rawOb":"METAR K3R7 260855Z AUTO 00000KT 1 3/4SM BR SCT007 15/15 A3009 RMK AO2 VIS 1/2V5 T01510147","observationTime":"2026-03-26T08:55:00.000Z","flightCategory":"IFR","latitude":30.2427,"longitude":-92.6759},"KD55":{"rawOb":"METAR KD55 260855Z AUTO 35018G23KT 8SM -SN OVC009 M10/M10 A3001 RMK AO2","observationTime":"2026-03-26T08:55:00.000Z","flightCategory":"IFR","latitude":48.7519,"longitude":-98.3971},"KFRH":{"rawOb":"METAR KFRH 260855Z AUTO 19006G16KT 7SM BKN070 OVC080 18/11 A2991 RMK AO1","observationTime":"2026-03-26T08:55:00.000Z","flightCategory":"VFR","latitude":38.5034,"longitude":-86.6442},"KFRR":{"rawOb":"METAR KFRR 260855Z AUTO 22007KT 10SM CLR 13/00 A2999 RMK AO2 T01311003","observationTime":"2026-03-26T08:55:00.000Z","flightCategory":"VFR","latitude":38.9169,"longitude":-78.2487},"KCLS":{"rawOb":"METAR KCLS 260855Z AUTO 22003KT 10SM FEW029 BKN035 BKN040 02/02 A3043 RMK AO2","observationTime":"2026-03-26T08:55:00.000Z","flightCategory":"VFR","latitude":46.6775,"longitude":-122.9857},"KONM":{"rawOb":"METAR KONM 260855Z AUTO 19006KT 10SM CLR 16/M09 A3002 RMK AO2 T01631094","observationTime":"2026-03-26T08:55:00.000Z","flightCategory":"VFR","latitude":34.0263,"longitude":-106.9037},"KQBD":{"rawOb":"METAR KQBD 260855Z AUTO 34002KT 10SM FEW170 16/03 A2996 RMK AO2 SLP049 WND DATA ESTMD T01610032 51007","observationTime":"2026-03-26T08:55:00.000Z","flightCategory":"VFR","latitude":-99.99,"longitude":-99.99},"KHWY":{"rawOb":"METAR KHWY 260855Z AUTO 19006KT 10SM CLR 12/M01 A3004 RMK AO2 T01231010","observationTime":"2026-03-26T08:55:00.000Z","flightCategory":"VFR","latitude":38.5876,"longitude":-77.715},"KGVE":{"rawOb":"METAR KGVE 260855Z AUTO 23007KT 10SM CLR 11/02 A3005 RMK AO1 T01050020","observationTime":"2026-03-26T08:55:00.000Z","flightCategory":"VFR","latitude":38.1569,"longitude":-78.1656},"KGAF":{"rawOb":"METAR KGAF 260855Z AUTO 34019G29KT 10SM OVC006 M06/M06 A3001 RMK AO2 PWINO","observationTime":"2026-03-26T08:55:00.000Z","flightCategory":"IFR","latitude":48.4081,"longitude":-97.3694},"KFVX":{"rawOb":"METAR KFVX 260855Z AUTO 20006KT 10SM SCT095 11/06 A3009 RMK AO2 T01140057","observationTime":"2026-03-26T08:55:00.000Z","flightCategory":"VFR","latitude":37.363,"longitude":-78.4372},"KPLD":{"rawOb":"METAR KPLD 260855Z AUTO 23010KT 10SM SCT070 BKN090 17/06 A2987 RMK AO2 T01710056","observationTime":"2026-03-26T08:55:00.000Z","flightCategory":"VFR","latitude":40.4532,"longitude":-84.9848},"KF95":{"rawOb":"METAR KF95 260855Z AUTO 00000KT 7SM CLR 14/14 A3014 RMK AO2","observationTime":"2026-03-26T08:55:00.000Z","flightCategory":"VFR","latitude":30.4881,"longitude":-85.1148},"KSDC":{"rawOb":"METAR KSDC 260855Z AUTO 18006KT 10SM OVC080 10/02 A2977 RMK AO2","observationTime":"2026-03-26T08:55:00.000Z","flightCategory":"VFR","latitude":43.2355,"longitude":-77.1201},"KD09":{"rawOb":"METAR KD09 260855Z AUTO 35013KT 5SM -SN HZ FEW005 BKN008 OVC013 M10/M12 A3007 RMK AO2","observationTime":"2026-03-26T08:55:00.000Z","flightCategory":"IFR","latitude":48.83,"longitude":-100.417},"KCPK":{"rawOb":"METAR KCPK 260855Z AUTO 19003KT 10SM SCT060 OVC110 12/09 A3018 RMK AO2 T01210088","observationTime":"2026-03-26T08:55:00.000Z","flightCategory":"VFR","latitude":36.6631,"longitude":-76.3264},"KVBW":{"rawOb":"METAR KVBW 260855Z AUTO 16005KT 10SM CLR 10/01 A3004 RMK AO1 T00970005","observationTime":"2026-03-26T08:55:00.000Z","flightCategory":"VFR","latitude":38.366,"longitude":-78.968},"KVER":{"rawOb":"METAR KVER 260855Z AUTO 21010G18KT 10SM CLR 23/15 A2978 RMK AO2 T02270150","observationTime":"2026-03-26T08:55:00.000Z","flightCategory":"VFR","latitude":38.9496,"longitude":-92.6842},"KRID":{"rawOb":"METAR KRID 260855Z AUTO 20007KT 10SM SCT095 12/09 A2993 RMK AO2","observationTime":"2026-03-26T08:55:00.000Z","flightCategory":"VFR","latitude":39.7579,"longitude":-84.8359},"KRCM":{"rawOb":"METAR KRCM 260855Z AUTO 21013KT 10SM CLR 21/15 A2979 RMK AO2","observationTime":"2026-03-26T08:55:00.000Z","flightCategory":"VFR","latitude":38.7855,"longitude":-93.8058},"KMHL":{"rawOb":"METAR KMHL 260855Z AUTO 21009G15KT 10SM CLR 20/15 A2978 RMK AO2","observationTime":"2026-03-26T08:55:00.000Z","flightCategory":"VFR","latitude":39.093,"longitude":-93.2024},"KPTD":{"rawOb":"METAR KPTD 260855Z AUTO 18007KT 10SM SCT060 OVC080 05/03 A2977 RMK AO2 PNO","observationTime":"2026-03-26T08:55:00.000Z","flightCategory":"VFR","latitude":44.6757,"longitude":-74.9469},"KUXL":{"rawOb":"METAR KUXL 260855Z AUTO 15003KT 1/4SM FG BKN003 17/17 A3009 RMK AO2 T01710171","observationTime":"2026-03-26T08:55:00.000Z","flightCategory":"LIFR","latitude":30.135,"longitude":-93.3767},"KORS":{"rawOb":"METAR KORS 260855Z AUTO 18008KT 10SM CLR 05/00 A3037 RMK AO2","observationTime":"2026-03-26T08:55:00.000Z","flightCategory":"VFR","latitude":48.7081,"longitude":-122.9092},"KMHV":{"rawOb":"METAR KMHV 260855Z AUTO 34027G36KT 10SM CLR 19/06 A2995 RMK AO2 PK WND 33039/0827 T01920059 56002 $","observationTime":"2026-03-26T08:55:00.000Z","flightCategory":"VFR","latitude":35.0626,"longitude":-118.1572},"KOMH":{"rawOb":"METAR KOMH 260855Z AUTO 19004KT 10SM CLR 10/01 A3006 RMK AO2","observationTime":"2026-03-26T08:55:00.000Z","flightCategory":"VFR","latitude":38.2487,"longitude":-78.0454},"KD50":{"rawOb":"METAR KD50 260855Z AUTO 01014KT 9SM -SN OVC013 M10/M13 A3016 RMK AO2","observationTime":"2026-03-26T08:55:00.000Z","flightCategory":"MVFR","latitude":48.9248,"longitude":-103.2958},"KUUV":{"rawOb":"METAR KUUV 260855Z AUTO 22011KT 10SM CLR 21/13 A2986 RMK AO2","observationTime":"2026-03-26T08:55:00.000Z","flightCategory":"VFR","latitude":38.2335,"longitude":-91.1609},"K1P1":{"rawOb":"METAR K1P1 260855Z AUTO 00000KT 10SM SCT070 OVC095 01/00 A2996 RMK AO2 T00140000","observationTime":"2026-03-26T08:55:00.000Z","flightCategory":"VFR","latitude":43.7771,"longitude":-71.756},"K08D":{"rawOb":"METAR K08D 260855Z AUTO 35015G20KT 10SM OVC005 M08/M08 A3009 RMK AO2","observationTime":"2026-03-26T08:55:00.000Z","flightCategory":"IFR","latitude":48.3018,"longitude":-102.4042},"KDQH":{"rawOb":"METAR KDQH 260855Z AUTO 00000KT 5SM BR OVC003 15/15 A3018 RMK AO2 T01520145","observationTime":"2026-03-26T08:55:00.000Z","flightCategory":"LIFR","latitude":31.4738,"longitude":-82.8609},"KMYJ":{"rawOb":"METAR KMYJ 260855Z AUTO 21010KT 10SM CLR 18/13 A2977 RMK AO2","observationTime":"2026-03-26T08:55:00.000Z","flightCategory":"VFR","latitude":39.1561,"longitude":-91.8129},"KMTV":{"rawOb":"METAR KMTV 260855Z AUTO 21003KT 10SM SCT060 BKN075 12/03 A3016 RMK AO2 T01170025","observationTime":"2026-03-26T08:55:00.000Z","flightCategory":"VFR","latitude":36.6272,"longitude":-80.0134},"K5A9":{"rawOb":"METAR K5A9 260855Z AUTO 00000KT 10SM CLR 12/11 A3018 RMK AO2 T01230112","observationTime":"2026-03-26T08:55:00.000Z","flightCategory":"VFR","latitude":32.9362,"longitude":-84.6972},"KMCJ":{"rawOb":"METAR KMCJ 260855Z AUTO 17009KT 6SM BR FEW006 20/19 A3004 RMK A01","observationTime":"2026-03-26T08:55:00.000Z","flightCategory":"VFR","latitude":29.7139,"longitude":-95.3967},"KSNK":{"rawOb":"METAR KSNK 260855Z AUTO 18008KT 10SM CLR 20/10 A2995 RMK AO2 T02020096","observationTime":"2026-03-26T08:55:00.000Z","flightCategory":"VFR","latitude":32.6917,"longitude":-100.9505},"K8W2":{"rawOb":"METAR K8W2 260855Z AUTO 25007KT 10SM CLR 11/M01 A3003 RMK AO1 T01131010","observationTime":"2026-03-26T08:55:00.000Z","flightCategory":"VFR","latitude":38.6555,"longitude":-78.7083},"KLRU":{"rawOb":"METAR KLRU 260855Z AUTO 26003KT 10SM CLR 14/M16 A3003 RMK AO2 T01371157","observationTime":"2026-03-26T08:55:00.000Z","flightCategory":"VFR","latitude":32.2884,"longitude":-106.9131},"KJYL":{"rawOb":"METAR KJYL 260855Z AUTO 00000KT 7SM 08/08 A3020 RMK AO2 T00830083","observationTime":"2026-03-26T08:55:00.000Z","flightCategory":"VFR","latitude":32.6459,"longitude":-81.5894},"KJAQ":{"rawOb":"METAR KJAQ 260855Z AUTO 00000KT 10SM CLR 13/08 A3004 RMK AO1 T01330081","observationTime":"2026-03-26T08:55:00.000Z","flightCategory":"VFR","latitude":38.3742,"longitude":-120.7943},"KOKV":{"rawOb":"METAR KOKV 260855Z AUTO 23009KT 10SM CLR 11/00 A2999 RMK AO2","observationTime":"2026-03-26T08:55:00.000Z","flightCategory":"VFR","latitude":39.1406,"longitude":-78.1391},"KBCB":{"rawOb":"METAR KBCB 260855Z AUTO 00000KT 10SM CLR 08/03 A3014 RMK AO2 T00750030","observationTime":"2026-03-26T08:55:00.000Z","flightCategory":"VFR","latitude":37.208,"longitude":-80.4127},"KBEA":{"rawOb":"METAR KBEA 260855Z AUTO 17010KT 10SM BKN015 OVC021 21/18 A3002 RMK AO2 T02070176 PWINO","observationTime":"2026-03-26T08:55:00.000Z","flightCategory":"MVFR","latitude":28.3692,"longitude":-97.7953},"KBVU":{"rawOb":"METAR KBVU 260855Z AUTO 00000KT 10SM CLR 24/M04 A2984 RMK AO2","observationTime":"2026-03-26T08:55:00.000Z","flightCategory":"VFR","latitude":35.9489,"longitude":-114.8633},"KUYF":{"rawOb":"METAR KUYF 260855Z AUTO 24011KT 10SM SCT120 13/09 A2992 RMK AO2","observationTime":"2026-03-26T08:55:00.000Z","flightCategory":"VFR","latitude":39.9312,"longitude":-83.465},"KCFJ":{"rawOb":"METAR KCFJ 260855Z AUTO 20008KT 10SM -RA SCT090 SCT120 15/14 A2988 RMK AO2 LTG DSNT SE AND SW P0001 60001 T01530137","observationTime":"2026-03-26T08:55:00.000Z","flightCategory":"VFR","latitude":39.9767,"longitude":-86.9148},"KFYJ":{"rawOb":"METAR KFYJ 260855Z AUTO 20005KT 10SM CLR 13/09 A3013 RMK AO1 T01300085","observationTime":"2026-03-26T08:55:00.000Z","flightCategory":"VFR","latitude":37.5224,"longitude":-76.7663},"CYYW":{"rawOb":"SPECI CYYW 260855Z AUTO 01004KT 330V100 2 1/2SM -SN OVC036 M13/M17 A2994 RMK VIS VRB 1 1/4-3 SLP174","observationTime":"2026-03-26T08:55:00.000Z","flightCategory":"IFR","latitude":50.296,"longitude":-88.912},"KW13":{"rawOb":"METAR KW13 260855Z AUTO 00000KT 10SM BKN090 10/01 A3007 RMK AO1 T01000007","observationTime":"2026-03-26T08:55:00.000Z","flightCategory":"VFR","latitude":38.077,"longitude":-78.944},"KHFY":{"rawOb":"METAR KHFY 260855Z AUTO 23011G16KT 7SM OVC100 16/14 A2993 RMK AO2 T01560136","observationTime":"2026-03-26T08:55:00.000Z","flightCategory":"VFR","latitude":39.628,"longitude":-86.088},"KCMR":{"rawOb":"METAR KCMR 260855Z AUTO 16007KT 10SM CLR 09/M09 A3018 RMK AO2","observationTime":"2026-03-26T08:55:00.000Z","flightCategory":"VFR","latitude":35.3016,"longitude":-112.197},"YPLM":{"rawOb":"SPECI YPLM 260855Z AUTO 12024G35KT 9999 // OVC068 OVC077 32/21 Q1000","observationTime":"2026-03-26T08:55:00.000Z","flightCategory":"VFR","latitude":-22.241,"longitude":114.097},"K01M":{"rawOb":"METAR K01M 260855Z AUTO 20006KT 10SM CLR 18/13 A3006 RMK AO2 T01770132","observationTime":"2026-03-26T08:55:00.000Z","flightCategory":"VFR","latitude":34.494,"longitude":-88.203},"K0E0":{"rawOb":"METAR K0E0 260855Z AUTO 00000KT 10SM CLR 06/M03 A3011 RMK AO2 T00621035","observationTime":"2026-03-26T08:55:00.000Z","flightCategory":"VFR","latitude":34.9837,"longitude":-105.9958},"PGUM":{"rawOb":"METAR PGUM 260854Z 17005KT 10SM FEW017 BKN110 27/24 A2976 RMK AO2 SLP070 P0001 60002 T02720244 51014","observationTime":"2026-03-26T08:54:00.000Z","flightCategory":"VFR","latitude":13.4796,"longitude":144.7958},"CYYY":{"rawOb":"SPECI CYYY 260854Z 11009KT 1 1/2SM -SN OVC012 M10/M13 A3001 RMK SN2SC6 SLP170","observationTime":"2026-03-26T08:54:00.000Z","flightCategory":"IFR","latitude":48.609,"longitude":-68.208},"KMTP":{"rawOb":"METAR KMTP 260854Z AUTO 20012G24KT 08/06 A3004 RMK AO1 SLP170 T00780061 58035","observationTime":"2026-03-26T08:54:00.000Z","flightCategory":"null","latitude":41.073,"longitude":-71.9235},"KRBL":{"rawOb":"METAR KRBL 260854Z AUTO 33008KT 10SM CLR 14/M04 A3007 RMK AO2 SLP178 T01391039 53019","observationTime":"2026-03-26T08:54:00.000Z","flightCategory":"VFR","latitude":40.1519,"longitude":-122.2548},"PHOG":{"rawOb":"METAR PHOG 260854Z 04011KT 10SM FEW024 22/18 A2999 RMK AO2 SLP160 60000 T02170178 50002","observationTime":"2026-03-26T08:54:00.000Z","flightCategory":"VFR","latitude":20.8887,"longitude":-156.4345},"CYBC":{"rawOb":"SPECI CYBC 260854Z AUTO 09017KT 1 3/4SM -SN OVC014 M09/M11 A3005 RMK VIS VRB 1 1/4-2 1/2 RVR MISG SLP181","observationTime":"2026-03-26T08:54:00.000Z","flightCategory":"IFR","latitude":49.135,"longitude":-68.202},"CYPR":{"rawOb":"SPECI CYPR 260854Z AUTO 15005KT 110V170 9SM -RA BKN030 BKN050 BKN076 OVC140 00/M01 A3009 RMK PRESRR SLP193","observationTime":"2026-03-26T08:54:00.000Z","flightCategory":"MVFR","latitude":54.291,"longitude":-130.451},"KLRD":{"rawOb":"SPECI KLRD 260854Z AUTO 15013KT 10SM BKN021 22/17 A2996 RMK AO2 $","observationTime":"2026-03-26T08:54:00.000Z","flightCategory":"MVFR","latitude":27.551,"longitude":-99.4614},"KSAC":{"rawOb":"METAR KSAC 260853Z AUTO 17004KT 10SM CLR 13/09 A3001 RMK AO2 SLP163 T01280089 52010","observationTime":"2026-03-26T08:53:00.000Z","flightCategory":"VFR","latitude":38.5066,"longitude":-121.496},"KPTN":{"rawOb":"SPECI KPTN 260853Z AUTO 00000KT 1 1/2SM BR SCT010 17/17 A3009 RMK AO2 VIS 1/2V5 $","observationTime":"2026-03-26T08:53:00.000Z","flightCategory":"IFR","latitude":29.71,"longitude":-91.3381},"KSBA":{"rawOb":"METAR KSBA 260853Z AUTO 04004KT 6SM BR OVC004 15/14 A2994 RMK AO2 SLP137 T01500139 58002","observationTime":"2026-03-26T08:53:00.000Z","flightCategory":"LIFR","latitude":34.4241,"longitude":-119.8425},"KSAV":{"rawOb":"METAR KSAV 260853Z AUTO 01004KT 1/2SM R10/P6000FT FG VV008 12/12 A3018 RMK AO2 SLP218 T01220122 55013","observationTime":"2026-03-26T08:53:00.000Z","flightCategory":"LIFR","latitude":32.1313,"longitude":-81.2023},"KPQL":{"rawOb":"METAR KPQL 260853Z AUTO 00000KT 1/2SM FG VV008 12/12 A3011 RMK AO2 SLP197 T01220122 55010","observationTime":"2026-03-26T08:53:00.000Z","flightCategory":"LIFR","latitude":30.463,"longitude":-88.5316},"KHLC":{"rawOb":"METAR KHLC 260853Z AUTO 23005KT 10SM CLR 19/09 A2971 RMK AO2 SLP032 T01940094 57012","observationTime":"2026-03-26T08:53:00.000Z","flightCategory":"VFR","latitude":39.3741,"longitude":-99.8299},"KXVG":{"rawOb":"METAR KXVG 260853Z AUTO 30010KT 10SM RA SCT040 BKN048 OVC075 04/01 A2981 RMK AO2","observationTime":"2026-03-26T08:53:00.000Z","flightCategory":"VFR","latitude":46.9942,"longitude":-94.206},"KPOU":{"rawOb":"METAR KPOU 260853Z AUTO 00000KT 10SM OVC090 07/01 A2998 RMK AO2 SLP149 T00670011 56022","observationTime":"2026-03-26T08:53:00.000Z","flightCategory":"VFR","latitude":41.6257,"longitude":-73.8816},"KSAF":{"rawOb":"METAR KSAF 260853Z AUTO 00000KT 10SM CLR 10/M03 A3008 RMK AO2 SLP087 T01001028 58003","observationTime":"2026-03-26T08:53:00.000Z","flightCategory":"VFR","latitude":35.611,"longitude":-106.0957},"KRXE":{"rawOb":"METAR KRXE 260853Z AUTO 21012G22KT 10SM CLR 13/00 A2987 RMK AO2 SLP078 T01280000 51001","observationTime":"2026-03-26T08:53:00.000Z","flightCategory":"VFR","latitude":43.8321,"longitude":-111.8075},"KRWL":{"rawOb":"METAR KRWL 260853Z AUTO 10SM CLR 11/M03 A2996 RMK AO2 SLP054 T01111033 56005","observationTime":"2026-03-26T08:53:00.000Z","flightCategory":"VFR","latitude":41.8065,"longitude":-107.1952},"KRWI":{"rawOb":"METAR KRWI 260853Z AUTO 18005KT 10SM OVC049 13/09 A3017 RMK AO2 SLP217 T01330094 56006","observationTime":"2026-03-26T08:53:00.000Z","flightCategory":"VFR","latitude":35.8502,"longitude":-77.8951},"KRWF":{"rawOb":"METAR KRWF 260853Z AUTO 01008KT 10SM SCT075 BKN095 OVC120 12/07 A2974 RMK AO2 RAB01E10B26E49 SLP070 P0000 60000 T01170067 52026","observationTime":"2026-03-26T08:53:00.000Z","flightCategory":"VFR","latitude":44.5483,"longitude":-95.0804},"KRUE":{"rawOb":"METAR KRUE 260853Z AUTO 00000KT 5SM HZ CLR 16/13 A2995 RMK AO2 SLP136 T01610128 58008 $","observationTime":"2026-03-26T08:53:00.000Z","flightCategory":"MVFR","latitude":35.2573,"longitude":-93.095},"KRTN":{"rawOb":"METAR KRTN 260853Z AUTO 05005KT 10SM CLR 09/M03 A3001 RMK AO2 SLP074 T00891033 58009","observationTime":"2026-03-26T08:53:00.000Z","flightCategory":"VFR","latitude":36.7418,"longitude":-104.5076},"KRSW":{"rawOb":"METAR KRSW 260853Z AUTO 00000KT 10SM CLR 18/17 A3008 RMK AO2 SLP183 T01830172 56011","observationTime":"2026-03-26T08:53:00.000Z","flightCategory":"VFR","latitude":26.538,"longitude":-81.7567},"KUUU":{"rawOb":"METAR KUUU 260853Z AUTO 21006G20KT 10SM FEW047 SCT060 OVC120 07/05 A3004 RMK AO2 SLP171 60000 T00720050 56037","observationTime":"2026-03-26T08:53:00.000Z","flightCategory":"VFR","latitude":41.5299,"longitude":-71.2833},"KRSL":{"rawOb":"METAR KRSL 260853Z AUTO 19019G25KT 10SM CLR 22/13 A2970 RMK AO2 PK WND 19030/0804 SLP038 T02170133 58010 TSNO","observationTime":"2026-03-26T08:53:00.000Z","flightCategory":"VFR","latitude":38.8725,"longitude":-98.8093},"KUTS":{"rawOb":"METAR KUTS 260853Z AUTO 19008KT 10SM CLR 19/18 A3005 RMK AO1 SLP169 T01940178 58007","observationTime":"2026-03-26T08:53:00.000Z","flightCategory":"VFR","latitude":30.7443,"longitude":-95.5866},"KUNO":{"rawOb":"METAR KUNO 260853Z AUTO 22008KT 8SM CLR 19/13 A2993 RMK AO2 SLP122 T01890133 58012","observationTime":"2026-03-26T08:53:00.000Z","flightCategory":"VFR","latitude":36.8791,"longitude":-91.9052},"KPOF":{"rawOb":"METAR KPOF 260853Z AUTO 21006KT 10SM CLR 18/14 A2992 RMK AO2 SLP128 T01780139 58006","observationTime":"2026-03-26T08:53:00.000Z","flightCategory":"VFR","latitude":36.7697,"longitude":-90.3224},"KUIL":{"rawOb":"METAR KUIL 260853Z AUTO 06003KT 10SM CLR 01/01 A3040 RMK AO2 SLP294 T00060006 52027 PWINO FZRANO $","observationTime":"2026-03-26T08:53:00.000Z","flightCategory":"VFR","latitude":47.937,"longitude":-124.5576},"KPNS":{"rawOb":"METAR KPNS 260853Z 13004KT 10SM OVC008 18/17 A3012 RMK AO2 SLP200 T01830167 56004","observationTime":"2026-03-26T08:53:00.000Z","flightCategory":"IFR","latitude":30.478,"longitude":-87.1869},"KRQE":{"rawOb":"METAR KRQE 260853Z AUTO 32003KT 10SM CLR 12/M07 A3017 RMK AO2 SLP097 T01221067 50003 $","observationTime":"2026-03-26T08:53:00.000Z","flightCategory":"VFR","latitude":35.6571,"longitude":-109.0603},"KRNT":{"rawOb":"METAR KRNT 260853Z AUTO 00000KT 10SM BKN023 05/02 A3041 RMK AO2 SLP304 T00500017 53028","observationTime":"2026-03-26T08:53:00.000Z","flightCategory":"MVFR","latitude":47.4951,"longitude":-122.2144},"KUAO":{"rawOb":"METAR KUAO 260853Z AUTO 00000KT 10SM CLR 02/01 A3046 RMK AO2 SLP316 T00170011 53016 $","observationTime":"2026-03-26T08:53:00.000Z","flightCategory":"VFR","latitude":45.2466,"longitude":-122.7709},"KRNM":{"rawOb":"METAR KRNM 260853Z AUTO 00000KT 1/4SM FG VV002 07/07 A2996 RMK AO2 SLP134 T00720072 58006 $","observationTime":"2026-03-26T08:53:00.000Z","flightCategory":"LIFR","latitude":33.038,"longitude":-116.916},"KRMG":{"rawOb":"METAR KRMG 260853Z AUTO 00000KT 5SM BR CLR 11/09 A3015 RMK AO2 SLP203 T01110089 55008 $","observationTime":"2026-03-26T08:53:00.000Z","flightCategory":"MVFR","latitude":34.3483,"longitude":-85.1616},"KTXK":{"rawOb":"METAR KTXK 260853Z AUTO 20007KT 10SM CLR 20/16 A3002 RMK AO2 SLP160 T02000161 58002","observationTime":"2026-03-26T08:53:00.000Z","flightCategory":"VFR","latitude":33.456,"longitude":-93.9878},"KTTD":{"rawOb":"METAR KTTD 260853Z AUTO 00000KT 10SM CLR 03/02 A3046 RMK AO2 SLP314 T00280022 53024 $","observationTime":"2026-03-26T08:53:00.000Z","flightCategory":"VFR","latitude":45.551,"longitude":-122.4098},"KTWF":{"rawOb":"METAR KTWF 260853Z AUTO 26024G34KT 10SM CLR 08/01 A3002 RMK AO2 PK WND 27034/0815 SLP126 T00780011 53024","observationTime":"2026-03-26T08:53:00.000Z","flightCategory":"VFR","latitude":42.4785,"longitude":-114.4775},"KPNC":{"rawOb":"METAR KPNC 260853Z AUTO 19008KT 10SM CLR 21/15 A2984 RMK AO2 SLP089 T02060150 58010","observationTime":"2026-03-26T08:53:00.000Z","flightCategory":"VFR","latitude":36.7369,"longitude":-97.1024},"KTRL":{"rawOb":"METAR KTRL 260853Z AUTO 18010KT 10SM CLR 19/16 A2999 RMK AO2 SLP149 6//// T01940161 58005 PNO $","observationTime":"2026-03-26T08:53:00.000Z","flightCategory":"VFR","latitude":32.7131,"longitude":-96.2687},"KPMP":{"rawOb":"METAR KPMP 260853Z AUTO 10005KT 10SM FEW032 23/17 A3007 RMK AO2 SLP184 T02280167 56015 TSNO","observationTime":"2026-03-26T08:53:00.000Z","flightCategory":"VFR","latitude":26.2464,"longitude":-80.111},"KTPA":{"rawOb":"METAR KTPA 260853Z VRB04KT 10SM CLR 20/18 A3009 RMK AO2 SLP188 T02000183 56012","observationTime":"2026-03-26T08:53:00.000Z","flightCategory":"VFR","latitude":27.9633,"longitude":-82.54},"KTOR":{"rawOb":"METAR KTOR 260853Z AUTO 03010KT 10SM CLR 14/M04 A2977 RMK AO2 SLP031 T01441044 50001 $","observationTime":"2026-03-26T08:53:00.000Z","flightCategory":"VFR","latitude":42.0613,"longitude":-104.1585},"KTOP":{"rawOb":"METAR KTOP 260853Z AUTO 20010G20KT 10SM CLR 22/15 A2973 RMK AO2 SLP057 T02170150 57011","observationTime":"2026-03-26T08:53:00.000Z","flightCategory":"VFR","latitude":39.0725,"longitude":-95.626},"KPMD":{"rawOb":"METAR KPMD 260853Z AUTO 26006KT 10SM CLR 18/02 A3000 RMK AO2 SLP132 T01780017 53002 $","observationTime":"2026-03-26T08:53:00.000Z","flightCategory":"VFR","latitude":34.6294,"longitude":-118.0831},"KTOI":{"rawOb":"METAR KTOI 260853Z AUTO 00000KT 3SM BR CLR 13/12 A3015 RMK AO2 SLP205 T01280122 56006","observationTime":"2026-03-26T08:53:00.000Z","flightCategory":"MVFR","latitude":31.8574,"longitude":-86.0103},"KTMB":{"rawOb":"METAR KTMB 260853Z 36004KT SCT033 18/17 A3007 RMK AO2 SLP182 T01830167 56012","observationTime":"2026-03-26T08:53:00.000Z","flightCategory":"null","latitude":25.6423,"longitude":-80.4347},"KPKD":{"rawOb":"METAR KPKD 260853Z AUTO 27007KT 10SM OVC095 03/02 A2981 RMK AO2 RAB0758E45 SLP101 P0001 60001 T00330022 53018","observationTime":"2026-03-26T08:53:00.000Z","flightCategory":"VFR","latitude":46.8971,"longitude":-95.0695},"KPIR":{"rawOb":"METAR KPIR 260853Z AUTO 01018G27KT 10SM -RA CLR 11/02 A2976 RMK AO2 PK WND 36027/0851 SLP072 P0000 60000 T01060022 53017","observationTime":"2026-03-26T08:53:00.000Z","flightCategory":"VFR","latitude":44.3819,"longitude":-100.2864},"KRHI":{"rawOb":"METAR KRHI 260853Z AUTO 00000KT 10SM SCT120 04/M02 A2972 RMK AO2 SLP071 T00391022 55003 $","observationTime":"2026-03-26T08:53:00.000Z","flightCategory":"VFR","latitude":45.6315,"longitude":-89.4822},"KPKB":{"rawOb":"METAR KPKB 260853Z AUTO 21008KT 10SM CLR 17/03 A2995 RMK AO2 SLP139 T01670028 56010","observationTime":"2026-03-26T08:53:00.000Z","flightCategory":"VFR","latitude":39.3395,"longitude":-81.4438},"KPIL":{"rawOb":"METAR KPIL 260853Z AUTO 16007KT 10SM FEW024 22/19 A3002 RMK AO2 SLP164 T02170189 55007","observationTime":"2026-03-26T08:53:00.000Z","flightCategory":"VFR","latitude":26.1597,"longitude":-97.3378},"KTVR":{"rawOb":"METAR KTVR 260853Z AUTO 17004KT 9SM CLR 16/14 A3009 RMK AO2 SLP193 T01610144 50003","observationTime":"2026-03-26T08:53:00.000Z","flightCategory":"VFR","latitude":32.3481,"longitude":-91.0299},"KTLH":{"rawOb":"METAR KTLH 260853Z AUTO 09007KT 10SM OVC005 16/16 A3014 RMK AO2 SLP205 T01610156 56013","observationTime":"2026-03-26T08:53:00.000Z","flightCategory":"IFR","latitude":30.3935,"longitude":-84.3513},"KTKI":{"rawOb":"METAR KTKI 260853Z AUTO 16008KT 10SM CLR 19/16 A2997 RMK AO2 SLP144 T01940156 58005","observationTime":"2026-03-26T08:53:00.000Z","flightCategory":"VFR","latitude":33.1828,"longitude":-96.5899},"KTIW":{"rawOb":"METAR KTIW 260853Z AUTO VRB05KT 10SM CLR 04/01 A3040 RMK AO2 SLP298 T00390011 53028","observationTime":"2026-03-26T08:53:00.000Z","flightCategory":"VFR","latitude":47.2674,"longitude":-122.5762},"KRDD":{"rawOb":"METAR KRDD 260853Z 32006G15KT 10SM CLR 16/00 A3006 RMK AO2 SLP175 T01560000 53021","observationTime":"2026-03-26T08:53:00.000Z","flightCategory":"VFR","latitude":40.5146,"longitude":-122.2977},"KTHV":{"rawOb":"METAR KTHV 260853Z AUTO VRB05KT 10SM OVC100 12/02 A2997 RMK AO2 SLP152 T01170017 56020","observationTime":"2026-03-26T08:53:00.000Z","flightCategory":"VFR","latitude":39.9194,"longitude":-76.8769},"KTCS":{"rawOb":"METAR KTCS 260853Z AUTO 26007KT 10SM CLR 19/M11 A3002 RMK AO2 SLP076 T01891106 58001","observationTime":"2026-03-26T08:53:00.000Z","flightCategory":"VFR","latitude":33.2369,"longitude":-107.2685},"KTCL":{"rawOb":"METAR KTCL 260853Z AUTO 00000KT 8SM BKN075 15/14 A3012 RMK AO2 SLP196 T01500139 50000","observationTime":"2026-03-26T08:53:00.000Z","flightCategory":"VFR","latitude":33.2122,"longitude":-87.6155},"KTCC":{"rawOb":"METAR KTCC 260853Z AUTO 22019G28KT 10SM CLR 21/04 A2990 RMK AO2 PK WND 22028/0851 SLP050 T02110039 58004 $","observationTime":"2026-03-26T08:53:00.000Z","flightCategory":"VFR","latitude":35.1805,"longitude":-103.6014},"KSWO":{"rawOb":"METAR KSWO 260853Z AUTO 18007KT 10SM CLR 19/15 A2986 RMK AO2 SLP097 T01890150 58009 $","observationTime":"2026-03-26T08:53:00.000Z","flightCategory":"VFR","latitude":36.1624,"longitude":-97.0832},"KSTS":{"rawOb":"METAR KSTS 260853Z AUTO 00000KT 10SM CLR 08/06 A3007 RMK AO2 SLP175 T00830061 53006","observationTime":"2026-03-26T08:53:00.000Z","flightCategory":"VFR","latitude":38.5037,"longitude":-122.811},"KSTP":{"rawOb":"METAR KSTP 260853Z AUTO 32006KT 10SM FEW110 13/05 A2974 RMK AO2 SLP069 T01280050 53017","observationTime":"2026-03-26T08:53:00.000Z","flightCategory":"VFR","latitude":44.9323,"longitude":-93.0559},"KSTJ":{"rawOb":"METAR KSTJ 260853Z AUTO 19008KT 10SM CLR 18/13 A2971 RMK AO2 SLP053 T01780128 58011","observationTime":"2026-03-26T08:53:00.000Z","flightCategory":"VFR","latitude":39.7683,"longitude":-94.9095},"KSTC":{"rawOb":"METAR KSTC 260853Z AUTO 10SM FEW055 SCT070 OVC090 10/05 A2978 RMK AO2 RAB31E40 SLP093 P0000 60000 T01000050 53022 $","observationTime":"2026-03-26T08:53:00.000Z","flightCategory":"VFR","latitude":45.5442,"longitude":-94.0516},"KSSF":{"rawOb":"METAR KSSF 260853Z AUTO 16009KT 10SM OVC015 21/18 A3000 RMK AO2 SLP149 T02110178 58003 $","observationTime":"2026-03-26T08:53:00.000Z","flightCategory":"MVFR","latitude":29.339,"longitude":-98.472},"KSRQ":{"rawOb":"METAR KSRQ 260853Z AUTO 07003KT 10SM CLR 19/17 A3008 RMK AO2 SLP185 T01890172 55011","observationTime":"2026-03-26T08:53:00.000Z","flightCategory":"VFR","latitude":27.4015,"longitude":-82.5597},"KSPW":{"rawOb":"METAR KSPW 260853Z AUTO 07004KT 10SM CLR 07/04 A2965 RMK AO2 SLP040 T00720044 58008","observationTime":"2026-03-26T08:53:00.000Z","flightCategory":"VFR","latitude":43.1682,"longitude":-95.2101},"KRBG":{"rawOb":"METAR KRBG 260853Z AUTO 00000KT 10SM CLR 02/01 A3044 RMK AO2 SLP312 T00220006 53017 $","observationTime":"2026-03-26T08:53:00.000Z","flightCategory":"VFR","latitude":43.2337,"longitude":-123.3578},"KSPG":{"rawOb":"METAR KSPG 260853Z AUTO 08010KT 10SM CLR 22/19 A3007 RMK AO2 SLP181 T02220189 56011 $","observationTime":"2026-03-26T08:53:00.000Z","flightCategory":"VFR","latitude":27.7685,"longitude":-82.6257},"KSPB":{"rawOb":"METAR KSPB 260853Z AUTO 31003KT 10SM CLR 01/M01 A3045 RMK AO2 SLP312 T00061006 53024 $","observationTime":"2026-03-26T08:53:00.000Z","flightCategory":"VFR","latitude":45.7691,"longitude":-122.8637},"KSNY":{"rawOb":"METAR KSNY 260853Z AUTO 15005KT 10SM CLR 18/M01 A2976 RMK AO2 PRESFR SLP016 T01831011 58008","observationTime":"2026-03-26T08:53:00.000Z","flightCategory":"VFR","latitude":41.0993,"longitude":-102.9864},"KSNS":{"rawOb":"METAR KSNS 260853Z 28006KT 10SM CLR 12/08 A3009 RMK AO2 SLP200 T01170083 51010","observationTime":"2026-03-26T08:53:00.000Z","flightCategory":"VFR","latitude":36.6635,"longitude":-121.6093},"KSNA":{"rawOb":"METAR KSNA 260853Z AUTO VRB04KT 7SM BKN009 16/14 A2994 RMK AO2 SLP139 T01610144 58009","observationTime":"2026-03-26T08:53:00.000Z","flightCategory":"IFR","latitude":33.6798,"longitude":-117.8675},"KSMQ":{"rawOb":"METAR KSMQ 260853Z AUTO 00000KT 10SM OVC090 07/02 A2999 RMK AO2 SLP157 T00670022 56025","observationTime":"2026-03-26T08:53:00.000Z","flightCategory":"VFR","latitude":40.6241,"longitude":-74.669},"KSMF":{"rawOb":"METAR KSMF 260853Z 15006KT 10SM BKN250 14/10 A3000 RMK AO2 SLP159 T01440100 51011","observationTime":"2026-03-26T08:53:00.000Z","flightCategory":"VFR","latitude":38.7007,"longitude":-121.5948},"KLWV":{"rawOb":"METAR KLWV 260853Z AUTO 21016KT 10SM BKN090 BKN100 20/12 A2986 RMK AO2 SLP108 60000 T02000117 56017 TSNO","observationTime":"2026-03-26T08:53:00.000Z","flightCategory":"VFR","latitude":38.7604,"longitude":-87.599},"KLWD":{"rawOb":"METAR KLWD 260853Z AUTO 20009KT 10SM CLR 13/09 A2970 RMK AO2 SLP051 T01330094 56012","observationTime":"2026-03-26T08:53:00.000Z","flightCategory":"VFR","latitude":40.6306,"longitude":-93.9005},"KLVS":{"rawOb":"METAR KLVS 260853Z AUTO 15006KT 10SM CLR 14/M03 A3010 RMK AO2 SLP075 T01441033 58005 $","observationTime":"2026-03-26T08:53:00.000Z","flightCategory":"VFR","latitude":35.6558,"longitude":-105.1385},"KLVM":{"rawOb":"METAR KLVM 260853Z AUTO 11007KT 10SM SCT100 03/M02 A2999 RMK AO2 SLP143 T00281022 51017","observationTime":"2026-03-26T08:53:00.000Z","flightCategory":"VFR","latitude":45.6984,"longitude":-110.4415},"KRBD":{"rawOb":"METAR KRBD 260853Z AUTO 18012G20KT 10SM CLR 19/17 A2996 RMK AO2 SLP139 T01940167 58006","observationTime":"2026-03-26T08:53:00.000Z","flightCategory":"VFR","latitude":32.6782,"longitude":-96.8677},"KLVK":{"rawOb":"METAR KLVK 260853Z AUTO 28005KT 10SM CLR 09/08 A3007 RMK AO2 SLP178 T00940078 51007","observationTime":"2026-03-26T08:53:00.000Z","flightCategory":"VFR","latitude":37.6931,"longitude":-121.8149},"KLVJ":{"rawOb":"METAR KLVJ 260853Z AUTO 00000KT 6SM BR BKN003 18/18 A3006 RMK AO2 SLP180 T01830178 56006","observationTime":"2026-03-26T08:53:00.000Z","flightCategory":"LIFR","latitude":29.5192,"longitude":-95.2423},"KLUK":{"rawOb":"METAR KLUK 260853Z AUTO 21005KT 10SM SCT120 14/10 A2994 RMK AO2 SLP135 T01390100 56011","observationTime":"2026-03-26T08:53:00.000Z","flightCategory":"VFR","latitude":39.106,"longitude":-84.4161},"KRAL":{"rawOb":"METAR KRAL 260853Z AUTO 00000KT 8SM CLR 16/13 A2996 RMK AO2 SLP130 T01560133 50002","observationTime":"2026-03-26T08:53:00.000Z","flightCategory":"VFR","latitude":33.9528,"longitude":-117.4352},"KRAC":{"rawOb":"METAR KRAC 260853Z AUTO 22005KT 10SM CLR 12/06 A2975 RMK AO2 SLP071 T01220061 58016","observationTime":"2026-03-26T08:53:00.000Z","flightCategory":"VFR","latitude":42.7586,"longitude":-87.8178},"KLSE":{"rawOb":"METAR KLSE 260853Z AUTO 15005KT 10SM CLR 08/06 A2967 RMK AO2 SLP046 T00830061 56024","observationTime":"2026-03-26T08:53:00.000Z","flightCategory":"VFR","latitude":43.8792,"longitude":-91.253},"KLPR":{"rawOb":"METAR KLPR 260853Z AUTO 24009KT 10SM CLR 13/06 A2986 RMK AO2 SLP112 T01280061 56007","observationTime":"2026-03-26T08:53:00.000Z","flightCategory":"VFR","latitude":41.3463,"longitude":-82.1788},"KLOZ":{"rawOb":"METAR KLOZ 260853Z AUTO 21006KT 10SM BKN120 17/09 A3006 RMK AO2 SLP168 T01720094 56012 $","observationTime":"2026-03-26T08:53:00.000Z","flightCategory":"VFR","latitude":37.0896,"longitude":-84.0688},"KLGB":{"rawOb":"METAR KLGB 260853Z AUTO 24003KT 7SM CLR 16/13 A2995 RMK AO2 SLP141 T01560133 56007","observationTime":"2026-03-26T08:53:00.000Z","flightCategory":"VFR","latitude":33.8118,"longitude":-118.1472},"KLFT":{"rawOb":"METAR KLFT 260853Z AUTO 00000KT 1/4SM FG VV004 17/17 A3008 RMK AO2 SLP187 T01720172 58005","observationTime":"2026-03-26T08:53:00.000Z","flightCategory":"LIFR","latitude":30.1986,"longitude":-91.9896},"KLFK":{"rawOb":"METAR KLFK 260853Z AUTO 14004KT 10SM FEW017 18/17 A3006 RMK AO2 SLP173 T01780172 56004 $","observationTime":"2026-03-26T08:53:00.000Z","flightCategory":"VFR","latitude":31.2359,"longitude":-94.7546},"KLEE":{"rawOb":"METAR KLEE 260853Z AUTO 03004KT 1 3/4SM BR OVC002 18/18 A3012 RMK AO2 SLP197 T01780178 58011","observationTime":"2026-03-26T08:53:00.000Z","flightCategory":"LIFR","latitude":28.8214,"longitude":-81.8006},"KLEB":{"rawOb":"METAR KLEB 260853Z AUTO 19007KT 10SM CLR 05/M02 A2992 RMK AO2 SLP135 T00501017 56028","observationTime":"2026-03-26T08:53:00.000Z","flightCategory":"VFR","latitude":43.6271,"longitude":-72.3054},"KLCH":{"rawOb":"METAR KLCH 260853Z AUTO 00000KT 1/2SM FG CLR 13/13 A3008 RMK AO2 SLP194 T01330133 56003","observationTime":"2026-03-26T08:53:00.000Z","flightCategory":"LIFR","latitude":30.1255,"longitude":-93.2277},"KLBX":{"rawOb":"METAR KLBX 260853Z AUTO 19003KT 8SM CLR 19/18 A3005 RMK AO1 SLP176 T01890183 56008","observationTime":"2026-03-26T08:53:00.000Z","flightCategory":"VFR","latitude":29.1154,"longitude":-95.4632},"KLBF":{"rawOb":"METAR KLBF 260853Z AUTO 00000KT 10SM CLR 12/00 A2970 RMK AO2 SLP031 T01220000 58008","observationTime":"2026-03-26T08:53:00.000Z","flightCategory":"VFR","latitude":41.122,"longitude":-100.6689},"KLBB":{"rawOb":"METAR KLBB 260853Z 21015KT 10SM CLR 21/11 A2994 RMK AO2 PK WND 21029/0831 SLP081 T02110106 58005","observationTime":"2026-03-26T08:53:00.000Z","flightCategory":"VFR","latitude":33.6658,"longitude":-101.8233},"KOGB":{"rawOb":"METAR KOGB 260853Z AUTO 00000KT 10SM OVC041 12/12 A3019 RMK AO2 SLP221 T01220117 56011","observationTime":"2026-03-26T08:53:00.000Z","flightCategory":"VFR","latitude":33.4637,"longitude":-80.8534},"KPWA":{"rawOb":"METAR KPWA 260853Z AUTO 19015KT 10SM CLR 21/15 A2987 RMK AO2 SLP097 T02060150 58006","observationTime":"2026-03-26T08:53:00.000Z","flightCategory":"VFR","latitude":35.5411,"longitude":-97.6472},"KODX":{"rawOb":"METAR KODX 260853Z AUTO 25003KT 10SM CLR 10/04 A2966 RMK AO2 SLP034 T01000039 58014 $","observationTime":"2026-03-26T08:53:00.000Z","flightCategory":"VFR","latitude":41.6234,"longitude":-98.9489},"KPUW":{"rawOb":"METAR KPUW 260853Z AUTO 25010KT 10SM CLR 01/M06 A3025 RMK AO2 SLP256 T00111061 51030","observationTime":"2026-03-26T08:53:00.000Z","flightCategory":"VFR","latitude":46.7438,"longitude":-117.1158},"KODO":{"rawOb":"METAR KODO 260853Z AUTO 17007KT 10SM CLR 20/10 A2996 RMK AO2 SLP095 T02000100 58011 $","observationTime":"2026-03-26T08:53:00.000Z","flightCategory":"VFR","latitude":31.925,"longitude":-102.3874},"KOAK":{"rawOb":"METAR KOAK 260853Z 16004KT 10SM FEW200 10/08 A3008 RMK AO2 SLP186 T01000083 50004","observationTime":"2026-03-26T08:53:00.000Z","flightCategory":"VFR","latitude":37.7178,"longitude":-122.233},"KNEW":{"rawOb":"METAR KNEW 260853Z AUTO 16004KT 6SM BR CLR 19/18 A3010 RMK AO1 SLP186 T01940183 56010","observationTime":"2026-03-26T08:53:00.000Z","flightCategory":"VFR","latitude":30.0494,"longitude":-90.029},"KMYV":{"rawOb":"METAR KMYV 260853Z AUTO 16003KT 10SM CLR 16/13 A3001 RMK AO2 SLP167 T01560128 51013","observationTime":"2026-03-26T08:53:00.000Z","flightCategory":"VFR","latitude":39.102,"longitude":-121.5688},"KMYF":{"rawOb":"METAR KMYF 260853Z AUTO 00000KT 5SM BR OVC004 15/14 A2997 RMK AO2 SLP143 T01500139 58002","observationTime":"2026-03-26T08:53:00.000Z","flightCategory":"LIFR","latitude":32.8145,"longitude":-117.1375},"KMWL":{"rawOb":"METAR KMWL 260853Z AUTO 15008KT 10SM CLR 17/14 A2994 RMK AO2 SLP124 T01720144 58004","observationTime":"2026-03-26T08:53:00.000Z","flightCategory":"VFR","latitude":32.7816,"longitude":-98.0602},"KMVY":{"rawOb":"METAR KMVY 260853Z AUTO 20015G25KT 10SM BKN120 07/06 A3004 RMK AO2 RAE25 SLP174 P0000 60000 T00720061 56044","observationTime":"2026-03-26T08:53:00.000Z","flightCategory":"VFR","latitude":41.393,"longitude":-70.6159},"KMTO":{"rawOb":"METAR KMTO 260853Z AUTO 19007G15KT 10SM FEW090 19/13 A2982 RMK AO2 PK WND 23026/0757 SLP094 T01890128 56009 $","observationTime":"2026-03-26T08:53:00.000Z","flightCategory":"VFR","latitude":39.4744,"longitude":-88.2724},"KMTJ":{"rawOb":"METAR KMTJ 260853Z AUTO 12008KT 10SM CLR 15/M02 A3003 RMK AO2 SLP088 T01501017 52002","observationTime":"2026-03-26T08:53:00.000Z","flightCategory":"VFR","latitude":38.5054,"longitude":-107.8981},"KMTH":{"rawOb":"METAR KMTH 260853Z AUTO 07005KT 10SM CLR 22/17 A3005 RMK AO2 SLP175 T02220167 56013 $","observationTime":"2026-03-26T08:53:00.000Z","flightCategory":"VFR","latitude":24.7263,"longitude":-81.0477},"KMSY":{"rawOb":"METAR KMSY 260853Z 14003KT 6SM BR FEW010 19/18 A3009 RMK AO2 SLP191 T01890183 58011","observationTime":"2026-03-26T08:53:00.000Z","flightCategory":"VFR","latitude":29.9974,"longitude":-90.2777},"KMSS":{"rawOb":"METAR KMSS 260853Z AUTO 05006KT 8SM -FZRA FEW003 BKN048 OVC070 00/M01 A2980 RMK AO2 UPE29FZRAB29 SLP096 P0000 60000 I1001 I3001 T00001011 56020","observationTime":"2026-03-26T08:53:00.000Z","flightCategory":"VFR","latitude":44.9334,"longitude":-74.8484},"KWRL":{"rawOb":"METAR KWRL 260853Z AUTO 36004KT 10SM CLR 07/M01 A2982 RMK AO2 SLP067 T00721011 53004","observationTime":"2026-03-26T08:53:00.000Z","flightCategory":"VFR","latitude":43.9654,"longitude":-107.9502},"KMSP":{"rawOb":"METAR KMSP 260853Z 35008KT 10SM SCT110 13/05 A2975 RMK AO2 SLP071 T01330050 53019","observationTime":"2026-03-26T08:53:00.000Z","flightCategory":"VFR","latitude":44.8852,"longitude":-93.2313},"KMSO":{"rawOb":"METAR KMSO 260853Z AUTO A3007 RMK AO2 SLPNO 52014 PWINO FZRANO $","observationTime":"2026-03-26T08:53:00.000Z","flightCategory":"null","latitude":46.9208,"longitude":-114.0938},"KMSN":{"rawOb":"METAR KMSN 260853Z AUTO 00000KT 8SM CLR 07/06 A2970 RMK AO2 SLP057 T00670056 58024 $","observationTime":"2026-03-26T08:53:00.000Z","flightCategory":"VFR","latitude":43.1407,"longitude":-89.3452},"KMSL":{"rawOb":"METAR KMSL 260853Z AUTO 20008KT 10SM CLR 19/13 A3006 RMK AO2 SLP173 T01940128 56010 $","observationTime":"2026-03-26T08:53:00.000Z","flightCategory":"VFR","latitude":34.7439,"longitude":-87.5997},"KPUC":{"rawOb":"METAR KPUC 260853Z AUTO 30009KT 10SM CLR 18/M02 A2996 RMK AO2 SLP057 T01831022 50000","observationTime":"2026-03-26T08:53:00.000Z","flightCategory":"VFR","latitude":39.6089,"longitude":-110.7555},"KMRB":{"rawOb":"METAR KMRB 260853Z AUTO 20008KT 10SM CLR 12/M01 A2997 RMK AO2 SLP148 T01221011 55018","observationTime":"2026-03-26T08:53:00.000Z","flightCategory":"VFR","latitude":39.4037,"longitude":-77.975},"KMPO":{"rawOb":"METAR KMPO 260853Z AUTO 21007KT 10SM OVC070 05/00 A2994 RMK AO2 SLP146 T00500000 58020","observationTime":"2026-03-26T08:53:00.000Z","flightCategory":"VFR","latitude":41.1368,"longitude":-75.3771},"KMOD":{"rawOb":"METAR KMOD 260853Z AUTO 36007KT 10SM CLR 16/07 A3001 RMK AO2 SLP160 T01610072 51008","observationTime":"2026-03-26T08:53:00.000Z","flightCategory":"VFR","latitude":37.6254,"longitude":-120.9549},"KMNN":{"rawOb":"METAR KMNN 260853Z AUTO 19006KT 10SM CLR 11/07 A2989 RMK AO2 SLP122 T01110067 56006","observationTime":"2026-03-26T08:53:00.000Z","flightCategory":"VFR","latitude":40.6158,"longitude":-83.0673},"KMMV":{"rawOb":"METAR KMMV 260853Z AUTO 25004KT 10SM CLR 01/M01 A3045 RMK AO2 SLP311 T00061006 51020 $","observationTime":"2026-03-26T08:53:00.000Z","flightCategory":"VFR","latitude":45.1957,"longitude":-123.1338},"KMMK":{"rawOb":"METAR KMMK 260853Z AUTO 00000KT 10SM OVC100 06/03 A3000 RMK AO2 SLP161 T00610033 56036","observationTime":"2026-03-26T08:53:00.000Z","flightCategory":"VFR","latitude":41.5097,"longitude":-72.8278},"KMLT":{"rawOb":"METAR KMLT 260853Z AUTO 00000KT 2SM -SN BR OVC005 M03/M03 A2997 RMK AO2 SLP159 P0003 60004 T10281033 56026","observationTime":"2026-03-26T08:53:00.000Z","flightCategory":"IFR","latitude":45.6478,"longitude":-68.6924},"KMLS":{"rawOb":"METAR KMLS 260853Z AUTO 03009KT 8SM OVC080 00/M03 A3003 RMK AO2 SLP171 60000 T00001033 51027","observationTime":"2026-03-26T08:53:00.000Z","flightCategory":"VFR","latitude":46.4265,"longitude":-105.8834},"KMLP":{"rawOb":"METAR KMLP 260853Z AUTO VRB04KT 10SM SCT016 BKN021 M05/M08 A3003 RMK AO2 SNE20 SLP144 P0000 60001 T10501078 53013","observationTime":"2026-03-26T08:53:00.000Z","flightCategory":"MVFR","latitude":47.4548,"longitude":-115.6711},"KMLB":{"rawOb":"METAR KMLB 260853Z 00000KT 10SM FEW055 20/18 A3009 RMK AO2 SLP190 T02000178 56010","observationTime":"2026-03-26T08:53:00.000Z","flightCategory":"VFR","latitude":28.0997,"longitude":-80.6356},"KMKO":{"rawOb":"METAR KMKO 260853Z AUTO 15007KT 10SM CLR 20/14 A2993 RMK AO2 SLP126 T02000144 58010","observationTime":"2026-03-26T08:53:00.000Z","flightCategory":"VFR","latitude":35.6576,"longitude":-95.3658},"KEPH":{"rawOb":"METAR KEPH 260853Z AUTO 29009KT 10SM CLR 03/M06 A3026 RMK AO2 SLP251 T00281056 51037","observationTime":"2026-03-26T08:53:00.000Z","flightCategory":"VFR","latitude":47.3078,"longitude":-119.5155},"KTVL":{"rawOb":"METAR KTVL 260853Z AUTO 20003KT 10SM CLR 02/M03 A3019 RMK AO2 SLP187 T00171033 51004","observationTime":"2026-03-26T08:53:00.000Z","flightCategory":"VFR","latitude":38.8984,"longitude":-119.9962},"KEMP":{"rawOb":"METAR KEMP 260853Z AUTO 21013KT 10SM CLR 19/15 A2978 RMK AO2 SLP072 T01940150 58004","observationTime":"2026-03-26T08:53:00.000Z","flightCategory":"VFR","latitude":38.3291,"longitude":-96.1945},"KELN":{"rawOb":"METAR KELN 260853Z AUTO 31015G23KT 10SM CLR 01/M03 A3028 RMK AO2 SLP262 T00111033 53023","observationTime":"2026-03-26T08:53:00.000Z","flightCategory":"VFR","latitude":47.0338,"longitude":-120.5314},"KELM":{"rawOb":"METAR KELM 260853Z AUTO 00000KT OVC080 06/03 A2987 RMK AO2 RAE07 SLP117 P0000 60000 T00610033 58022","observationTime":"2026-03-26T08:53:00.000Z","flightCategory":"null","latitude":42.1601,"longitude":-76.89},"KELD":{"rawOb":"METAR KELD 260853Z AUTO 20004KT 10SM CLR 17/15 A3004 RMK AO2 SLP170 T01720150 58001","observationTime":"2026-03-26T08:53:00.000Z","flightCategory":"VFR","latitude":33.2207,"longitude":-92.814},"KEET":{"rawOb":"METAR KEET 260853Z AUTO 00000KT 8SM CLR 13/12 A3014 RMK AO2 SLP200 T01280117 53001","observationTime":"2026-03-26T08:53:00.000Z","flightCategory":"VFR","latitude":33.1784,"longitude":-86.7818},"KVUO":{"rawOb":"METAR KVUO 260853Z AUTO 00000KT 10SM CLR 02/00 A3047 RMK AO2 SLP318 T00170000 53023 $","observationTime":"2026-03-26T08:53:00.000Z","flightCategory":"VFR","latitude":45.621,"longitude":-122.6542},"KEEO":{"rawOb":"METAR KEEO 260853Z AUTO VRB04KT 10SM FEW080 FEW110 11/00 A2998 RMK AO2 SLP064 T01110000 58004","observationTime":"2026-03-26T08:53:00.000Z","flightCategory":"VFR","latitude":40.0444,"longitude":-107.8884},"KVRB":{"rawOb":"METAR KVRB 260853Z AUTO 00000KT 10SM SCT032 18/16 A3009 RMK AO2 SLP189 T01780161 56011","observationTime":"2026-03-26T08:53:00.000Z","flightCategory":"VFR","latitude":27.6553,"longitude":-80.4142},"KECP":{"rawOb":"METAR KECP 260853Z AUTO 00000KT 4SM R16/2400V3000FT BR BKN011 13/13 A3012 RMK AO2 SLP211 T01330133 55014","observationTime":"2026-03-26T08:53:00.000Z","flightCategory":"MVFR","latitude":30.3487,"longitude":-85.7883},"KTVC":{"rawOb":"METAR KTVC 260853Z AUTO 00000KT 6SM BR CLR M01/M02 A2974 RMK AO2 SLP074 T10061017 55015","observationTime":"2026-03-26T08:53:00.000Z","flightCategory":"VFR","latitude":44.739,"longitude":-85.5694},"KDXR":{"rawOb":"METAR KDXR 260853Z AUTO VRB05KT 10SM OVC095 08/03 A2999 RMK AO2 RAB42E52 SLP154 P0000 60000 T00780028 56035 $","observationTime":"2026-03-26T08:53:00.000Z","flightCategory":"VFR","latitude":41.3721,"longitude":-73.4834},"KTUS":{"rawOb":"METAR KTUS 260853Z 14007KT 10SM CLR 19/M06 A2999 RMK AO2 SLP112 T01891061 58001","observationTime":"2026-03-26T08:53:00.000Z","flightCategory":"VFR","latitude":32.1315,"longitude":-110.9564},"KTUP":{"rawOb":"METAR KTUP 260853Z AUTO 19007KT 10SM CLR 15/13 A3006 RMK AO2 SLP176 T01500133 58005 $","observationTime":"2026-03-26T08:53:00.000Z","flightCategory":"VFR","latitude":34.2622,"longitude":-88.7713},"KDWH":{"rawOb":"METAR KDWH 260853Z AUTO 17003KT 10SM BKN014 OVC020 21/19 A3005 RMK AO2 SLP174 T02060189 58005","observationTime":"2026-03-26T08:53:00.000Z","flightCategory":"MVFR","latitude":30.068,"longitude":-95.5563},"KDVT":{"rawOb":"METAR KDVT 260853Z AUTO 00000KT 10SM CLR 22/00 A2988 RMK AO2 SLP093 T02170000 50001","observationTime":"2026-03-26T08:53:00.000Z","flightCategory":"VFR","latitude":33.6902,"longitude":-112.0662},"KDUJ":{"rawOb":"METAR KDUJ 260853Z AUTO 24009KT 10SM FEW095 12/02 A2989 RMK AO2 SLP120 T01170017 57005","observationTime":"2026-03-26T08:53:00.000Z","flightCategory":"VFR","latitude":41.1795,"longitude":-78.8933},"KTUL":{"rawOb":"METAR KTUL 260853Z 19010KT 10SM SCT250 22/15 A2988 RMK AO2 SLP110 T02170150 58005","observationTime":"2026-03-26T08:53:00.000Z","flightCategory":"VFR","latitude":36.1985,"longitude":-95.8782},"KDTW":{"rawOb":"METAR KDTW 260853Z 20007KT 8SM SCT070 BKN120 OVC220 11/03 A2981 RMK AO2 SLP095 T01060033 58006","observationTime":"2026-03-26T08:53:00.000Z","flightCategory":"VFR","latitude":42.2311,"longitude":-83.3312},"KDTS":{"rawOb":"METAR KDTS 260853Z AUTO 00000KT 1/4SM FG VV007 15/15 A3012 RMK AO2 SLP199 T01500150 56011","observationTime":"2026-03-26T08:53:00.000Z","flightCategory":"LIFR","latitude":30.3933,"longitude":-86.4674},"KDTO":{"rawOb":"METAR KDTO 260853Z AUTO 17010KT 10SM CLR 21/16 A2995 RMK AO2 SLP133 T02060161 58006","observationTime":"2026-03-26T08:53:00.000Z","flightCategory":"VFR","latitude":33.2088,"longitude":-97.1992},"KVLD":{"rawOb":"METAR KVLD 260853Z AUTO 00000KT 4SM BR OVC003 16/16 A3016 RMK AO2 SLP220 T01610156 56011","observationTime":"2026-03-26T08:53:00.000Z","flightCategory":"LIFR","latitude":30.7763,"longitude":-83.2739},"KDTN":{"rawOb":"METAR KDTN 260853Z AUTO 20009KT 10SM CLR 21/17 A3004 RMK AO2 SLP170 T02060167 58002","observationTime":"2026-03-26T08:53:00.000Z","flightCategory":"VFR","latitude":32.5429,"longitude":-93.745},"KDRT":{"rawOb":"METAR KDRT 260853Z AUTO 11009KT 10SM CLR 22/17 A2994 RMK AO2 SLP128 T02220172 58001 PWINO","observationTime":"2026-03-26T08:53:00.000Z","flightCategory":"VFR","latitude":29.3784,"longitude":-100.927},"KDRO":{"rawOb":"METAR KDRO 260853Z AUTO 36003KT 10SM CLR 08/M02 A3012 RMK AO2 SLP120 T00831017 50001","observationTime":"2026-03-26T08:53:00.000Z","flightCategory":"VFR","latitude":37.1431,"longitude":-107.7602},"KDNL":{"rawOb":"METAR KDNL 260853Z AUTO 11004KT 10SM BKN022 OVC044 15/12 A3020 RMK AO2 SLP222 T01500117 58006","observationTime":"2026-03-26T08:53:00.000Z","flightCategory":"MVFR","latitude":33.4668,"longitude":-82.0385},"KDMO":{"rawOb":"METAR KDMO 260853Z AUTO 22015G24KT 10SM CLR 21/14 A2981 RMK AO2 SLP084 T02110144 56009","observationTime":"2026-03-26T08:53:00.000Z","flightCategory":"VFR","latitude":38.712,"longitude":-93.1747},"KDMN":{"rawOb":"METAR KDMN 260853Z AUTO 22007KT 10SM CLR 14/M08 A3004 RMK AO2 SLP095 T01441078 58001","observationTime":"2026-03-26T08:53:00.000Z","flightCategory":"VFR","latitude":32.2592,"longitude":-107.7206},"KDLS":{"rawOb":"METAR KDLS 260853Z AUTO 28006KT 10SM CLR 04/M02 A3040 RMK AO2 SLP295 T00391017 53021","observationTime":"2026-03-26T08:53:00.000Z","flightCategory":"VFR","latitude":45.619,"longitude":-121.1657},"KDLN":{"rawOb":"METAR KDLN 260853Z AUTO 08008KT 10SM FEW100 03/M01 A2997 RMK AO2 SLP121 T00281011 51028","observationTime":"2026-03-26T08:53:00.000Z","flightCategory":"VFR","latitude":45.2584,"longitude":-112.5546},"KTTN":{"rawOb":"METAR KTTN 260853Z AUTO 22007KT 10SM FEW090 OVC110 09/04 A3002 RMK AO2 SLP159 T00940044 56023","observationTime":"2026-03-26T08:53:00.000Z","flightCategory":"VFR","latitude":40.2768,"longitude":-74.8159},"KDKK":{"rawOb":"METAR KDKK 260853Z AUTO 20009KT 10SM OVC080 13/03 A2979 RMK AO2 SLP091 T01280033 56016","observationTime":"2026-03-26T08:53:00.000Z","flightCategory":"VFR","latitude":42.4932,"longitude":-79.2762},"KDHT":{"rawOb":"METAR KDHT 260853Z AUTO 19011KT 10SM CLR 17/M02 A2988 RMK AO2 SLP050 T01721017 58005","observationTime":"2026-03-26T08:53:00.000Z","flightCategory":"VFR","latitude":36.0252,"longitude":-102.5487},"KDHN":{"rawOb":"METAR KDHN 260853Z AUTO 00000KT 6SM BR CLR 13/12 A3017 RMK AO1 SLP214 T01280122 58004 $","observationTime":"2026-03-26T08:53:00.000Z","flightCategory":"VFR","latitude":31.3177,"longitude":-85.4432},"KDGW":{"rawOb":"METAR KDGW 260853Z AUTO 00000KT 10SM FEW110 11/M01 A2987 RMK AO2 SLP057 T01061006 53006 $","observationTime":"2026-03-26T08:53:00.000Z","flightCategory":"VFR","latitude":42.796,"longitude":-105.38},"KDFW":{"rawOb":"METAR KDFW 260853Z 18012KT 10SM FEW250 21/16 A2995 RMK AO2 SLP132 T02110161 57004","observationTime":"2026-03-26T08:53:00.000Z","flightCategory":"VFR","latitude":32.8974,"longitude":-97.022},"KVIH":{"rawOb":"METAR KVIH 260853Z AUTO 21013KT 10SM CLR 20/14 A2985 RMK AO2 SLP096 T02000139 58012","observationTime":"2026-03-26T08:53:00.000Z","flightCategory":"VFR","latitude":38.1318,"longitude":-91.7647},"KFTW":{"rawOb":"METAR KFTW 260853Z 17013KT 10SM CLR 21/16 A2994 RMK AO2 SLP132 T02060156 58005 $","observationTime":"2026-03-26T08:53:00.000Z","flightCategory":"VFR","latitude":32.8248,"longitude":-97.364},"KFST":{"rawOb":"METAR KFST 260853Z AUTO 17014KT 10SM CLR 22/09 A2993 RMK AO2 SLP082 T02170094 58008","observationTime":"2026-03-26T08:53:00.000Z","flightCategory":"VFR","latitude":30.9119,"longitude":-102.9171},"TIST":{"rawOb":"METAR TIST 260853Z AUTO 10007KT 10SM CLR 26/22 A2995 RMK AO2 SLP142 60000 T02560217 56010 $","observationTime":"2026-03-26T08:53:00.000Z","flightCategory":"VFR","latitude":18.3362,"longitude":-64.9799},"KFSM":{"rawOb":"METAR KFSM 260853Z 00000KT 10SM CLR 17/14 A2994 RMK AO2 SLP132 T01720144 58009 $","observationTime":"2026-03-26T08:53:00.000Z","flightCategory":"VFR","latitude":35.3335,"longitude":-94.3653},"KVGT":{"rawOb":"METAR KVGT 260853Z AUTO 26004KT 10SM CLR 23/01 A2983 RMK AO2 SLP093 T02280011 51004","observationTime":"2026-03-26T08:53:00.000Z","flightCategory":"VFR","latitude":36.212,"longitude":-115.194},"KFRG":{"rawOb":"METAR KFRG 260853Z AUTO 19010KT 10SM FEW080 OVC100 07/05 A3004 RMK AO2 SLP173 T00720050 56028","observationTime":"2026-03-26T08:53:00.000Z","flightCategory":"VFR","latitude":40.7344,"longitude":-73.4164},"KVEL":{"rawOb":"METAR KVEL 260853Z AUTO 00000KT 10SM CLR 11/M02 A2990 RMK AO2 SLP065 T01111017 51003","observationTime":"2026-03-26T08:53:00.000Z","flightCategory":"VFR","latitude":40.4429,"longitude":-109.5128},"KFPR":{"rawOb":"METAR KFPR 260853Z AUTO 00000KT 10SM FEW033 17/16 A3009 RMK AO2 SLP189 T01670156 56010","observationTime":"2026-03-26T08:53:00.000Z","flightCategory":"VFR","latitude":27.4981,"longitude":-80.3763},"KFOK":{"rawOb":"METAR KFOK 260853Z AUTO 21013G27KT 10SM OVC110 09/06 A3004 RMK AO2 PK WND 22030/0841 SLP172 T00890061 56033","observationTime":"2026-03-26T08:53:00.000Z","flightCategory":"VFR","latitude":40.8505,"longitude":-72.6193},"TISX":{"rawOb":"METAR TISX 260853Z AUTO 06004KT 10SM CLR 23/21 A2996 RMK AO2 SLP144 T02330211 56002 $","observationTime":"2026-03-26T08:53:00.000Z","flightCategory":"VFR","latitude":17.6997,"longitude":-64.8126},"KFOE":{"rawOb":"METAR KFOE 260853Z AUTO 10SM CLR 20/15 A2975 RMK AO2 SLP061 6//// T02000150 58009 PNO $","observationTime":"2026-03-26T08:53:00.000Z","flightCategory":"VFR","latitude":38.9414,"longitude":-95.6513},"KFNT":{"rawOb":"METAR KFNT 260853Z AUTO 20003KT 10SM CLR 08/03 A2978 RMK AO2 SLP085 T00830028 58004","observationTime":"2026-03-26T08:53:00.000Z","flightCategory":"VFR","latitude":42.9669,"longitude":-83.75},"KFNB":{"rawOb":"METAR KFNB 260853Z AUTO 18006KT 10SM CLR 17/09 A2969 RMK AO2 SLP043 T01720094 56016","observationTime":"2026-03-26T08:53:00.000Z","flightCategory":"VFR","latitude":40.0791,"longitude":-95.5893},"KFMY":{"rawOb":"METAR KFMY 260853Z AUTO 00000KT 7SM BKN005 19/18 A3007 RMK AO2 SLP184 T01890178 56007","observationTime":"2026-03-26T08:53:00.000Z","flightCategory":"IFR","latitude":26.584,"longitude":-81.8615},"KFMN":{"rawOb":"METAR KFMN 260853Z AUTO 07008KT 10SM CLR 10/M02 A3005 RMK AO2 SLP122 T01001017 50003","observationTime":"2026-03-26T08:53:00.000Z","flightCategory":"VFR","latitude":36.7435,"longitude":-108.2293},"KFLO":{"rawOb":"METAR KFLO 260853Z AUTO 22003KT 9SM CLR 13/12 A3018 RMK AO2 SLP218 T01280117 55013","observationTime":"2026-03-26T08:53:00.000Z","flightCategory":"VFR","latitude":34.1877,"longitude":-79.7308},"KFLL":{"rawOb":"METAR KFLL 260853Z 32004KT 10SM SCT031 20/17 A3007 RMK AO2 SLP180 T02000172 56014 $","observationTime":"2026-03-26T08:53:00.000Z","flightCategory":"VFR","latitude":26.0787,"longitude":-80.1622},"KSLN":{"rawOb":"METAR KSLN 260853Z AUTO 18011KT 10SM CLR 21/14 A2973 RMK AO2 SLP051 T02060144 58012","observationTime":"2026-03-26T08:53:00.000Z","flightCategory":"VFR","latitude":38.78,"longitude":-97.6446},"KFLD":{"rawOb":"METAR KFLD 260853Z AUTO 18004KT 10SM CLR 11/06 A2969 RMK AO2 SLP053 T01060061 58022","observationTime":"2026-03-26T08:53:00.000Z","flightCategory":"VFR","latitude":43.7695,"longitude":-88.4907},"KFHR":{"rawOb":"METAR KFHR 260853Z AUTO 00000KT 10SM FEW032 03/00 A3039 RMK AO2 SLP293 T00280000 53031","observationTime":"2026-03-26T08:53:00.000Z","flightCategory":"VFR","latitude":48.52,"longitude":-123.0264},"KFFT":{"rawOb":"METAR KFFT 260853Z AUTO A2997 RMK AO2 SLPNO 6//// 57003 PWINO FZRANO PNO $","observationTime":"2026-03-26T08:53:00.000Z","flightCategory":"null","latitude":38.1846,"longitude":-84.9039},"KFFC":{"rawOb":"METAR KFFC 260853Z AUTO 00000KT 10SM CLR 09/08 A3018 RMK AO2 SLP218 T00890083 55005","observationTime":"2026-03-26T08:53:00.000Z","flightCategory":"VFR","latitude":33.3543,"longitude":-84.5689},"KFDY":{"rawOb":"METAR KFDY 260853Z AUTO 21007KT 9SM CLR 11/07 A2986 RMK AO2 SLP107 T01110067 58002 $","observationTime":"2026-03-26T08:53:00.000Z","flightCategory":"VFR","latitude":41.0137,"longitude":-83.6681},"KFDR":{"rawOb":"METAR KFDR 260853Z AUTO 16007KT 10SM CLR 18/13 A2985 RMK AO2 SLP090 T01780133 56003","observationTime":"2026-03-26T08:53:00.000Z","flightCategory":"VFR","latitude":34.3531,"longitude":-98.9876},"KFCM":{"rawOb":"METAR KFCM 260853Z AUTO 36011KT 10SM FEW080 BKN095 OVC110 14/05 A2973 RMK AO2 SLP065 T01390050 53019","observationTime":"2026-03-26T08:53:00.000Z","flightCategory":"VFR","latitude":44.8321,"longitude":-93.4705},"KFAY":{"rawOb":"METAR KFAY 260853Z 00000KT 10SM OVC055 13/11 A3018 RMK AO2 SLP215 T01280106 55006","observationTime":"2026-03-26T08:53:00.000Z","flightCategory":"VFR","latitude":34.9895,"longitude":-78.88},"KFAT":{"rawOb":"METAR KFAT 260853Z 30006KT 10SM FEW200 17/12 A3000 RMK AO2 SLP156 T01670122 51009 $","observationTime":"2026-03-26T08:53:00.000Z","flightCategory":"VFR","latitude":36.78,"longitude":-119.7202},"KSJC":{"rawOb":"METAR KSJC 260853Z AUTO 00000KT 10SM CLR 12/07 A3009 RMK AO2 SLP187 T01170072 50004 $","observationTime":"2026-03-26T08:53:00.000Z","flightCategory":"VFR","latitude":37.3594,"longitude":-121.9244},"KFAR":{"rawOb":"METAR KFAR 260853Z 36019G26KT 9SM -FZRA OVC007 M02/M03 A2994 RMK AO2 PK WND 35026/0846 SLP145 P0002 60005 I1002 I3007 T10221033 51030","observationTime":"2026-03-26T08:53:00.000Z","flightCategory":"IFR","latitude":46.9242,"longitude":-96.8119},"KEYE":{"rawOb":"METAR KEYE 260853Z AUTO 20008G17KT 9SM -RA SCT050 SCT070 OVC090 16/13 A2989 RMK AO2 LTG DSNT S SLP117 P0003 60003 T01610133 58002","observationTime":"2026-03-26T08:53:00.000Z","flightCategory":"VFR","latitude":39.8248,"longitude":-86.2958},"KEWB":{"rawOb":"METAR KEWB 260853Z AUTO 23013G21KT 10SM FEW016 BKN050 OVC110 08/05 A3004 RMK AO2 SLP171 60000 T00830050 56040","observationTime":"2026-03-26T08:53:00.000Z","flightCategory":"VFR","latitude":41.6791,"longitude":-70.9591},"KEVW":{"rawOb":"METAR KEVW 260853Z AUTO 23007KT 10SM FEW065 BKN095 OVC110 12/M04 A3004 RMK AO2 SLP081 T01171039 50001 $","observationTime":"2026-03-26T08:53:00.000Z","flightCategory":"VFR","latitude":41.2727,"longitude":-111.0305},"KESF":{"rawOb":"METAR KESF 260853Z AUTO 00000KT 3SM BR CLR 12/12 A3007 RMK AO2 SLP181 T01220117 58001","observationTime":"2026-03-26T08:53:00.000Z","flightCategory":"MVFR","latitude":31.3963,"longitude":-92.2828},"KEQY":{"rawOb":"METAR KEQY 260853Z AUTO 23008KT 10SM BKN019 BKN070 OVC090 14/11 A3017 RMK AO2 SLP222 T01440106 55004","observationTime":"2026-03-26T08:53:00.000Z","flightCategory":"MVFR","latitude":35.0147,"longitude":-80.6242},"KLAX":{"rawOb":"METAR KLAX 260853Z 10005KT 7SM FEW005 BKN007 16/14 A2996 RMK AO2 SLP144 T01560139 55006 $","observationTime":"2026-03-26T08:53:00.000Z","flightCategory":"IFR","latitude":33.9382,"longitude":-118.3866},"KLAW":{"rawOb":"METAR KLAW 260853Z AUTO 16005KT 10SM CLR 18/14 A2989 RMK AO2 SLP109 T01830144 57005","observationTime":"2026-03-26T08:53:00.000Z","flightCategory":"VFR","latitude":34.5577,"longitude":-98.4172},"KLAR":{"rawOb":"METAR KLAR 260853Z AUTO 24008KT 10SM FEW100 06/M04 A2998 RMK AO2 LTG DSNT W SLP051 60000 T00611039 56009","observationTime":"2026-03-26T08:53:00.000Z","flightCategory":"VFR","latitude":41.3165,"longitude":-105.6729},"KLAN":{"rawOb":"METAR KLAN 260853Z 20005KT 10SM CLR 11/03 A2978 RMK AO2 SLP085 T01060033 58007","observationTime":"2026-03-26T08:53:00.000Z","flightCategory":"VFR","latitude":42.7761,"longitude":-84.5997},"KSIY":{"rawOb":"METAR KSIY 260853Z AUTO 35011KT 10SM CLR 04/00 A3029 RMK AO2 SLP263 T00390000 51022","observationTime":"2026-03-26T08:53:00.000Z","flightCategory":"VFR","latitude":41.7737,"longitude":-122.4683},"KSHR":{"rawOb":"METAR KSHR 260853Z AUTO 02009KT 10SM OVC032 08/00 A2996 RMK AO2 SLP121 T00830000 51024 TSNO","observationTime":"2026-03-26T08:53:00.000Z","flightCategory":"VFR","latitude":44.7603,"longitude":-106.9741},"KPUB":{"rawOb":"METAR KPUB 260853Z AUTO 10SM CLR 12/M01 A2985 RMK AO2 SLP046 T01171011 58001 $","observationTime":"2026-03-26T08:53:00.000Z","flightCategory":"VFR","latitude":38.2887,"longitude":-104.5057},"KLHQ":{"rawOb":"METAR KLHQ 260853Z AUTO 23009KT 10SM BKN085 17/09 A2992 RMK AO2 SLP130 T01670089 56009","observationTime":"2026-03-26T08:53:00.000Z","flightCategory":"VFR","latitude":39.7572,"longitude":-82.6633},"KSHN":{"rawOb":"METAR KSHN 260853Z AUTO 31004KT 10SM CLR M01/M01 A3039 RMK AO2 SLP296 I1000 I3000 T10061006 51027","observationTime":"2026-03-26T08:53:00.000Z","flightCategory":"VFR","latitude":47.2384,"longitude":-123.1415},"KSGR":{"rawOb":"METAR KSGR 260853Z AUTO 17003KT 8SM CLR 18/18 A3004 RMK AO2 SLP175 T01780178 58005 $","observationTime":"2026-03-26T08:53:00.000Z","flightCategory":"VFR","latitude":29.6197,"longitude":-95.6575},"KSFF":{"rawOb":"METAR KSFF 260853Z AUTO 24006KT 10SM CLR 02/M06 A3019 RMK AO2 SLP228 T00221061 53037 $","observationTime":"2026-03-26T08:53:00.000Z","flightCategory":"VFR","latitude":47.6857,"longitude":-117.3214},"KSFB":{"rawOb":"METAR KSFB 260853Z AUTO 00000KT 10SM CLR 19/18 A3010 RMK AO2 SLP192 T01890178 58011 $","observationTime":"2026-03-26T08:53:00.000Z","flightCategory":"VFR","latitude":28.7795,"longitude":-81.2435},"KPSX":{"rawOb":"METAR KPSX 260853Z AUTO 16009KT 10SM SCT014 SCT020 29/20 A3004 RMK AO2 SLP171 T02940200 56006","observationTime":"2026-03-26T08:53:00.000Z","flightCategory":"VFR","latitude":28.7248,"longitude":-96.2535},"KSEG":{"rawOb":"METAR KSEG 260853Z AUTO 22005KT 10SM OVC080 09/01 A2995 RMK AO2 SLP142 T00940011 56016","observationTime":"2026-03-26T08:53:00.000Z","flightCategory":"VFR","latitude":40.8193,"longitude":-76.8658},"KSEA":{"rawOb":"METAR KSEA 260853Z 18004KT 10SM BKN017 03/01 A3040 RMK AO2 SLP304 T00330006 53026 $","observationTime":"2026-03-26T08:53:00.000Z","flightCategory":"MVFR","latitude":47.4447,"longitude":-122.3144},"KSDM":{"rawOb":"METAR KSDM 260853Z AUTO 00000KT 7SM FEW008 14/13 A2996 RMK AO2 SLP142 T01390133 58003","observationTime":"2026-03-26T08:53:00.000Z","flightCategory":"VFR","latitude":32.5758,"longitude":-116.9939},"KSDL":{"rawOb":"METAR KSDL 260853Z 00000KT 10SM CLR 23/02 A2988 RMK AO2 SLP094 T02280022 50000","observationTime":"2026-03-26T08:53:00.000Z","flightCategory":"VFR","latitude":33.6123,"longitude":-111.9232},"KSBM":{"rawOb":"METAR KSBM 260853Z AUTO 22005KT 10SM CLR 08/06 A2969 RMK AO2 SLP054 T00780056 58025","observationTime":"2026-03-26T08:53:00.000Z","flightCategory":"VFR","latitude":43.7748,"longitude":-87.849},"KPSP":{"rawOb":"METAR KPSP 260853Z AUTO 10SM CLR 23/M01 A2982 RMK AO2 SLP095 T02331006 58000 $","observationTime":"2026-03-26T08:53:00.000Z","flightCategory":"VFR","latitude":33.8222,"longitude":-116.5043},"KPSC":{"rawOb":"METAR KPSC 260853Z AUTO 22006KT 10SM CLR 03/M03 A3035 RMK AO2 SLP278 T00331033 53030","observationTime":"2026-03-26T08:53:00.000Z","flightCategory":"VFR","latitude":46.2695,"longitude":-119.1182},"KPRB":{"rawOb":"METAR KPRB 260853Z AUTO 34007KT 10SM CLR 12/09 A3008 RMK AO2 SLP182 T01220089 51006","observationTime":"2026-03-26T08:53:00.000Z","flightCategory":"VFR","latitude":35.6694,"longitude":-120.6292},"KPRC":{"rawOb":"METAR KPRC 260853Z AUTO 18007KT 10SM CLR 10/M05 A3009 RMK AO2 SLP119 T01001050 57004","observationTime":"2026-03-26T08:53:00.000Z","flightCategory":"VFR","latitude":34.6491,"longitude":-112.4223},"KLKV":{"rawOb":"METAR KLKV 260853Z AUTO 34011KT 10SM CLR A3024 RMK AO2 SLPNO 51026 FZRANO $","observationTime":"2026-03-26T08:53:00.000Z","flightCategory":"VFR","latitude":42.1538,"longitude":-120.4027},"PAPB":{"rawOb":"METAR PAPB 260853Z AUTO 02005KT 1 1/2SM BR OVC003 M09/M09 A3053 RMK AO2 SLP327 I1002 I3003 T10891094 410501094 51006 TSNO","observationTime":"2026-03-26T08:53:00.000Z","flightCategory":"LIFR","latitude":56.576,"longitude":-169.663},"KORL":{"rawOb":"METAR KORL 260853Z AUTO 00000KT 10SM CLR 19/18 A3011 RMK AO2 SLP198 T01940183 56009","observationTime":"2026-03-26T08:53:00.000Z","flightCategory":"VFR","latitude":28.5465,"longitude":-81.3354},"KMHE":{"rawOb":"METAR KMHE 260853Z AUTO 02012G17KT 10SM CLR 13/04 A2963 RMK AO2 SLP028 T01330044 57001","observationTime":"2026-03-26T08:53:00.000Z","flightCategory":"VFR","latitude":43.7743,"longitude":-98.0384},"KYKM":{"rawOb":"METAR KYKM 260853Z AUTO 27010KT 10SM CLR 04/M07 A3032 RMK AO2 SLP272 T00391067 51026","observationTime":"2026-03-26T08:53:00.000Z","flightCategory":"VFR","latitude":46.564,"longitude":-120.5349},"KOPF":{"rawOb":"METAR KOPF 260853Z AUTO 34003KT 10SM FEW033 19/17 A3008 RMK AO2 SLP186 T01940167 56013 PWINO $","observationTime":"2026-03-26T08:53:00.000Z","flightCategory":"VFR","latitude":25.9102,"longitude":-80.2828},"KONT":{"rawOb":"METAR KONT 260853Z 00000KT 7SM FEW300 17/13 A2996 RMK AO2 SLP132 T01670133 58003 $","observationTime":"2026-03-26T08:53:00.000Z","flightCategory":"VFR","latitude":34.0531,"longitude":-117.5769},"KTRI":{"rawOb":"METAR KTRI 260853Z 00000KT 10SM SCT075 10/06 A3013 RMK AO2 SLP187 T01000056 57004","observationTime":"2026-03-26T08:53:00.000Z","flightCategory":"VFR","latitude":36.4797,"longitude":-82.3989},"KDMH":{"rawOb":"METAR KDMH 260853Z AUTO 09/05 A3004 RMK AO1 SLP171 T00940050 56019","observationTime":"2026-03-26T08:53:00.000Z","flightCategory":"null","latitude":39.281,"longitude":-76.611},"KNQX":{"rawOb":"METAR KNQX 260853Z AUTO 04007KT 10SM CLR 22/18 A3006 RMK AO2 SLP177 T02220178 56012 $","observationTime":"2026-03-26T08:53:00.000Z","flightCategory":"VFR","latitude":24.5801,"longitude":-81.6829},"KDRA":{"rawOb":"METAR KDRA 260853Z AUTO 32009KT 10SM CLR 18/M02 A2991 RMK AO2 SLP081 T01831017 51005 $","observationTime":"2026-03-26T08:53:00.000Z","flightCategory":"VFR","latitude":36.621,"longitude":-116.029},"KOQT":{"rawOb":"METAR KOQT 260853Z AUTO VRB03KT 10SM CLR 14/08 A3014 RMK AO2 SLP197 T01440083 56005","observationTime":"2026-03-26T08:53:00.000Z","flightCategory":"VFR","latitude":36.023,"longitude":-84.2336},"KGGW":{"rawOb":"METAR KGGW 260853Z AUTO 02009KT 10SM SCT012 BKN110 M06/M09 A3010 RMK AO2 SLP210 T10611089 51015 TSNO","observationTime":"2026-03-26T08:53:00.000Z","flightCategory":"VFR","latitude":48.2142,"longitude":-106.6214},"KMWT":{"rawOb":"METAR KMWT 260853Z AUTO 00000KT 10SM CLR 21/13 A2997 RMK AO2 SLP136 T02060133 58010","observationTime":"2026-03-26T08:53:00.000Z","flightCategory":"VFR","latitude":34.5466,"longitude":-93.5779},"PHLI":{"rawOb":"METAR PHLI 260853Z AUTO 05017G25KT 10SM -RA SCT029 BKN041 OVC055 22/17 A3004 RMK AO2 PK WND 04027/0801 SLP170 P0000 60001 T02170167 51005 TSNO","observationTime":"2026-03-26T08:53:00.000Z","flightCategory":"VFR","latitude":21.9805,"longitude":-159.3386},"KTYS":{"rawOb":"METAR KTYS 260853Z 25006KT 10SM SCT250 13/07 A3011 RMK AO2 SLP190 T01330072 58003","observationTime":"2026-03-26T08:53:00.000Z","flightCategory":"VFR","latitude":35.818,"longitude":-83.9857},"PAHO":{"rawOb":"METAR PAHO 260853Z AUTO VRB03KT 10SM CLR M05/M13 A3015 RMK AO2 SLP213 T10501133 410061078 50003 TSNO $","observationTime":"2026-03-26T08:53:00.000Z","flightCategory":"VFR","latitude":59.642,"longitude":-151.491},"KGEG":{"rawOb":"METAR KGEG 260853Z 25011KT 10SM SCT090 SCT180 01/M07 A3018 RMK AO2 SLP229 T00111067 53037","observationTime":"2026-03-26T08:53:00.000Z","flightCategory":"VFR","latitude":47.6217,"longitude":-117.528},"KCQC":{"rawOb":"METAR KCQC 260853Z AUTO 22011KT 10SM CLR 13/M08 A3015 RMK AO2 SLP105 T01331078 58005 $","observationTime":"2026-03-26T08:53:00.000Z","flightCategory":"VFR","latitude":35.003,"longitude":-105.6628},"KEYW":{"rawOb":"METAR KEYW 260853Z AUTO 10SM CLR 23/18 A3006 RMK AO2 SLP185 T02330183 56012 $","observationTime":"2026-03-26T08:53:00.000Z","flightCategory":"VFR","latitude":24.5571,"longitude":-81.7554},"PABR":{"rawOb":"METAR PABR 260853Z AUTO 22010KT 10SM CLR M18/M22 A3029 RMK AO2 SLP259 T11831222 411721300 58008 TSNO $","observationTime":"2026-03-26T08:53:00.000Z","flightCategory":"VFR","latitude":71.2837,"longitude":-156.7843},"KYIP":{"rawOb":"METAR KYIP 260853Z AUTO 21007KT 10SM CLR 09/03 A2981 RMK AO2 SLP091 T00940033 58008 $","observationTime":"2026-03-26T08:53:00.000Z","flightCategory":"VFR","latitude":42.242,"longitude":-83.5214},"KONO":{"rawOb":"METAR KONO 260853Z AUTO 33025G36KT 10SM CLR 07/M04 A3020 RMK AO2 PK WND 34036/0849 SLP230 T00671039 53047","observationTime":"2026-03-26T08:53:00.000Z","flightCategory":"VFR","latitude":44.0142,"longitude":-117.0081},"KICT":{"rawOb":"METAR KICT 260853Z 19011KT 10SM CLR 20/16 A2981 RMK AO2 SLP078 T02000156 58009","observationTime":"2026-03-26T08:53:00.000Z","flightCategory":"VFR","latitude":37.6475,"longitude":-97.43},"KICR":{"rawOb":"METAR KICR 260853Z AUTO 36008KT 10SM CLR 13/01 A2974 RMK AO2 SLP058 T01280006 51039","observationTime":"2026-03-26T08:53:00.000Z","flightCategory":"VFR","latitude":43.391,"longitude":-99.8462},"KIAH":{"rawOb":"METAR KIAH 260853Z 16003KT 7SM FEW013 19/19 A3005 RMK AO2 SLP177 T01940189 58003","observationTime":"2026-03-26T08:53:00.000Z","flightCategory":"VFR","latitude":29.9844,"longitude":-95.3607},"KIAG":{"rawOb":"METAR KIAG 260853Z AUTO 23008KT 10SM SCT120 10/02 A2976 RMK AO2 SLP084 T01000022 55015","observationTime":"2026-03-26T08:53:00.000Z","flightCategory":"VFR","latitude":43.1083,"longitude":-78.9382},"KHZY":{"rawOb":"METAR KHZY 260853Z AUTO 20008KT 10SM CLR 12/04 A2984 RMK AO2 SLP103 T01220039 58006","observationTime":"2026-03-26T08:53:00.000Z","flightCategory":"VFR","latitude":41.7794,"longitude":-80.6968},"KHYR":{"rawOb":"METAR KHYR 260853Z AUTO 07003KT 8SM -RA OVC050 03/01 A2977 RMK AO2 RAB10 SLP087 P0002 60002 T00280006 53019 $","observationTime":"2026-03-26T08:53:00.000Z","flightCategory":"VFR","latitude":46.0303,"longitude":-91.4427},"KHWO":{"rawOb":"METAR KHWO 260853Z AUTO 00000KT 10SM CLR 20/17 A3008 RMK AO2 SLP184 6//// T02000167 56014 PNO $","observationTime":"2026-03-26T08:53:00.000Z","flightCategory":"VFR","latitude":25.9996,"longitude":-80.2412},"KHVR":{"rawOb":"METAR KHVR 260853Z AUTO 07013KT 10SM OVC012 M03/M06 A3009 RMK AO2 SLP202 T10331061 51010 $","observationTime":"2026-03-26T08:53:00.000Z","flightCategory":"MVFR","latitude":48.5425,"longitude":-109.7644},"KHVN":{"rawOb":"METAR KHVN 260853Z AUTO VRB03KT 10SM OVC100 07/04 A3001 RMK AO2 SLP160 T00670044 56037 $","observationTime":"2026-03-26T08:53:00.000Z","flightCategory":"VFR","latitude":41.259,"longitude":-72.8891},"KHUL":{"rawOb":"METAR KHUL 260853Z AUTO 12009KT 3SM -SN BR FEW012 BKN022 OVC030 M02/M03 A2997 RMK AO2 SLP154 P0000 60000 T10221033 56029","observationTime":"2026-03-26T08:53:00.000Z","flightCategory":"MVFR","latitude":46.1185,"longitude":-67.7929},"KHUF":{"rawOb":"METAR KHUF 260853Z 09009KT 9SM VCTS -RA OVC070 17/15 A2988 RMK AO2 LTG DSNT N-E TSB0754E36 SLP115 P0014 60026 T01670150 56014","observationTime":"2026-03-26T08:53:00.000Z","flightCategory":"VFR","latitude":39.4429,"longitude":-87.3221},"KHTL":{"rawOb":"METAR KHTL 260853Z AUTO 00000KT 10SM CLR M01/M02 A2974 RMK AO2 SLP078 T10061022 58013 $","observationTime":"2026-03-26T08:53:00.000Z","flightCategory":"VFR","latitude":44.359,"longitude":-84.6739},"KHSV":{"rawOb":"METAR KHSV 260853Z AUTO 13003KT 10SM CLR 16/12 A3009 RMK AO2 SLP184 T01560117 55006 $","observationTime":"2026-03-26T08:53:00.000Z","flightCategory":"VFR","latitude":34.6441,"longitude":-86.7862},"KHRO":{"rawOb":"METAR KHRO 260853Z AUTO 18005KT 10SM CLR 21/13 A2994 RMK AO2 SLP122 T02060128 58009","observationTime":"2026-03-26T08:53:00.000Z","flightCategory":"VFR","latitude":36.2673,"longitude":-93.1566},"KHSI":{"rawOb":"METAR KHSI 260853Z AUTO 22005KT 10SM CLR 16/04 A2968 RMK AO2 SLP032 T01610044 58015 $","observationTime":"2026-03-26T08:53:00.000Z","flightCategory":"VFR","latitude":40.6002,"longitude":-98.4264},"KHRI":{"rawOb":"METAR KHRI 260853Z AUTO 25012KT 10SM CLR 04/M02 A3036 RMK AO2 SLP281 T00391022 51030","observationTime":"2026-03-26T08:53:00.000Z","flightCategory":"VFR","latitude":45.8259,"longitude":-119.2612},"KHQM":{"rawOb":"METAR KHQM 260853Z AUTO 08005KT 10SM CLR 03/02 A3042 RMK AO2 SLP304 60000 T00280017 51026","observationTime":"2026-03-26T08:53:00.000Z","flightCategory":"VFR","latitude":46.9729,"longitude":-123.9308},"KHOU":{"rawOb":"METAR KHOU 260853Z 18004KT 6SM BR FEW035 19/18 A3004 RMK AO2 SLP179 T01890183 58006","observationTime":"2026-03-26T08:53:00.000Z","flightCategory":"VFR","latitude":29.6458,"longitude":-95.2821},"KHOT":{"rawOb":"METAR KHOT 260853Z AUTO 26004KT 10SM CLR 19/13 A3000 RMK AO2 SLP153 T01940133 58006","observationTime":"2026-03-26T08:53:00.000Z","flightCategory":"VFR","latitude":34.4755,"longitude":-93.1041},"KWVI":{"rawOb":"METAR KWVI 260853Z AUTO 00000KT 10SM CLR 11/09 A3010 RMK AO2 SLP191 T01060089 51007","observationTime":"2026-03-26T08:53:00.000Z","flightCategory":"VFR","latitude":36.9394,"longitude":-121.79},"KMBS":{"rawOb":"METAR KMBS 260853Z AUTO 06003KT 10SM CLR 04/00 A2978 RMK AO2 SLP086 T00440000 58002","observationTime":"2026-03-26T08:53:00.000Z","flightCategory":"VFR","latitude":43.5281,"longitude":-84.0813},"KHLN":{"rawOb":"METAR KHLN 260853Z AUTO 26013G20KT 10SM BKN085 OVC110 04/M03 A3003 RMK AO2 SLP185 T00391028 51020","observationTime":"2026-03-26T08:53:00.000Z","flightCategory":"VFR","latitude":46.6045,"longitude":-111.9892},"KHLG":{"rawOb":"METAR KHLG 260853Z AUTO 23008G16KT 10SM CLR 15/04 A2992 RMK AO2 SLP132 T01500044 58007","observationTime":"2026-03-26T08:53:00.000Z","flightCategory":"VFR","latitude":40.1699,"longitude":-80.6441},"KHKY":{"rawOb":"METAR KHKY 260853Z AUTO 00000KT 10SM SCT055 OVC090 12/07 A3015 RMK AO2 SLP196 T01170067 55004","observationTime":"2026-03-26T08:53:00.000Z","flightCategory":"VFR","latitude":35.742,"longitude":-81.3822},"KHKS":{"rawOb":"METAR KHKS 260853Z AUTO 18007KT 8SM OVC009 18/16 A3011 RMK AO2 SLP187 T01780161 53003","observationTime":"2026-03-26T08:53:00.000Z","flightCategory":"IFR","latitude":32.3376,"longitude":-90.2214},"KHKA":{"rawOb":"METAR KHKA 260853Z AUTO 22009KT 10SM CLR 19/12 A2996 RMK AO2 SLP144 T01890122 58004","observationTime":"2026-03-26T08:53:00.000Z","flightCategory":"VFR","latitude":35.9378,"longitude":-89.8332},"KWST":{"rawOb":"METAR KWST 260853Z AUTO 22006KT 10SM BKN044 OVC110 07/05 A3004 RMK AO2 SLP173 60000 T00670050 56031","observationTime":"2026-03-26T08:53:00.000Z","flightCategory":"VFR","latitude":41.3509,"longitude":-71.8055},"KHJO":{"rawOb":"METAR KHJO 260853Z AUTO 33006KT 10SM CLR 17/12 A3000 RMK AO2 SLP160 T01670122 51008","observationTime":"2026-03-26T08:53:00.000Z","flightCategory":"VFR","latitude":36.3114,"longitude":-119.6232},"KHIO":{"rawOb":"METAR KHIO 260853Z AUTO 33003KT 10SM CLR 00/M01 A3045 RMK AO2 SLP312 T00001006 53022 $","observationTime":"2026-03-26T08:53:00.000Z","flightCategory":"VFR","latitude":45.5476,"longitude":-122.9557},"KMAI":{"rawOb":"METAR KMAI 260853Z AUTO 00000KT 10SM CLR 15/14 A3014 RMK AO2 SLP204 T01500139 56007","observationTime":"2026-03-26T08:53:00.000Z","flightCategory":"VFR","latitude":30.837,"longitude":-85.1835},"KHIB":{"rawOb":"METAR KHIB 260853Z AUTO 00000KT 10SM BKN040 OVC110 02/M01 A2976 RMK AO2 SLP087 T00171006 53010","observationTime":"2026-03-26T08:53:00.000Z","flightCategory":"VFR","latitude":47.3804,"longitude":-92.8325},"KMAF":{"rawOb":"METAR KMAF 260853Z 17010KT 10SM CLR 20/10 A2994 RMK AO2 SLP091 T02000100 58010 $","observationTime":"2026-03-26T08:53:00.000Z","flightCategory":"VFR","latitude":31.9475,"longitude":-102.2086},"KHHR":{"rawOb":"METAR KHHR 260853Z AUTO 22004KT 6SM HZ CLR 16/13 A2996 RMK AO2 SLP145 T01610133 55002","observationTime":"2026-03-26T08:53:00.000Z","flightCategory":"VFR","latitude":33.9235,"longitude":-118.3329},"KHGR":{"rawOb":"METAR KHGR 260853Z AUTO 18011KT 10SM SCT100 12/00 A2997 RMK AO2 SLP156 T01220000 56016 $","observationTime":"2026-03-26T08:53:00.000Z","flightCategory":"VFR","latitude":39.7062,"longitude":-77.7304},"KHFD":{"rawOb":"METAR KHFD 260853Z 18004KT 10SM OVC100 06/03 A3000 RMK AO2 SLP159 T00560033 56034","observationTime":"2026-03-26T08:53:00.000Z","flightCategory":"VFR","latitude":41.7352,"longitude":-72.6512},"KHBR":{"rawOb":"METAR KHBR 260853Z AUTO 18013KT 10SM CLR 19/14 A2988 RMK AO2 SLP097 T01890139 58005","observationTime":"2026-03-26T08:53:00.000Z","flightCategory":"VFR","latitude":34.9891,"longitude":-99.0528},"KHBG":{"rawOb":"METAR KHBG 260853Z AUTO 00000KT 10SM OVC012 19/17 A3013 RMK AO2 SLP200 T01890172 55003 PWINO $","observationTime":"2026-03-26T08:53:00.000Z","flightCategory":"MVFR","latitude":31.2648,"longitude":-89.2561},"KHAO":{"rawOb":"METAR KHAO 260853Z AUTO VRB04KT 10SM CLR 18/09 A2993 RMK AO2 SLP133 T01780094 55008","observationTime":"2026-03-26T08:53:00.000Z","flightCategory":"VFR","latitude":39.3612,"longitude":-84.5206},"KMAE":{"rawOb":"METAR KMAE 260853Z AUTO 00000KT 10SM CLR 12/12 A3001 RMK AO2 SLP161 T01220117 51007","observationTime":"2026-03-26T08:53:00.000Z","flightCategory":"VFR","latitude":36.9851,"longitude":-120.1107},"KGZH":{"rawOb":"METAR KGZH 260853Z AUTO 00000KT 1/4SM FG VV001 12/12 A3013 RMK AO2 SLP200 T01220122 56007","observationTime":"2026-03-26T08:53:00.000Z","flightCategory":"LIFR","latitude":31.4191,"longitude":-87.0484},"KLXV":{"rawOb":"METAR KLXV 260853Z AUTO 00000KT 10SM CLR 10/M03 A3027 RMK AO2 SLP065 T01001033 58008","observationTime":"2026-03-26T08:53:00.000Z","flightCategory":"VFR","latitude":39.228,"longitude":-106.3162},"KGWO":{"rawOb":"METAR KGWO 260853Z AUTO 19007KT 10SM CLR 17/13 A3006 RMK AO2 SLP176 T01720133 50002","observationTime":"2026-03-26T08:53:00.000Z","flightCategory":"VFR","latitude":33.4961,"longitude":-90.0894},"PGWT":{"rawOb":"METAR PGWT 260853Z 20006KT 7SM SCT016 BKN040 BKN100 27/24 A2976 RMK LAST","observationTime":"2026-03-26T08:53:00.000Z","flightCategory":"VFR","latitude":14.997,"longitude":145.624},"KLXT":{"rawOb":"METAR KLXT 260853Z AUTO 22015G23KT 10SM CLR 21/14 A2977 RMK AO2 SLP071 T02110144 58010 $","observationTime":"2026-03-26T08:53:00.000Z","flightCategory":"VFR","latitude":38.9577,"longitude":-94.3712},"KGVL":{"rawOb":"METAR KGVL 260853Z AUTO 00000KT 5SM HZ SCT014 SCT019 11/07 A3020 RMK AO2 SLP219 T01110072 55009","observationTime":"2026-03-26T08:53:00.000Z","flightCategory":"MVFR","latitude":34.2721,"longitude":-83.8304},"KPIE":{"rawOb":"METAR KPIE 260853Z AUTO 07007KT 10SM CLR 21/19 A3008 RMK AO2 SLP187 T02060194 56010","observationTime":"2026-03-26T08:53:00.000Z","flightCategory":"VFR","latitude":27.9126,"longitude":-82.6856},"KPHD":{"rawOb":"METAR KPHD 260853Z AUTO 23004KT 10SM BKN070 16/06 A2991 RMK AO2 SLP125 T01610061 56008","observationTime":"2026-03-26T08:53:00.000Z","flightCategory":"VFR","latitude":40.4703,"longitude":-81.4218},"KPGD":{"rawOb":"METAR KPGD 260853Z AUTO 00000KT 8SM CLR 17/17 A3009 RMK AO2 SLP187 T01720172 56014","observationTime":"2026-03-26T08:53:00.000Z","flightCategory":"VFR","latitude":26.9185,"longitude":-81.9939},"KGUY":{"rawOb":"METAR KGUY 260853Z AUTO 20017KT CLR 21/05 A2978 RMK AO2 PK WND 21027/0814 SLP029 T02110050 56013 $","observationTime":"2026-03-26T08:53:00.000Z","flightCategory":"null","latitude":36.6819,"longitude":-101.5052},"KGUP":{"rawOb":"METAR KGUP 260853Z AUTO 07004KT 10SM CLR 09/M09 A3018 RMK AO2 SLP078 T00891089 51005","observationTime":"2026-03-26T08:53:00.000Z","flightCategory":"VFR","latitude":35.5086,"longitude":-108.7932},"KGTF":{"rawOb":"METAR KGTF 260853Z AUTO 02007KT 10SM OVC110 M03/M05 A3002 RMK AO2 SLP184 T10331050 52014","observationTime":"2026-03-26T08:53:00.000Z","flightCategory":"VFR","latitude":47.4733,"longitude":-111.3828},"PHNL":{"rawOb":"METAR PHNL 260853Z 02007KT 10SM FEW025 FEW035 FEW065 22/17 A3001 RMK AO2 SLP160 VCSH NE T02170167 51006 $","observationTime":"2026-03-26T08:53:00.000Z","flightCategory":"VFR","latitude":21.315,"longitude":-157.924},"PHJR":{"rawOb":"METAR PHJR 260853Z AUTO 05007G16KT 10SM CLR 21/17 A3001 RMK AO2 SLP168 T02060167 51005 TSNO $","observationTime":"2026-03-26T08:53:00.000Z","flightCategory":"VFR","latitude":21.312,"longitude":-158.07},"PAYA":{"rawOb":"METAR PAYA 260853Z AUTO 00000KT 10SM CLR M13/M16 A3007 RMK AO2 SLP183 T11281161 400061133 51011 FZRANO TSNO $","observationTime":"2026-03-26T08:53:00.000Z","flightCategory":"VFR","latitude":59.512,"longitude":-139.671},"PAWD":{"rawOb":"METAR PAWD 260853Z AUTO 10SM CLR M07/M16 A3013 RMK AO2 SLP203 T10671161 400001072 53009 TSNO $","observationTime":"2026-03-26T08:53:00.000Z","flightCategory":"VFR","latitude":60.129,"longitude":-149.418},"PAVL":{"rawOb":"METAR PAVL 260853Z AUTO 15010KT 10SM M17/M21 A3042 RMK AO2 SLP303 T11721206 411221233 58004 PWINO FZRANO TSNO $","observationTime":"2026-03-26T08:53:00.000Z","flightCategory":"VFR","latitude":67.731,"longitude":-164.548},"PATO":{"rawOb":"METAR PATO 260853Z AUTO 00000KT 10SM CLR M18/M21 A3015 RMK AO2 SLP212 I1000 I3000 T11831206 410221228 51012 TSNO","observationTime":"2026-03-26T08:53:00.000Z","flightCategory":"VFR","latitude":60.783,"longitude":-148.843},"PATK":{"rawOb":"METAR PATK 260853Z AUTO 00000KT 10SM CLR M08/M19 A3018 RMK AO2 SLP229 T10781194 410111089 53014 TSNO","observationTime":"2026-03-26T08:53:00.000Z","flightCategory":"VFR","latitude":62.319,"longitude":-150.097},"PASO":{"rawOb":"METAR PASO 260853Z AUTO 00000KT 10SM CLR M04/M10 A3015 RMK AO2 SLP210 T10441100 410111061 50004 TSNO $","observationTime":"2026-03-26T08:53:00.000Z","flightCategory":"VFR","latitude":59.443,"longitude":-151.702},"PASN":{"rawOb":"METAR PASN 260853Z AUTO 02009KT 7SM OVC006 M07/M08 A3054 RMK AO2 SLP341 I1001 I3002 T10671078 410441094 51002 TSNO $","observationTime":"2026-03-26T08:53:00.000Z","flightCategory":"IFR","latitude":57.155,"longitude":-170.223},"PASI":{"rawOb":"METAR PASI 260853Z 10014G24KT 8SM -SN BKN049 OVC060 00/M05 A2996 RMK AO2 SNB48 SLP145 P0000 60000 T00001050 51012 $","observationTime":"2026-03-26T08:53:00.000Z","flightCategory":"VFR","latitude":57.047,"longitude":-135.364},"PASC":{"rawOb":"METAR PASC 260853Z 22013KT 10SM CLR M22/M26 A3039 RMK AO2 SLP293 T12221261 412061350 58006 $","observationTime":"2026-03-26T08:53:00.000Z","flightCategory":"VFR","latitude":70.191,"longitude":-148.48},"PAQT":{"rawOb":"METAR PAQT 260853Z AUTO 18010KT 10SM CLR M23/M28 A3040 RMK AO2 SLP295 T12331278 411941311 56006 TSNO $","observationTime":"2026-03-26T08:53:00.000Z","flightCategory":"VFR","latitude":70.213,"longitude":-150.994},"PAOT":{"rawOb":"METAR PAOT 260853Z AUTO 00000KT 10SM CLR M21/M24 A3046 RMK AO2 SLP314 T12061239 411441211 55000 TSNO","observationTime":"2026-03-26T08:53:00.000Z","flightCategory":"VFR","latitude":66.886,"longitude":-162.607},"KCHO":{"rawOb":"METAR KCHO 260853Z AUTO 17006KT 10SM CLR 10/01 A3006 RMK AO2 SLP176 T01000006 56014","observationTime":"2026-03-26T08:53:00.000Z","flightCategory":"VFR","latitude":38.1374,"longitude":-78.4551},"KCHA":{"rawOb":"METAR KCHA 260853Z AUTO 00000KT 9SM CLR 13/09 A3015 RMK AO2 SLP205 T01280089 55006","observationTime":"2026-03-26T08:53:00.000Z","flightCategory":"VFR","latitude":35.0336,"longitude":-85.2004},"KCGI":{"rawOb":"METAR KCGI 260853Z AUTO 20009KT 10SM CLR 19/13 A2991 RMK AO2 SLP126 T01940133 58010","observationTime":"2026-03-26T08:53:00.000Z","flightCategory":"VFR","latitude":37.2254,"longitude":-89.5785},"KCEZ":{"rawOb":"METAR KCEZ 260853Z AUTO 08006KT 10SM CLR 06/M02 A3008 RMK AO2 SLP121 T00561022 53001","observationTime":"2026-03-26T08:53:00.000Z","flightCategory":"VFR","latitude":37.3071,"longitude":-108.6265},"KCEW":{"rawOb":"METAR KCEW 260853Z AUTO 00000KT 1/2SM FG VV001 13/13 A3015 RMK AO2 SLP207 T01280128 56009","observationTime":"2026-03-26T08:53:00.000Z","flightCategory":"LIFR","latitude":30.7771,"longitude":-86.5194},"KCDW":{"rawOb":"METAR KCDW 260853Z 23004KT 10SM OVC085 08/02 A3000 RMK AO2 SLP165 T00830022 56029","observationTime":"2026-03-26T08:53:00.000Z","flightCategory":"VFR","latitude":40.8764,"longitude":-74.2828},"KPGA":{"rawOb":"METAR KPGA 260853Z AUTO 18003KT 10SM CLR 19/M03 A2997 RMK AO2 SLP083 T01941028 51005","observationTime":"2026-03-26T08:53:00.000Z","flightCategory":"VFR","latitude":36.9211,"longitude":-111.4487},"KCDS":{"rawOb":"METAR KCDS 260853Z AUTO 17008KT 10SM CLR 20/11 A2988 RMK AO2 SLP089 T02000106 57003","observationTime":"2026-03-26T08:53:00.000Z","flightCategory":"VFR","latitude":34.4275,"longitude":-100.2839},"KCDR":{"rawOb":"METAR KCDR 260853Z AUTO 03010KT 10SM CLR 11/02 A2985 RMK AO2 SLP087 T01060017 53027","observationTime":"2026-03-26T08:53:00.000Z","flightCategory":"VFR","latitude":42.8374,"longitude":-103.0981},"KCDC":{"rawOb":"METAR KCDC 260853Z AUTO 06003KT 10SM CLR 12/M02 A3004 RMK AO2 SLP102 T01221017 58002 $","observationTime":"2026-03-26T08:53:00.000Z","flightCategory":"VFR","latitude":37.7067,"longitude":-113.097},"KCCR":{"rawOb":"METAR KCCR 260853Z AUTO 19007KT 10SM CLR 13/08 A3006 RMK AO2 SLP164 T01330083 51007","observationTime":"2026-03-26T08:53:00.000Z","flightCategory":"VFR","latitude":37.9916,"longitude":-122.0527},"KCAG":{"rawOb":"METAR KCAG 260853Z AUTO 13007KT 10SM CLR 11/01 A2995 RMK AO2 SLP071 T01060011 58005","observationTime":"2026-03-26T08:53:00.000Z","flightCategory":"VFR","latitude":40.493,"longitude":-107.524},"KBYI":{"rawOb":"METAR KBYI 260853Z AUTO 27019G34KT 10SM CLR 11/04 A2997 RMK AO2 PK WND 26034/0851 SLP114 T01060039 53018","observationTime":"2026-03-26T08:53:00.000Z","flightCategory":"VFR","latitude":42.5453,"longitude":-113.7686},"KBYG":{"rawOb":"METAR KBYG 260853Z AUTO 36012G19KT 10SM BKN024 BKN029 07/03 A2993 RMK AO2 SLP091 T00720033 50008 $","observationTime":"2026-03-26T08:53:00.000Z","flightCategory":"MVFR","latitude":44.3812,"longitude":-106.7195},"KBWG":{"rawOb":"METAR KBWG 260853Z AUTO 19007KT 10SM CLR 17/11 A3001 RMK AO2 SLP156 T01720111 56009","observationTime":"2026-03-26T08:53:00.000Z","flightCategory":"VFR","latitude":36.9647,"longitude":-86.4238},"KBVY":{"rawOb":"METAR KBVY 260853Z AUTO 16006KT 10SM BKN034 OVC095 04/03 A3001 RMK AO2 RAB32E45 SLP158 P0000 60005 T00440033 58039","observationTime":"2026-03-26T08:53:00.000Z","flightCategory":"VFR","latitude":42.5841,"longitude":-70.9153},"KPEO":{"rawOb":"METAR KPEO 260853Z AUTO 20015G24KT 10SM OVC080 09/00 A2981 RMK AO2 RAB13E22 SLP097 P0000 60000 T00890000 56032","observationTime":"2026-03-26T08:53:00.000Z","flightCategory":"VFR","latitude":42.6441,"longitude":-77.0528},"KBVO":{"rawOb":"METAR KBVO 260853Z AUTO 19006KT 10SM CLR 21/16 A2987 RMK AO2 SLP103 T02060156 58006","observationTime":"2026-03-26T08:53:00.000Z","flightCategory":"VFR","latitude":36.7664,"longitude":-96.013},"KBUR":{"rawOb":"METAR KBUR 260853Z 21006KT 8SM CLR 15/13 A2996 RMK AO2 SLP133 T01500128 58002 $","observationTime":"2026-03-26T08:53:00.000Z","flightCategory":"VFR","latitude":34.1996,"longitude":-118.3654},"PAKW":{"rawOb":"METAR PAKW 260853Z AUTO 04007KT 1SM -SN BR VV009 02/00 A2999 RMK AO2 SLP155 P0005 60006 T00220000 400560017 51015 TSNO","observationTime":"2026-03-26T08:53:00.000Z","flightCategory":"IFR","latitude":55.582,"longitude":-133.075},"KBTR":{"rawOb":"METAR KBTR 260853Z AUTO 00000KT 6SM BR FEW009 SCT019 16/16 A3009 RMK AO2 SLP189 T01610156 56004","observationTime":"2026-03-26T08:53:00.000Z","flightCategory":"VFR","latitude":30.5378,"longitude":-91.1468},"KPDX":{"rawOb":"METAR KPDX 260853Z 00000KT 10SM CLR 03/01 A3046 RMK AO2 SLP313 T00280011 53023 $","observationTime":"2026-03-26T08:53:00.000Z","flightCategory":"VFR","latitude":45.5958,"longitude":-122.6092},"KBTM":{"rawOb":"METAR KBTM 260853Z AUTO 36005KT 10SM OVC029 02/M04 A3003 RMK AO2 SLP157 T00221039 53013","observationTime":"2026-03-26T08:53:00.000Z","flightCategory":"MVFR","latitude":45.9644,"longitude":-112.5015},"KBTL":{"rawOb":"METAR KBTL 260853Z AUTO 19005KT 10SM CLR 09/04 A2979 RMK AO2 SLP087 T00890039 58012","observationTime":"2026-03-26T08:53:00.000Z","flightCategory":"VFR","latitude":42.3119,"longitude":-85.2415},"KPDT":{"rawOb":"METAR KPDT 260853Z AUTO 26016KT 10SM CLR 03/M04 A3033 RMK AO2 SLP272 T00281039 51036 $","observationTime":"2026-03-26T08:53:00.000Z","flightCategory":"VFR","latitude":45.6975,"longitude":-118.8345},"KBRO":{"rawOb":"METAR KBRO 260853Z AUTO 15006KT 10SM SCT024 22/18 A3001 RMK AO2 SLP161 T02170183 56008","observationTime":"2026-03-26T08:53:00.000Z","flightCategory":"VFR","latitude":25.9146,"longitude":-97.4231},"KBRD":{"rawOb":"METAR KBRD 260853Z AUTO 30010KT 8SM -RA OVC046 09/04 A2982 RMK AO2 SLP100 P0001 60001 T00890044 53023","observationTime":"2026-03-26T08:53:00.000Z","flightCategory":"VFR","latitude":46.4021,"longitude":-94.1273},"KBPT":{"rawOb":"METAR KBPT 260853Z AUTO 00000KT 1/4SM R12/0600VP6000FT FG VV003 17/17 A3006 RMK AO2 SLP180 T01720172 56004","observationTime":"2026-03-26T08:53:00.000Z","flightCategory":"LIFR","latitude":29.9521,"longitude":-94.0262},"KBPK":{"rawOb":"METAR KBPK 260853Z AUTO 23006KT 8SM CLR 19/13 A2992 RMK AO2 SLP122 T01940133 58012 PWINO $","observationTime":"2026-03-26T08:53:00.000Z","flightCategory":"VFR","latitude":36.3706,"longitude":-92.4719},"KPDK":{"rawOb":"METAR KPDK 260853Z AUTO 00000KT 9SM BKN070 13/09 A3017 RMK AO2 SLP209 T01280089 58009","observationTime":"2026-03-26T08:53:00.000Z","flightCategory":"VFR","latitude":33.8783,"longitude":-84.298},"KBPI":{"rawOb":"METAR KBPI 260853Z AUTO 07003KT 10SM CLR 02/M07 A3001 RMK AO2 SLP088 T00221067 58000 $","observationTime":"2026-03-26T08:53:00.000Z","flightCategory":"VFR","latitude":42.578,"longitude":-110.1098},"KBOI":{"rawOb":"METAR KBOI 260853Z 30016KT 10SM FEW085 08/00 A3012 RMK AO2 SLP189 T00780000 51043","observationTime":"2026-03-26T08:53:00.000Z","flightCategory":"VFR","latitude":43.567,"longitude":-116.2406},"KBNO":{"rawOb":"METAR KBNO 260853Z AUTO 29006KT 10SM SCT042 M01/M04 A3023 RMK AO2 SLP234 T10061044 51029","observationTime":"2026-03-26T08:53:00.000Z","flightCategory":"VFR","latitude":43.5949,"longitude":-118.9579},"KPBI":{"rawOb":"METAR KPBI 260853Z 33003KT 10SM FEW025 19/17 A3009 RMK AO2 SLP188 T01940172 56012 $","observationTime":"2026-03-26T08:53:00.000Z","flightCategory":"VFR","latitude":26.6851,"longitude":-80.0992},"PHKO":{"rawOb":"METAR PHKO 260853Z AUTO 00000KT 10SM FEW039 BKN055 24/19 A2995 RMK AO2 SLP140 T02440189 50008","observationTime":"2026-03-26T08:53:00.000Z","flightCategory":"VFR","latitude":19.7378,"longitude":-156.048},"PADQ":{"rawOb":"METAR PADQ 260853Z AUTO VRB03KT 10SM CLR M03/M09 A3016 RMK AO2 SLP213 T10331094 400001039 51013 FZRANO $","observationTime":"2026-03-26T08:53:00.000Z","flightCategory":"VFR","latitude":57.7507,"longitude":-152.4881},"KPBG":{"rawOb":"METAR KPBG 260853Z AUTO 00000KT 10SM BKN065 OVC085 M01/M03 A2984 RMK AO2 SLP107 60000 T10061033 56039","observationTime":"2026-03-26T08:53:00.000Z","flightCategory":"VFR","latitude":44.6392,"longitude":-73.4631},"PHTO":{"rawOb":"METAR PHTO 260853Z AUTO 33006KT 10SM FEW027 22/18 A2998 RMK AO2 SLP150 T02170183 50004","observationTime":"2026-03-26T08:53:00.000Z","flightCategory":"VFR","latitude":19.7191,"longitude":-155.049},"PAOR":{"rawOb":"METAR PAOR 260853Z 00000KT 10SM SCT060 M26/M28 A3028 RMK AO2 SLP325 T12611278 410941317 51008 $","observationTime":"2026-03-26T08:53:00.000Z","flightCategory":"VFR","latitude":62.962,"longitude":-141.938},"PAOM":{"rawOb":"METAR PAOM 260853Z AUTO A3048 RMK AO2 SLP323 51004 PWINO FZRANO TSNO $","observationTime":"2026-03-26T08:53:00.000Z","flightCategory":"null","latitude":64.5111,"longitude":-165.4401},"PANC":{"rawOb":"METAR PANC 260853Z 24005KT 10SM CLR M08/M13 A3014 RMK AO2 SLP211 T10831133 410221106 52012","observationTime":"2026-03-26T08:53:00.000Z","flightCategory":"VFR","latitude":61.1691,"longitude":-150.0277},"KPBF":{"rawOb":"METAR KPBF 260853Z AUTO 21007KT 10SM CLR 20/14 A3001 RMK AO2 SLP158 T02000139 58007","observationTime":"2026-03-26T08:53:00.000Z","flightCategory":"VFR","latitude":34.1798,"longitude":-91.9344},"KPAH":{"rawOb":"METAR KPAH 260853Z AUTO 21005KT 10SM CLR 19/12 A2993 RMK AO2 SLP131 T01940117 58010 $","observationTime":"2026-03-26T08:53:00.000Z","flightCategory":"VFR","latitude":37.0652,"longitude":-88.7793},"PAMR":{"rawOb":"METAR PAMR 260853Z 00000KT 10SM CLR M10/M15 A3014 RMK AO2 SLP211 T11001150 410171189 51011 $","observationTime":"2026-03-26T08:53:00.000Z","flightCategory":"VFR","latitude":61.215,"longitude":-149.85},"PAMC":{"rawOb":"METAR PAMC 260853Z AUTO 22003KT 10SM CLR M20/M23 A3039 RMK AO2 SLP304 T12001233 410611200 53007 TSNO","observationTime":"2026-03-26T08:53:00.000Z","flightCategory":"VFR","latitude":62.957,"longitude":-155.61},"KLOU":{"rawOb":"METAR KLOU 260853Z AUTO 20009KT 10SM BKN110 19/12 A2995 RMK AO2 SLP137 T01890117 58009","observationTime":"2026-03-26T08:53:00.000Z","flightCategory":"VFR","latitude":38.2302,"longitude":-85.6629},"KPAE":{"rawOb":"METAR KPAE 260853Z AUTO 15007KT 10SM -RA FEW026 BKN046 OVC055 03/02 A3040 RMK AO2 RAB16E30B49 SLP297 P0000 60003 T00330017 53027 $","observationTime":"2026-03-26T08:53:00.000Z","flightCategory":"VFR","latitude":47.9232,"longitude":-122.2831},"PALH":{"rawOb":"METAR PALH 260853Z AUTO 00000KT 10SM CLR M09/M13 A3015 RMK AO2 SLP211 T10891128 410171156 53011 TSNO $","observationTime":"2026-03-26T08:53:00.000Z","flightCategory":"VFR","latitude":61.179,"longitude":-149.962},"PAKV":{"rawOb":"METAR PAKV 260853Z AUTO 22005KT 10SM CLR M20/M23 A3050 RMK AO2 SLP335 T12001233 410611256 50003 TSNO","observationTime":"2026-03-26T08:53:00.000Z","flightCategory":"VFR","latitude":64.321,"longitude":-158.732},"PAKT":{"rawOb":"METAR PAKT 260853Z AUTO 14007KT 9SM FEW033 OVC040 00/M03 A3007 RMK AO2 SLP184 T00001033 400281006 51016 TSNO $","observationTime":"2026-03-26T08:53:00.000Z","flightCategory":"VFR","latitude":55.3592,"longitude":-131.7219},"KLOL":{"rawOb":"METAR KLOL 260853Z AUTO 15007KT 10SM CLR 09/00 A3007 RMK AO2 SLP156 T00890000 53012 $","observationTime":"2026-03-26T08:53:00.000Z","flightCategory":"VFR","latitude":40.0684,"longitude":-118.5702},"PAJN":{"rawOb":"METAR PAJN 260853Z 19004KT 9SM -SN BKN047 OVC060 M06/M10 A3017 RMK AO2 SLP217 P0000 60000 T10561100 410281061 53013 $","observationTime":"2026-03-26T08:53:00.000Z","flightCategory":"VFR","latitude":58.354,"longitude":-134.5561},"KLNS":{"rawOb":"METAR KLNS 260853Z AUTO 20004KT 10SM OVC100 09/03 A2999 RMK AO2 SLP155 T00940033 56023","observationTime":"2026-03-26T08:53:00.000Z","flightCategory":"VFR","latitude":40.1206,"longitude":-76.2944},"KLND":{"rawOb":"METAR KLND 260853Z AUTO 00000KT 10SM CLR 11/M06 A2986 RMK AO2 SLP049 T01111056 58003","observationTime":"2026-03-26T08:53:00.000Z","flightCategory":"VFR","latitude":42.8154,"longitude":-108.726},"PAIL":{"rawOb":"METAR PAIL 260853Z AUTO 30003KT 10SM CLR M18/M19 A3027 RMK AO2 SLP256 I1000 I3000 T11781194 410561228 51008 TSNO","observationTime":"2026-03-26T08:53:00.000Z","flightCategory":"VFR","latitude":59.7492,"longitude":-154.9091},"PAGY":{"rawOb":"METAR PAGY 260853Z AUTO 02012G22KT 10SM OVC100 M07/M18 A3032 RMK AO2 SLP266 T10671183 410221067 51023 FZRANO TSNO $","observationTime":"2026-03-26T08:53:00.000Z","flightCategory":"VFR","latitude":59.457,"longitude":-135.322},"PAGK":{"rawOb":"METAR PAGK 260853Z AUTO 08005KT 10SM CLR M14/M22 A3013 RMK AO2 SLP258 T11441222 410611306 51012 TSNO","observationTime":"2026-03-26T08:53:00.000Z","flightCategory":"VFR","latitude":62.1592,"longitude":-145.4588},"KLMT":{"rawOb":"METAR KLMT 260853Z AUTO 00000KT 10SM CLR M01/M04 A3025 RMK AO2 SLP237 T10111044 51019 $","observationTime":"2026-03-26T08:53:00.000Z","flightCategory":"VFR","latitude":42.147,"longitude":-121.7255},"PAFA":{"rawOb":"METAR PAFA 260853Z 03005KT 10SM CLR M21/M24 A3041 RMK AO2 SLP313 T12111244 410561283 51009","observationTime":"2026-03-26T08:53:00.000Z","flightCategory":"VFR","latitude":64.8031,"longitude":-147.8761},"PAEN":{"rawOb":"METAR PAEN 260853Z AUTO 02003KT 10SM CLR M16/M19 A3016 RMK AO2 SLP218 T11561189 410171156 51010","observationTime":"2026-03-26T08:53:00.000Z","flightCategory":"VFR","latitude":60.579,"longitude":-151.242},"PAEG":{"rawOb":"METAR PAEG 260853Z AUTO 00000KT 10SM CLR M29/M34 A3047 RMK AO2 SLP351 T12941339 411171344 51006 TSNO $","observationTime":"2026-03-26T08:53:00.000Z","flightCategory":"VFR","latitude":64.7761,"longitude":-141.1635},"PADE":{"rawOb":"METAR PADE 260853Z AUTO 22003KT 10SM CLR M22/M25 A3043 RMK AO2 SLP306 T12221250 411001250 58001 TSNO $","observationTime":"2026-03-26T08:53:00.000Z","flightCategory":"VFR","latitude":66.0696,"longitude":-162.7613},"PACV":{"rawOb":"METAR PACV 260853Z VRB04KT 10SM CLR M03/M21 A3009 RMK AO2 SLP190 T10331206 400111094 51009","observationTime":"2026-03-26T08:53:00.000Z","flightCategory":"VFR","latitude":60.486,"longitude":-145.4445},"PACD":{"rawOb":"METAR PACD 260853Z AUTO 31010KT 10SM OVC018 M07/M09 A3043 RMK AO2 SLP306 T10671089 410501106 51016 TSNO","observationTime":"2026-03-26T08:53:00.000Z","flightCategory":"MVFR","latitude":55.2207,"longitude":-162.7323},"KLLQ":{"rawOb":"METAR KLLQ 260853Z AUTO 23007KT 10SM CLR 20/14 A3003 RMK AO2 SLP165 T02000139 58005","observationTime":"2026-03-26T08:53:00.000Z","flightCategory":"VFR","latitude":33.636,"longitude":-91.7555},"PABT":{"rawOb":"METAR PABT 260853Z 01003KT 10SM CLR M24/M28 A3047 RMK AO2 SLP343 T12441278 410781267 51002 PNO","observationTime":"2026-03-26T08:53:00.000Z","flightCategory":"VFR","latitude":66.9176,"longitude":-151.5189},"KASX":{"rawOb":"METAR KASX 260853Z AUTO 02005G15KT 10SM OVC003 00/M01 A2974 RMK AO2 SLP077 60000 T00001006 56007","observationTime":"2026-03-26T08:53:00.000Z","flightCategory":"LIFR","latitude":46.5468,"longitude":-90.9184},"KASE":{"rawOb":"METAR KASE 260853Z AUTO VRB03KT 10SM SCT100 09/M01 A3012 RMK AO2 SLP077 T00891011 55006","observationTime":"2026-03-26T08:53:00.000Z","flightCategory":"VFR","latitude":39.2299,"longitude":-106.8705},"KASD":{"rawOb":"METAR KASD 260853Z AUTO 00000KT 10SM FEW009 OVC014 19/18 A3010 RMK AO2 SLP192 T01890183 55004 $","observationTime":"2026-03-26T08:53:00.000Z","flightCategory":"MVFR","latitude":30.3436,"longitude":-89.8224},"KARB":{"rawOb":"METAR KARB 260853Z AUTO 20003KT 10SM CLR 06/02 A2980 RMK AO2 SLP094 T00610017 58009","observationTime":"2026-03-26T08:53:00.000Z","flightCategory":"VFR","latitude":42.2239,"longitude":-83.7398},"KARA":{"rawOb":"METAR KARA 260853Z AUTO 00000KT 1/2SM FG BKN007 OVC016 16/16 A3008 RMK AO2 SLP186 T01610161 56004","observationTime":"2026-03-26T08:53:00.000Z","flightCategory":"LIFR","latitude":30.0292,"longitude":-91.8845},"KAPF":{"rawOb":"METAR KAPF 260853Z AUTO 00000KT 8SM CLR 19/19 A3007 RMK AO2 SLP182 T01890189 56013","observationTime":"2026-03-26T08:53:00.000Z","flightCategory":"VFR","latitude":26.155,"longitude":-81.7751},"KAPA":{"rawOb":"METAR KAPA 260853Z 19007KT 10SM FEW120 16/M03 A2989 RMK AO2 SLP046 T01561033 58011","observationTime":"2026-03-26T08:53:00.000Z","flightCategory":"VFR","latitude":39.5599,"longitude":-104.8484},"KAOO":{"rawOb":"METAR KAOO 260853Z AUTO 21008KT 10SM BKN065 BKN120 08/M01 A2994 RMK AO2 SLP141 T00831006 56007","observationTime":"2026-03-26T08:53:00.000Z","flightCategory":"VFR","latitude":40.2999,"longitude":-78.3168},"KAOH":{"rawOb":"METAR KAOH 260853Z AUTO 20006KT 10SM FEW065 13/07 A2987 RMK AO2 SLP114 T01330072 55003","observationTime":"2026-03-26T08:53:00.000Z","flightCategory":"VFR","latitude":40.7081,"longitude":-84.0214},"KANB":{"rawOb":"METAR KANB 260853Z AUTO 02004KT 10SM CLR 14/11 A3015 RMK AO2 SLP204 T01440106 58004","observationTime":"2026-03-26T08:53:00.000Z","flightCategory":"VFR","latitude":33.5904,"longitude":-85.8479},"KAMW":{"rawOb":"METAR KAMW 260853Z AUTO 00000KT 7SM CLR 08/07 A2969 RMK AO2 SLP047 T00830072 56012","observationTime":"2026-03-26T08:53:00.000Z","flightCategory":"VFR","latitude":41.9905,"longitude":-93.6185},"KAMG":{"rawOb":"METAR KAMG 260853Z AUTO 15003KT 1/2SM FG VV002 14/14 A3017 RMK AO2 SLP213 T01390139 56012","observationTime":"2026-03-26T08:53:00.000Z","flightCategory":"LIFR","latitude":31.5401,"longitude":-82.5074},"KAMA":{"rawOb":"METAR KAMA 260853Z AUTO 21019G28KT 10SM CLR 20/07 A2992 RMK AO2 PK WND 20028/0849 SLP069 T02000072 58005","observationTime":"2026-03-26T08:53:00.000Z","flightCategory":"VFR","latitude":35.2203,"longitude":-101.7173},"KALW":{"rawOb":"METAR KALW 260853Z AUTO 20010KT 10SM CLR 03/M02 A3033 RMK AO2 SLP277 T00331017 51032","observationTime":"2026-03-26T08:53:00.000Z","flightCategory":"VFR","latitude":46.0946,"longitude":-118.2857},"KALI":{"rawOb":"METAR KALI 260853Z AUTO 16006KT 10SM FEW027 19/18 A3001 RMK AO2 SLP159 T01940183 58005","observationTime":"2026-03-26T08:53:00.000Z","flightCategory":"VFR","latitude":27.7413,"longitude":-98.0251},"KAKO":{"rawOb":"METAR KAKO 260853Z AUTO 23015KT 10SM CLR 17/01 A2980 RMK AO2 SLP023 T01720006 56015","observationTime":"2026-03-26T08:53:00.000Z","flightCategory":"VFR","latitude":40.1743,"longitude":-103.2146},"KAIA":{"rawOb":"METAR KAIA 260853Z AUTO 36011KT 10SM CLR 14/02 A2980 RMK AO2 SLP043 T01440022 53011","observationTime":"2026-03-26T08:53:00.000Z","flightCategory":"VFR","latitude":42.0573,"longitude":-102.8017},"KAGS":{"rawOb":"METAR KAGS 260853Z 00000KT 10SM FEW033 OVC050 14/12 A3018 RMK AO2 SLP219 T01440122 58006 $","observationTime":"2026-03-26T08:53:00.000Z","flightCategory":"VFR","latitude":33.3652,"longitude":-81.9635},"KAGC":{"rawOb":"METAR KAGC 260853Z 21009KT 10SM SCT080 14/03 A2991 RMK AO2 SLP131 T01440033 58004","observationTime":"2026-03-26T08:53:00.000Z","flightCategory":"VFR","latitude":40.3551,"longitude":-79.9215},"KAFW":{"rawOb":"METAR KAFW 260853Z 17007KT 10SM FEW250 20/15 A2994 RMK AO2 SLP126 T02060156 57006","observationTime":"2026-03-26T08:53:00.000Z","flightCategory":"VFR","latitude":32.99,"longitude":-97.32},"KADG":{"rawOb":"METAR KADG 260853Z AUTO 22005KT 10SM CLR 09/03 A2984 RMK AO2 SLP103 T00890028 56006 $","observationTime":"2026-03-26T08:53:00.000Z","flightCategory":"VFR","latitude":41.8678,"longitude":-84.0794},"KACV":{"rawOb":"METAR KACV 260853Z AUTO 02004KT 10SM OVC018 08/06 A3031 RMK AO2 SLP269 T00830056 53006","observationTime":"2026-03-26T08:53:00.000Z","flightCategory":"MVFR","latitude":40.9784,"longitude":-124.1048},"KACK":{"rawOb":"METAR KACK 260853Z AUTO 19016KT 8SM SCT036 BKN070 OVC085 07/06 A3007 RMK AO2 SLP183 T00720061 56041 PWINO","observationTime":"2026-03-26T08:53:00.000Z","flightCategory":"VFR","latitude":41.2541,"longitude":-70.0589},"KABY":{"rawOb":"METAR KABY 260853Z 00000KT 3SM BR CLR 13/12 A3017 RMK AO2 SLP216 T01280122 56008","observationTime":"2026-03-26T08:53:00.000Z","flightCategory":"MVFR","latitude":31.5364,"longitude":-84.1958},"KABR":{"rawOb":"METAR KABR 260853Z AUTO 02021G33KT 8SM BKN007 OVC100 04/03 A2982 RMK AO2 PK WND 02034/0802 SLP099 60004 T00390028 51020","observationTime":"2026-03-26T08:53:00.000Z","flightCategory":"IFR","latitude":45.4436,"longitude":-98.4138},"KAAF":{"rawOb":"METAR KAAF 260853Z AUTO 08004KT 10SM CLR 15/15 A3011 RMK AO1 SLP197 T01500150 56016 $","observationTime":"2026-03-26T08:53:00.000Z","flightCategory":"VFR","latitude":29.7268,"longitude":-85.0248},"KDEW":{"rawOb":"METAR KDEW 260853Z AUTO 20010KT 10SM CLR 01/M06 A3015 RMK AO2 SLP219 T00111061 53036","observationTime":"2026-03-26T08:53:00.000Z","flightCategory":"VFR","latitude":47.9742,"longitude":-117.4292},"KDET":{"rawOb":"METAR KDET 260853Z 23008KT 10SM CLR 12/03 A2980 RMK AO2 SLP092 T01220028 58003","observationTime":"2026-03-26T08:53:00.000Z","flightCategory":"VFR","latitude":42.4072,"longitude":-83.009},"KDEQ":{"rawOb":"METAR KDEQ 260853Z AUTO 00000KT 6SM BR CLR 13/13 A2998 RMK AO2 SLP148 T01330128 58004","observationTime":"2026-03-26T08:53:00.000Z","flightCategory":"VFR","latitude":34.048,"longitude":-94.4016},"KDEN":{"rawOb":"METAR KDEN 260853Z 23009KT 10SM FEW120 FEW220 15/M02 A2986 RMK AO2 SLP028 T01501022 58007","observationTime":"2026-03-26T08:53:00.000Z","flightCategory":"VFR","latitude":39.8466,"longitude":-104.6562},"KDCU":{"rawOb":"METAR KDCU 260853Z AUTO 18007KT 10SM CLR 16/12 A3009 RMK AO2 SLP184 T01610122 56007 $","observationTime":"2026-03-26T08:53:00.000Z","flightCategory":"VFR","latitude":34.658,"longitude":-86.9434},"KDAN":{"rawOb":"METAR KDAN 260853Z AUTO 22004KT 10SM OVC080 11/05 A3014 RMK AO2 SLP199 T01110050 58004","observationTime":"2026-03-26T08:53:00.000Z","flightCategory":"VFR","latitude":36.5729,"longitude":-79.335},"KDAL":{"rawOb":"METAR KDAL 260853Z 17008G15KT 10SM FEW250 21/16 A2997 RMK AO2 SLP140 T02060161 58004","observationTime":"2026-03-26T08:53:00.000Z","flightCategory":"VFR","latitude":32.8384,"longitude":-96.8358},"KDAB":{"rawOb":"METAR KDAB 260853Z 00000KT 3SM BR FEW016 18/18 A3012 RMK AO2 SLP197 T01830178 56012","observationTime":"2026-03-26T08:53:00.000Z","flightCategory":"MVFR","latitude":29.1735,"longitude":-81.0719},"KCYS":{"rawOb":"METAR KCYS 260853Z AUTO 29008KT 10SM CLR 12/M02 A2990 RMK AO2 SLP039 T01171022 58007","observationTime":"2026-03-26T08:53:00.000Z","flightCategory":"VFR","latitude":41.1579,"longitude":-104.8081},"KCXO":{"rawOb":"METAR KCXO 260853Z 14003KT 10SM BKN018 19/18 A3006 RMK AO2 SLP175 T01890178 58006","observationTime":"2026-03-26T08:53:00.000Z","flightCategory":"MVFR","latitude":30.3611,"longitude":-95.4176},"KCUT":{"rawOb":"METAR KCUT 260853Z AUTO 02004KT 10SM CLR 06/M01 A2988 RMK AO2 SLP066 T00611006 51005 $","observationTime":"2026-03-26T08:53:00.000Z","flightCategory":"VFR","latitude":43.7331,"longitude":-103.6151},"KCUB":{"rawOb":"METAR KCUB 260853Z AUTO 00000KT 10SM OVC090 14/12 A3018 RMK AO2 SLP220 T01440117 56013","observationTime":"2026-03-26T08:53:00.000Z","flightCategory":"VFR","latitude":33.972,"longitude":-80.9938},"KCSV":{"rawOb":"METAR KCSV 260853Z AUTO 19003KT 10SM CLR 13/09 A3012 RMK AO2 SLP189 T01330094 56004 TSNO","observationTime":"2026-03-26T08:53:00.000Z","flightCategory":"VFR","latitude":35.951,"longitude":-85.0814},"KCSM":{"rawOb":"METAR KCSM 260853Z AUTO 18018KT 10SM CLR 19/13 A2985 RMK AO2 SLP084 T01890133 58008","observationTime":"2026-03-26T08:53:00.000Z","flightCategory":"VFR","latitude":35.3568,"longitude":-99.2041},"KCRS":{"rawOb":"METAR KCRS 260853Z AUTO 19010KT 10SM -RA CLR 20/17 A3001 RMK AO2 SLP157 P0000 60000 T02000167 58005","observationTime":"2026-03-26T08:53:00.000Z","flightCategory":"VFR","latitude":32.0316,"longitude":-96.3994},"KCRQ":{"rawOb":"METAR KCRQ 260853Z AUTO 13004KT 7SM OVC006 16/14 A2994 RMK AO2 SLP138 T01560139 58006","observationTime":"2026-03-26T08:53:00.000Z","flightCategory":"IFR","latitude":33.1299,"longitude":-117.2765},"KCRG":{"rawOb":"METAR KCRG 260853Z AUTO 34004KT 1/4SM FG VV002 16/16 A3014 RMK AO2 SLP206 T01560156 56014","observationTime":"2026-03-26T08:53:00.000Z","flightCategory":"LIFR","latitude":30.3371,"longitude":-81.5128},"KCRE":{"rawOb":"METAR KCRE 260853Z AUTO 00000KT 10SM BKN065 11/11 A3018 RMK AO1 SLP219 T01110111 56014","observationTime":"2026-03-26T08:53:00.000Z","flightCategory":"VFR","latitude":33.8162,"longitude":-78.7204},"KCPS":{"rawOb":"METAR KCPS 260853Z AUTO 21005KT 10SM CLR 22/14 A2980 RMK AO2 SLP086 T02170139 58015 $","observationTime":"2026-03-26T08:53:00.000Z","flightCategory":"VFR","latitude":38.57,"longitude":-90.156},"KCPR":{"rawOb":"METAR KCPR 260853Z AUTO 02008KT 10SM BKN095 OVC110 10/M01 A2988 RMK AO2 SLP060 T01001006 53002","observationTime":"2026-03-26T08:53:00.000Z","flightCategory":"VFR","latitude":42.8978,"longitude":-106.4736},"KCOT":{"rawOb":"METAR KCOT 260853Z AUTO 15011KT 10SM OVC020 22/17 A2999 RMK AO2 SLP148 T02170172 55001","observationTime":"2026-03-26T08:53:00.000Z","flightCategory":"MVFR","latitude":28.4585,"longitude":-99.2228},"KCNY":{"rawOb":"METAR KCNY 260853Z AUTO 21009KT 10SM CLR 19/M03 A2988 RMK AO2 SLP055 T01941028 51006","observationTime":"2026-03-26T08:53:00.000Z","flightCategory":"VFR","latitude":38.7501,"longitude":-109.7627},"KCNO":{"rawOb":"METAR KCNO 260853Z AUTO 11004KT 5SM BR CLR 13/12 A2997 RMK AO2 SLP142 T01330122 58004","observationTime":"2026-03-26T08:53:00.000Z","flightCategory":"MVFR","latitude":33.9756,"longitude":-117.6249},"KCNM":{"rawOb":"METAR KCNM 260853Z AUTO 19006KT 10SM CLR 16/06 A2994 RMK AO2 SLP080 T01610061 58006","observationTime":"2026-03-26T08:53:00.000Z","flightCategory":"VFR","latitude":32.3336,"longitude":-104.2584},"KCMX":{"rawOb":"METAR KCMX 260853Z AUTO 07006KT 2 1/2SM BR OVC002 M02/M03 A2974 RMK AO2 SLP081 60000 I1000 I3000 T10171028 58008","observationTime":"2026-03-26T08:53:00.000Z","flightCategory":"LIFR","latitude":47.1705,"longitude":-88.4854},"KCMI":{"rawOb":"METAR KCMI 260853Z AUTO 14011KT 10SM BKN070 16/14 A2982 RMK AO2 LTG DSNT NE AND E SLP094 60063 T01610139 56019","observationTime":"2026-03-26T08:53:00.000Z","flightCategory":"VFR","latitude":40.0324,"longitude":-88.2755},"KCLM":{"rawOb":"METAR KCLM 260853Z AUTO 25011KT 10SM FEW065 02/01 A3038 RMK AO2 SLP291 T00220006 53026","observationTime":"2026-03-26T08:53:00.000Z","flightCategory":"VFR","latitude":48.1219,"longitude":-123.5066},"KCLL":{"rawOb":"METAR KCLL 260853Z AUTO 18009KT 10SM OVC020 21/18 A3004 RMK AO2 SLP167 T02060178 58002","observationTime":"2026-03-26T08:53:00.000Z","flightCategory":"MVFR","latitude":30.5912,"longitude":-96.3631},"KCKB":{"rawOb":"METAR KCKB 260853Z AUTO 20008KT 10SM BKN060 OVC090 16/01 A2998 RMK AO2 SLP141 6//// T01560011 $","observationTime":"2026-03-26T08:53:00.000Z","flightCategory":"VFR","latitude":39.3022,"longitude":-80.2239},"KBNA":{"rawOb":"METAR KBNA 260853Z 19009KT 10SM FEW200 17/11 A3004 RMK AO2 SLP169 T01720111 57005 $","observationTime":"2026-03-26T08:53:00.000Z","flightCategory":"VFR","latitude":36.1105,"longitude":-86.6881},"KBMQ":{"rawOb":"METAR KBMQ 260853Z AUTO 17005G15KT 10SM OVC014 19/17 A3002 RMK AO2 SLP149 T01940167 58004 $","observationTime":"2026-03-26T08:53:00.000Z","flightCategory":"MVFR","latitude":30.7407,"longitude":-98.2354},"KBMG":{"rawOb":"METAR KBMG 260853Z AUTO 09008KT 7SM VCTS -RA OVC060 16/14 A2990 RMK AO2 LTG DSNT ALQDS TSB17E44 SLP120 P0023 60026 T01560139 58009","observationTime":"2026-03-26T08:53:00.000Z","flightCategory":"VFR","latitude":39.1431,"longitude":-86.6168},"KBLI":{"rawOb":"METAR KBLI 260853Z AUTO 20006KT 10SM CLR 06/00 A3037 RMK AO2 SLP291 T00560000 53033","observationTime":"2026-03-26T08:53:00.000Z","flightCategory":"VFR","latitude":48.7991,"longitude":-122.5407},"KBKV":{"rawOb":"METAR KBKV 260853Z AUTO 08006KT 6SM BR OVC003 18/18 A3011 RMK AO2 SLP194 T01830178 56010","observationTime":"2026-03-26T08:53:00.000Z","flightCategory":"LIFR","latitude":28.4739,"longitude":-82.4537},"KBKL":{"rawOb":"METAR KBKL 260853Z 22014G21KT 10SM CLR 16/06 A2983 RMK AO2 SLP102 T01560061 56008 $","observationTime":"2026-03-26T08:53:00.000Z","flightCategory":"VFR","latitude":41.5173,"longitude":-81.6832},"KBKE":{"rawOb":"METAR KBKE 260853Z AUTO 34017KT 10SM CLR 01/M07 A3024 RMK AO2 PK WND 35035/0808 SLP241 T00111067 53033","observationTime":"2026-03-26T08:53:00.000Z","flightCategory":"VFR","latitude":44.843,"longitude":-117.8099},"KBIV":{"rawOb":"METAR KBIV 260853Z AUTO 20006KT 10SM CLR 09/06 A2975 RMK AO2 SLP074 T00940056 58014","observationTime":"2026-03-26T08:53:00.000Z","flightCategory":"VFR","latitude":42.7463,"longitude":-86.0968},"KBIL":{"rawOb":"METAR KBIL 260853Z 05017G21KT 10SM BKN025 OVC065 04/M02 A3002 RMK AO2 SLP157 T00391017 51021 $","observationTime":"2026-03-26T08:53:00.000Z","flightCategory":"MVFR","latitude":45.8072,"longitude":-108.5462},"KBHM":{"rawOb":"METAR KBHM 260853Z 18003KT 10SM CLR 17/13 A3015 RMK AO2 SLP203 T01670128 50001","observationTime":"2026-03-26T08:53:00.000Z","flightCategory":"VFR","latitude":33.5655,"longitude":-86.7449},"KBGR":{"rawOb":"METAR KBGR 260853Z 19009KT 10SM -RA BKN008 OVC015 02/01 A3000 RMK AO2 CIG 006V012 SLP160 P0003 60010 T00220011 56039","observationTime":"2026-03-26T08:53:00.000Z","flightCategory":"IFR","latitude":44.7979,"longitude":-68.8195},"KBGM":{"rawOb":"METAR KBGM 260853Z AUTO 19007KT 10SM -RA OVC075 06/M02 A2987 RMK AO2 RAB0756 SLP119 P0001 60001 T00611022 58020","observationTime":"2026-03-26T08:53:00.000Z","flightCategory":"VFR","latitude":42.2068,"longitude":-75.9799},"KBFM":{"rawOb":"METAR KBFM 260853Z 32004KT 4SM BR BKN009 15/15 A3013 RMK AO2 SLP203 T01500150 55004","observationTime":"2026-03-26T08:53:00.000Z","flightCategory":"IFR","latitude":30.6147,"longitude":-88.063},"KBFI":{"rawOb":"METAR KBFI 260853Z 19003KT 10SM BKN021 04/01 A3042 RMK AO2 SLP299 T00390011 51020","observationTime":"2026-03-26T08:53:00.000Z","flightCategory":"MVFR","latitude":47.5455,"longitude":-122.3148},"KOXB":{"rawOb":"METAR KOXB 260853Z AUTO 22011G20KT 10SM CLR 13/08 A3010 RMK AO2 SLP194 T01330083 56019 $","observationTime":"2026-03-26T08:53:00.000Z","flightCategory":"VFR","latitude":38.3091,"longitude":-75.1234},"KBFF":{"rawOb":"METAR KBFF 260853Z AUTO 02014G18KT 10SM FEW100 17/M04 A2977 RMK AO2 SLP028 60000 T01721044 58001 TSNO","observationTime":"2026-03-26T08:53:00.000Z","flightCategory":"VFR","latitude":41.8747,"longitude":-103.6011},"KBFD":{"rawOb":"METAR KBFD 260853Z AUTO VRB04KT 10SM OVC065 12/00 A2987 RMK AO2 SLP114 60000 T01170000 55017","observationTime":"2026-03-26T08:53:00.000Z","flightCategory":"VFR","latitude":41.7984,"longitude":-78.6354},"KLIT":{"rawOb":"METAR KLIT 260853Z 25007KT 9SM CLR 19/14 A2999 RMK AO2 SLP155 T01940144 56008","observationTime":"2026-03-26T08:53:00.000Z","flightCategory":"VFR","latitude":34.7273,"longitude":-92.2358},"KBEH":{"rawOb":"METAR KBEH 260853Z AUTO 18006KT 10SM CLR 13/07 A2976 RMK AO2 SLP078 T01280067 58016","observationTime":"2026-03-26T08:53:00.000Z","flightCategory":"VFR","latitude":42.129,"longitude":-86.4152},"KBDE":{"rawOb":"METAR KBDE 260853Z AUTO 34007KT 3SM BR OVC006 M02/M03 A2985 RMK AO2 SLP122 60000 I1001 I3001 T10171028 53023","observationTime":"2026-03-26T08:53:00.000Z","flightCategory":"IFR","latitude":48.7261,"longitude":-94.6122},"KBCE":{"rawOb":"METAR KBCE 260853Z AUTO 28006KT 10SM CLR 01/M04 A3017 RMK AO2 SLP113 T00111044 58005","observationTime":"2026-03-26T08:53:00.000Z","flightCategory":"VFR","latitude":37.7013,"longitude":-112.149},"KBBW":{"rawOb":"METAR KBBW 260853Z AUTO 00000KT 10SM CLR 09/M01 A2967 RMK AO2 SLP028 T00891006 58018","observationTime":"2026-03-26T08:53:00.000Z","flightCategory":"VFR","latitude":41.4365,"longitude":-99.6385},"KNEN":{"rawOb":"METAR KNEN 260853Z AUTO 35003KT 1/2SM FG VV002 15/15 A3016 RMK AO2 SLP277 T01500150 56012 PWINO $","observationTime":"2026-03-26T08:53:00.000Z","flightCategory":"LIFR","latitude":30.349,"longitude":-81.867},"KBAF":{"rawOb":"METAR KBAF 260853Z AUTO 18009KT 10SM OVC095 05/02 A3000 RMK AO2 SLP161 T00500022 56027","observationTime":"2026-03-26T08:53:00.000Z","flightCategory":"VFR","latitude":42.16,"longitude":-72.7124},"KAZO":{"rawOb":"METAR KAZO 260853Z AUTO 19007KT 10SM CLR 10/06 A2978 RMK AO2 SLP085 T01000056 58012","observationTime":"2026-03-26T08:53:00.000Z","flightCategory":"VFR","latitude":42.2283,"longitude":-85.546},"KAXN":{"rawOb":"METAR KAXN 260853Z AUTO 34010KT 7SM -RA FEW048 BKN060 OVC095 07/06 A2984 RMK AO2 RAB0759 SLP109 P0005 60006 T00720061 53025","observationTime":"2026-03-26T08:53:00.000Z","flightCategory":"VFR","latitude":45.868,"longitude":-95.394},"KAWM":{"rawOb":"METAR KAWM 260853Z AUTO 20005KT 10SM CLR 19/13 A2998 RMK AO2 SLP148 T01940128 56009 $","observationTime":"2026-03-26T08:53:00.000Z","flightCategory":"VFR","latitude":35.1401,"longitude":-90.2359},"KOWD":{"rawOb":"METAR KOWD 260853Z AUTO 19007KT 10SM OVC120 06/04 A3001 RMK AO2 SLP162 60001 T00610039 56045","observationTime":"2026-03-26T08:53:00.000Z","flightCategory":"VFR","latitude":42.1912,"longitude":-71.1732},"KAUS":{"rawOb":"METAR KAUS 260853Z 17011KT 10SM OVC024 21/17 A3001 RMK AO2 SLP152 T02110167 58004","observationTime":"2026-03-26T08:53:00.000Z","flightCategory":"MVFR","latitude":30.1831,"longitude":-97.6806},"KAUG":{"rawOb":"METAR KAUG 260853Z AUTO 17005KT 7SM BKN006 OVC012 02/02 A2999 RMK AO2 CIG 003V010 SLP160 I3000 T00170017 56016 PWINO FZRANO $","observationTime":"2026-03-26T08:53:00.000Z","flightCategory":"IFR","latitude":44.3161,"longitude":-69.797},"KATY":{"rawOb":"METAR KATY 260853Z AUTO 04012KT 10SM CLR 09/06 A2974 RMK AO2 RAE00 SLP066 P0000 60001 T00890061 51007","observationTime":"2026-03-26T08:53:00.000Z","flightCategory":"VFR","latitude":44.9045,"longitude":-97.1496},"KNIP":{"rawOb":"METAR KNIP 260853Z 36008KT 1/2SM FG VV002 16/16 A3015 RMK AO2 SLP203 T01610156 56016 $","observationTime":"2026-03-26T08:53:00.000Z","flightCategory":"LIFR","latitude":30.2346,"longitude":-81.6746},"KGSP":{"rawOb":"METAR KGSP 260853Z AUTO 24008KT 10SM BKN080 13/07 A3018 RMK AO2 SLP214 T01280072 56010 $","observationTime":"2026-03-26T08:53:00.000Z","flightCategory":"VFR","latitude":34.8842,"longitude":-82.2209},"KGSH":{"rawOb":"METAR KGSH 260853Z AUTO 17006KT 10SM FEW060 11/06 A2981 RMK AO2 SLP095 T01060056 58009","observationTime":"2026-03-26T08:53:00.000Z","flightCategory":"VFR","latitude":41.5265,"longitude":-85.7872},"KGRR":{"rawOb":"METAR KGRR 260853Z AUTO 16005KT 10SM CLR 07/04 A2975 RMK AO2 SLP076 T00720044 58013 $","observationTime":"2026-03-26T08:53:00.000Z","flightCategory":"VFR","latitude":42.8821,"longitude":-85.523},"KGRI":{"rawOb":"METAR KGRI 260853Z AUTO 23011KT 10SM CLR 19/05 A2966 RMK AO2 SLP032 T01890050 56017","observationTime":"2026-03-26T08:53:00.000Z","flightCategory":"VFR","latitude":40.9615,"longitude":-98.313},"KGPT":{"rawOb":"METAR KGPT 260853Z AUTO 17003KT 10SM OVC013 20/18 A3010 RMK AO2 SLP192 T02000178 55008","observationTime":"2026-03-26T08:53:00.000Z","flightCategory":"MVFR","latitude":30.4121,"longitude":-89.0809},"KGOK":{"rawOb":"METAR KGOK 260853Z AUTO 18009G23KT 10SM CLR 23/14 A2986 RMK AO2 SLP099 T02280144 58007 $","observationTime":"2026-03-26T08:53:00.000Z","flightCategory":"VFR","latitude":35.8517,"longitude":-97.4142},"KGNV":{"rawOb":"METAR KGNV 260853Z AUTO 02004KT 4SM BR OVC002 17/17 A3016 RMK AO2 SLP210 T01670167 55015 $","observationTime":"2026-03-26T08:53:00.000Z","flightCategory":"LIFR","latitude":29.6917,"longitude":-82.276},"KGMU":{"rawOb":"METAR KGMU 260853Z AUTO 24007KT 10SM BKN080 13/07 A3018 RMK AO2 SLP215 T01330067 56012 TSNO","observationTime":"2026-03-26T08:53:00.000Z","flightCategory":"VFR","latitude":34.8487,"longitude":-82.35},"KOVS":{"rawOb":"METAR KOVS 260853Z AUTO 00000KT 5SM BR CLR 05/05 A2969 RMK AO2 SLP055 T00500050 58026","observationTime":"2026-03-26T08:53:00.000Z","flightCategory":"MVFR","latitude":43.1561,"longitude":-90.6775},"KGLR":{"rawOb":"METAR KGLR 260853Z AUTO 08003KT 6SM BR CLR 00/M02 A2973 RMK AO2 SLP076 T00001017 58014","observationTime":"2026-03-26T08:53:00.000Z","flightCategory":"VFR","latitude":45.0166,"longitude":-84.6894},"KGLH":{"rawOb":"METAR KGLH 260853Z AUTO 20008KT 10SM CLR 17/13 A3004 RMK AO2 SLP178 T01670128 58000","observationTime":"2026-03-26T08:53:00.000Z","flightCategory":"VFR","latitude":33.4772,"longitude":-90.9847},"KGLD":{"rawOb":"METAR KGLD 260853Z AUTO 22007KT 10SM CLR 16/04 A2973 RMK AO2 SLP016 T01610044 58024","observationTime":"2026-03-26T08:53:00.000Z","flightCategory":"VFR","latitude":39.3673,"longitude":-101.6932},"KGKY":{"rawOb":"METAR KGKY 260853Z 17009G18KT 10SM CLR 21/17 A2996 RMK AO2 SLP137 T02060167 58005","observationTime":"2026-03-26T08:53:00.000Z","flightCategory":"VFR","latitude":32.6583,"longitude":-97.0951},"KGKJ":{"rawOb":"METAR KGKJ 260853Z AUTO 22007KT 10SM CLR 12/03 A2985 RMK AO2 SLP109 T01170028 58009","observationTime":"2026-03-26T08:53:00.000Z","flightCategory":"VFR","latitude":41.6258,"longitude":-80.2123},"KGJT":{"rawOb":"METAR KGJT 260853Z AUTO 06006KT 10SM CLR 20/M01 A2992 RMK AO2 SLP055 T02001011 52003","observationTime":"2026-03-26T08:53:00.000Z","flightCategory":"VFR","latitude":39.1344,"longitude":-108.5408},"KGIF":{"rawOb":"METAR KGIF 260853Z AUTO 03004KT 10SM BKN049 19/19 A3012 RMK AO1 SLP196 T01890189 55008 $","observationTime":"2026-03-26T08:53:00.000Z","flightCategory":"VFR","latitude":28.0614,"longitude":-81.7568},"KGGG":{"rawOb":"METAR KGGG 260853Z AUTO 18007KT 10SM CLR 18/16 A3002 RMK AO2 SLP162 T01830161 58002 $","observationTime":"2026-03-26T08:53:00.000Z","flightCategory":"VFR","latitude":32.3909,"longitude":-94.714},"KOVE":{"rawOb":"METAR KOVE 260853Z AUTO 00000KT 10SM CLR 13/10 A3002 RMK AO2 SLP168 T01330100 51012","observationTime":"2026-03-26T08:53:00.000Z","flightCategory":"VFR","latitude":39.4943,"longitude":-121.6225},"KMKL":{"rawOb":"METAR KMKL 260853Z AUTO 19006KT 10SM CLR 19/12 A3001 RMK AO1 SLP159 T01890122 56004","observationTime":"2026-03-26T08:53:00.000Z","flightCategory":"VFR","latitude":35.5933,"longitude":-88.917},"KOTM":{"rawOb":"METAR KOTM 260853Z AUTO 21008KT 9SM CLR 14/10 A2969 RMK AO2 SLP049 T01390100 55018","observationTime":"2026-03-26T08:53:00.000Z","flightCategory":"VFR","latitude":41.1008,"longitude":-92.4445},"PABI":{"rawOb":"METAR PABI 260853Z AUTO 20004KT 10SM M22/M26 A3035 RMK AO2 SLP333 T12221261 410891289 51007 TSNO $","observationTime":"2026-03-26T08:53:00.000Z","flightCategory":"VFR","latitude":63.9931,"longitude":-145.7214},"KGFL":{"rawOb":"METAR KGFL 260853Z AUTO 20003KT 10SM CLR 06/M03 A2989 RMK AO2 SLP127 T00611033 56025","observationTime":"2026-03-26T08:53:00.000Z","flightCategory":"VFR","latitude":43.3385,"longitude":-73.6102},"KGFK":{"rawOb":"METAR KGFK 260853Z AUTO 34019G27KT 10SM OVC007 M06/M07 A2996 RMK AO2 PK WND 34027/0801 SLP160 T10561072 51021","observationTime":"2026-03-26T08:53:00.000Z","flightCategory":"IFR","latitude":47.9428,"longitude":-97.1829},"KGEZ":{"rawOb":"METAR KGEZ 260853Z AUTO 24012KT 8SM -RA BKN100 OVC120 16/13 A2992 RMK AO2 RAB00 SLP127 P0001 60001 T01610133 53002","observationTime":"2026-03-26T08:53:00.000Z","flightCategory":"VFR","latitude":39.5855,"longitude":-85.7998},"KMIW":{"rawOb":"METAR KMIW 260853Z AUTO 00000KT 9SM CLR 10/07 A2968 RMK AO2 SLP047 T01000072 56018","observationTime":"2026-03-26T08:53:00.000Z","flightCategory":"VFR","latitude":42.1106,"longitude":-92.9163},"KMIE":{"rawOb":"METAR KMIE 260853Z AUTO 21005KT 10SM -RA FEW060 OVC100 16/10 A2988 RMK AO2 SLP113 P0001 60003 T01610100 56003","observationTime":"2026-03-26T08:53:00.000Z","flightCategory":"VFR","latitude":40.2345,"longitude":-85.3936},"KGEY":{"rawOb":"METAR KGEY 260853Z AUTO 30017G25KT 10SM CLR 09/00 A2982 RMK AO2 SLP074 T00890000 53010","observationTime":"2026-03-26T08:53:00.000Z","flightCategory":"VFR","latitude":44.5174,"longitude":-108.0752},"KGCC":{"rawOb":"METAR KGCC 260853Z AUTO 36013KT 10SM CLR 06/01 A2992 RMK AO2 SLP099 T00560011 51025","observationTime":"2026-03-26T08:53:00.000Z","flightCategory":"VFR","latitude":44.3398,"longitude":-105.5416},"KOSH":{"rawOb":"METAR KOSH 260853Z AUTO 19005KT 10SM CLR 11/06 A2968 RMK AO2 SLP045 T01060061 58021","observationTime":"2026-03-26T08:53:00.000Z","flightCategory":"VFR","latitude":43.9669,"longitude":-88.5582},"KGAG":{"rawOb":"METAR KGAG 260853Z AUTO 18015G24KT 10SM CLR 21/11 A2981 RMK AO2 PK WND 17028/0825 SLP061 T02110111 58006","observationTime":"2026-03-26T08:53:00.000Z","flightCategory":"VFR","latitude":36.2966,"longitude":-99.7686},"KFYV":{"rawOb":"METAR KFYV 260853Z AUTO 18007KT 10SM CLR 21/14 A2994 RMK AO2 SLP124 T02060139 58009","observationTime":"2026-03-26T08:53:00.000Z","flightCategory":"VFR","latitude":36.0103,"longitude":-94.1624},"KFXE":{"rawOb":"METAR KFXE 260853Z 00000KT 10SM CLR 19/19 A3007 RMK AO2 SLP184 T01890189 56014","observationTime":"2026-03-26T08:53:00.000Z","flightCategory":"VFR","latitude":26.199,"longitude":-80.1776},"KFVE":{"rawOb":"METAR KFVE 260853Z AUTO 10006KT 1 3/4SM -SN BR OVC022 M08/M11 A2993 RMK AO2 SNB00 SLP150 P0000 60000 T10831106 56045","observationTime":"2026-03-26T08:53:00.000Z","flightCategory":"IFR","latitude":47.2852,"longitude":-68.3072},"KFUL":{"rawOb":"METAR KFUL 260853Z AUTO 25003KT 5SM BR CLR 16/13 A2994 RMK AO2 SLP139 T01560133 55009 $","observationTime":"2026-03-26T08:53:00.000Z","flightCategory":"MVFR","latitude":33.8715,"longitude":-117.9856},"KFTY":{"rawOb":"METAR KFTY 260853Z AUTO 00000KT 10SM BKN065 12/09 A3017 RMK AO2 SLP211 T01220094 58006","observationTime":"2026-03-26T08:53:00.000Z","flightCategory":"VFR","latitude":33.7776,"longitude":-84.5246},"KLHX":{"rawOb":"METAR KLHX 260853Z AUTO 25015KT 10SM CLR 17/M01 A2979 RMK AO2 SLP024 T01671011 56013","observationTime":"2026-03-26T08:53:00.000Z","flightCategory":"VFR","latitude":38.0495,"longitude":-103.5134},"KMIC":{"rawOb":"METAR KMIC 260853Z AUTO 34011KT 10SM BKN100 BKN120 13/04 A2975 RMK AO2 SLP072 T01280044 52023","observationTime":"2026-03-26T08:53:00.000Z","flightCategory":"VFR","latitude":45.0623,"longitude":-93.3511},"KMIA":{"rawOb":"METAR KMIA 260853Z 35004KT 10SM SCT035 21/17 A3007 RMK AO2 SLP184 T02060167 56012 $","observationTime":"2026-03-26T08:53:00.000Z","flightCategory":"VFR","latitude":25.7881,"longitude":-80.3169},"PABE":{"rawOb":"METAR PABE 260853Z 30010KT 10SM CLR M15/M19 A3044 RMK AO2 SLP313 T11501189 410831161 51010","observationTime":"2026-03-26T08:53:00.000Z","flightCategory":"VFR","latitude":60.785,"longitude":-161.8293},"KMYR":{"rawOb":"METAR KMYR 260853Z AUTO 00000KT 10SM FEW035 12/11 A3020 RMK AO2 SLP224 T01170106 56012 $","observationTime":"2026-03-26T08:53:00.000Z","flightCategory":"VFR","latitude":33.6769,"longitude":-78.9325},"PAAQ":{"rawOb":"METAR PAAQ 260853Z AUTO VRB03KT 10SM CLR M07/M20 A3012 RMK AO2 SLP205 T10671200 410171089 51010 TSNO $","observationTime":"2026-03-26T08:53:00.000Z","flightCategory":"VFR","latitude":61.5951,"longitude":-149.0917},"KDVP":{"rawOb":"METAR KDVP 260853Z AUTO 02011G16KT 10SM 12/09 A2971 RMK AO2 T01220090","observationTime":"2026-03-26T08:53:00.000Z","flightCategory":"VFR","latitude":43.9905,"longitude":-95.781},"KELY":{"rawOb":"METAR KELY 260853Z AUTO 09003KT 10SM CLR 09/M09 A3009 RMK AO2 SLP098 T00941094 50010","observationTime":"2026-03-26T08:53:00.000Z","flightCategory":"VFR","latitude":39.2954,"longitude":-114.8466},"KMHT":{"rawOb":"METAR KMHT 260853Z 18007KT 10SM OVC100 04/02 A2998 RMK AO2 SLP167 60001 T00440017 56033","observationTime":"2026-03-26T08:53:00.000Z","flightCategory":"VFR","latitude":42.9245,"longitude":-71.4377},"KZZV":{"rawOb":"METAR KZZV 260853Z AUTO 20006KT 10SM SCT065 SCT080 13/06 A2992 RMK AO2 SLP129 T01330061 56009","observationTime":"2026-03-26T08:53:00.000Z","flightCategory":"VFR","latitude":39.9461,"longitude":-81.8932},"KDBQ":{"rawOb":"METAR KDBQ 260853Z AUTO 13004KT 9SM CLR 13/08 A2968 RMK AO2 SLP047 T01280078 58031","observationTime":"2026-03-26T08:53:00.000Z","flightCategory":"VFR","latitude":42.3984,"longitude":-90.7091},"KPIH":{"rawOb":"METAR KPIH 260853Z AUTO 21009KT 10SM CLR 11/02 A2994 RMK AO2 SLP102 T01060017 53014","observationTime":"2026-03-26T08:53:00.000Z","flightCategory":"VFR","latitude":42.9197,"longitude":-112.5723},"KMCI":{"rawOb":"METAR KMCI 260853Z 21013G22KT 10SM CLR 21/15 A2974 RMK AO2 SLP057 T02110150 58012 $","observationTime":"2026-03-26T08:53:00.000Z","flightCategory":"VFR","latitude":39.2975,"longitude":-94.7309},"KGRB":{"rawOb":"METAR KGRB 260853Z AUTO 05006KT 10SM CLR 03/01 A2972 RMK AO2 SLP067 T00330011 58011 $","observationTime":"2026-03-26T08:53:00.000Z","flightCategory":"VFR","latitude":44.4796,"longitude":-88.137},"KP68":{"rawOb":"METAR KP68 260853Z AUTO 18006KT 04/M12 A3009 RMK AO1 SLP122 T00441122 50004","observationTime":"2026-03-26T08:53:00.000Z","flightCategory":"null","latitude":39.602,"longitude":-116.006},"KVCB":{"rawOb":"METAR KVCB 260853Z AUTO 00000KT 10SM CLR 11/08 A3002 RMK AO2 SLP164 T01110083 53012","observationTime":"2026-03-26T08:53:00.000Z","flightCategory":"VFR","latitude":38.3775,"longitude":-121.9585},"KMGY":{"rawOb":"METAR KMGY 260853Z AUTO 20009KT 10SM CLR 15/09 A2991 RMK AO2 SLP125 T01500089 56010","observationTime":"2026-03-26T08:53:00.000Z","flightCategory":"VFR","latitude":39.5918,"longitude":-84.2263},"KMGW":{"rawOb":"METAR KMGW 260853Z AUTO 21007KT 10SM OVC060 17/M01 A2998 RMK AO2 SLP145 T01671006 55005","observationTime":"2026-03-26T08:53:00.000Z","flightCategory":"VFR","latitude":39.6498,"longitude":-79.9206},"KMGM":{"rawOb":"METAR KMGM 260853Z AUTO 00000KT 8SM CLR 14/13 A3014 RMK AO2 SLP204 T01440133 55004","observationTime":"2026-03-26T08:53:00.000Z","flightCategory":"VFR","latitude":32.2997,"longitude":-86.4074},"CYCA":{"rawOb":"SPECI CYCA 260853Z AUTO 33013G19KT 1 3/4SM -SN OVC026 M13/M16 A3000 RMK VIS VRB 1 1/2-2 1/2 SLP163","observationTime":"2026-03-26T08:53:00.000Z","flightCategory":"IFR","latitude":53.683,"longitude":-57.042},"KMFR":{"rawOb":"METAR KMFR 260853Z AUTO 32004KT 10SM BKN060 04/M01 A3036 RMK AO2 SLP283 T00441006 51019 $","observationTime":"2026-03-26T08:53:00.000Z","flightCategory":"VFR","latitude":42.375,"longitude":-122.877},"KMFE":{"rawOb":"METAR KMFE 260853Z 14010KT 10SM CLR 22/19 A3000 RMK AO2 SLP156 T02220189 56009 PWINO $","observationTime":"2026-03-26T08:53:00.000Z","flightCategory":"VFR","latitude":26.1791,"longitude":-98.2445},"KMDW":{"rawOb":"METAR KMDW 260853Z 19006KT 10SM BKN250 14/08 A2975 RMK AO2 SLP070 T01390078 58019","observationTime":"2026-03-26T08:53:00.000Z","flightCategory":"VFR","latitude":41.7841,"longitude":-87.7552},"KOMK":{"rawOb":"METAR KOMK 260853Z AUTO 31004KT 10SM CLR 02/M10 A3021 RMK AO2 SLP237 T00171100 51034","observationTime":"2026-03-26T08:53:00.000Z","flightCategory":"VFR","latitude":48.4611,"longitude":-119.5209},"KOLF":{"rawOb":"METAR KOLF 260853Z AUTO 04012KT 10SM SCT016 BKN120 M07/M11 A3013 RMK AO2 SLP217 T10721106 50020","observationTime":"2026-03-26T08:53:00.000Z","flightCategory":"VFR","latitude":48.0942,"longitude":-105.5784},"KMCW":{"rawOb":"METAR KMCW 260853Z AUTO 19003KT 10SM CLR 07/06 A2966 RMK AO2 SLP039 T00720056 56018","observationTime":"2026-03-26T08:53:00.000Z","flightCategory":"VFR","latitude":43.1543,"longitude":-93.3262},"KOJC":{"rawOb":"METAR KOJC 260853Z AUTO 21010G18KT 10SM CLR 21/15 A2977 RMK AO2 SLP069 T02110150 58010","observationTime":"2026-03-26T08:53:00.000Z","flightCategory":"VFR","latitude":38.85,"longitude":-94.7395},"KMCO":{"rawOb":"METAR KMCO 260853Z 36005KT 10SM FEW042 FEW060 18/18 A3011 RMK AO2 SLP194 T01830178 58004","observationTime":"2026-03-26T08:53:00.000Z","flightCategory":"VFR","latitude":28.4182,"longitude":-81.3241},"KOGD":{"rawOb":"METAR KOGD 260853Z AUTO 33004KT 10SM CLR 15/02 A2992 RMK AO2 SLP080 60000 T01500022 51009","observationTime":"2026-03-26T08:53:00.000Z","flightCategory":"VFR","latitude":41.1941,"longitude":-112.0168},"KMCN":{"rawOb":"METAR KMCN 260853Z AUTO 00000KT 7SM CLR 09/08 A3017 RMK AO2 SLP216 T00890083 58006","observationTime":"2026-03-26T08:53:00.000Z","flightCategory":"VFR","latitude":32.6889,"longitude":-83.6529},"KRME":{"rawOb":"METAR KRME 260853Z AUTO VRB04KT 10SM OVC085 09/M01 A2984 RMK AO2 SLP106 T00941006 56024","observationTime":"2026-03-26T08:53:00.000Z","flightCategory":"VFR","latitude":43.2242,"longitude":-75.3956},"KMCK":{"rawOb":"METAR KMCK 260853Z AUTO 02005KT 10SM CLR 15/03 A2968 RMK AO2 SLP021 T01500033 58016","observationTime":"2026-03-26T08:53:00.000Z","flightCategory":"VFR","latitude":40.204,"longitude":-100.5904},"KRKP":{"rawOb":"METAR KRKP 260853Z AUTO 16011KT 8SM SCT012 22/20 A3002 RMK AO2 SLP166 T02170200 58008","observationTime":"2026-03-26T08:53:00.000Z","flightCategory":"VFR","latitude":28.0837,"longitude":-97.0467},"KRIW":{"rawOb":"METAR KRIW 260853Z AUTO 22003KT 10SM CLR 11/M08 A2986 RMK AO2 SLP049 T01111078 50003","observationTime":"2026-03-26T08:53:00.000Z","flightCategory":"VFR","latitude":43.0622,"longitude":-108.4471},"KRIL":{"rawOb":"METAR KRIL 260853Z AUTO 00000KT 10SM CLR 11/M01 A2998 RMK AO2 SLP087 T01061011 53001","observationTime":"2026-03-26T08:53:00.000Z","flightCategory":"VFR","latitude":39.5279,"longitude":-107.7197},"KLAA":{"rawOb":"METAR KLAA 260853Z AUTO 00000KT 10SM CLR 10/03 A2975 RMK AO2 SLP028 T01000033 58019 $","observationTime":"2026-03-26T08:53:00.000Z","flightCategory":"VFR","latitude":38.0718,"longitude":-102.6875},"KJLN":{"rawOb":"METAR KJLN 260853Z AUTO 20014G22KT 10SM CLR 21/14 A2987 RMK AO2 SLP104 T02110144 58008","observationTime":"2026-03-26T08:53:00.000Z","flightCategory":"VFR","latitude":37.1522,"longitude":-94.4952},"KJKL":{"rawOb":"METAR KJKL 260853Z AUTO 21006KT 10SM SCT110 16/08 A3005 RMK AO2 SLP164 T01560078 58007 $","observationTime":"2026-03-26T08:53:00.000Z","flightCategory":"VFR","latitude":37.5913,"longitude":-83.3137},"KXNA":{"rawOb":"METAR KXNA 260853Z AUTO 20006KT 10SM CLR 19/13 A2994 RMK AO2 SLP124 T01940133 58008","observationTime":"2026-03-26T08:53:00.000Z","flightCategory":"VFR","latitude":36.2897,"longitude":-94.3115},"KJER":{"rawOb":"METAR KJER 260853Z AUTO 26017G25KT 10SM SCT095 08/02 A3001 RMK AO2 PK WND 27031/0807 SLP140 T00780022 53026","observationTime":"2026-03-26T08:53:00.000Z","flightCategory":"VFR","latitude":42.7274,"longitude":-114.4547},"KMCE":{"rawOb":"METAR KMCE 260853Z AUTO 31006KT 10SM CLR 15/11 A3000 RMK AO2 SLP158 T01500106 50006","observationTime":"2026-03-26T08:53:00.000Z","flightCategory":"VFR","latitude":37.286,"longitude":-120.5179},"KJEF":{"rawOb":"METAR KJEF 260853Z AUTO 21005KT 10SM CLR 23/14 A2979 RMK AO2 SLP074 T02330144 58010","observationTime":"2026-03-26T08:53:00.000Z","flightCategory":"VFR","latitude":38.5945,"longitude":-92.1567},"KJBR":{"rawOb":"METAR KJBR 260853Z AUTO 21007KT 10SM CLR 18/13 A2997 RMK AO2 SLP144 T01830128 58006 $","observationTime":"2026-03-26T08:53:00.000Z","flightCategory":"VFR","latitude":35.8357,"longitude":-90.6442},"KIXD":{"rawOb":"METAR KIXD 260853Z AUTO 20018G29KT 10SM CLR 21/15 A2978 RMK AO2 PK WND 20032/0814 SLP071 T02110150 58010 $","observationTime":"2026-03-26T08:53:00.000Z","flightCategory":"VFR","latitude":38.8221,"longitude":-94.8902},"KIWI":{"rawOb":"METAR KIWI 260853Z AUTO 20006KT 10SM OVC012 04/02 A3002 RMK AO2 SLP167 60010 T00390022 56036","observationTime":"2026-03-26T08:53:00.000Z","flightCategory":"MVFR","latitude":43.9639,"longitude":-69.7114},"KITR":{"rawOb":"METAR KITR 260853Z AUTO 22010KT 10SM CLR 16/04 A2977 RMK AO2 SLP022 T01560039 57022","observationTime":"2026-03-26T08:53:00.000Z","flightCategory":"VFR","latitude":39.2415,"longitude":-102.2819},"KIPL":{"rawOb":"METAR KIPL 260853Z AUTO 27014KT 10SM CLR 26/M03 A2980 RMK AO2 SLP091 T02561028 50002","observationTime":"2026-03-26T08:53:00.000Z","flightCategory":"VFR","latitude":32.8346,"longitude":-115.5766},"KIML":{"rawOb":"METAR KIML 260853Z AUTO 00000KT 10SM CLR 14/01 A2971 RMK AO2 SLP027 T01390006 58010","observationTime":"2026-03-26T08:53:00.000Z","flightCategory":"VFR","latitude":40.5106,"longitude":-101.6243},"KILM":{"rawOb":"METAR KILM 260853Z 00000KT 10SM SCT055 11/10 A3019 RMK AO2 SLP221 T01110100 55009","observationTime":"2026-03-26T08:53:00.000Z","flightCategory":"VFR","latitude":34.2668,"longitude":-77.8999},"KIDA":{"rawOb":"METAR KIDA 260853Z AUTO 22013KT 10SM CLR 09/01 A2991 RMK AO2 SLP098 T00940006 53004","observationTime":"2026-03-26T08:53:00.000Z","flightCategory":"VFR","latitude":43.5204,"longitude":-112.0675},"KMCB":{"rawOb":"METAR KMCB 260853Z AUTO 17004KT 6SM BR OVC007 19/18 A3010 RMK AO2 SLP189 T01940178 57006","observationTime":"2026-03-26T08:53:00.000Z","flightCategory":"IFR","latitude":31.1823,"longitude":-90.4721},"KAQW":{"rawOb":"METAR KAQW 260852Z AUTO 12008KT 10SM -RA BKN050 OVC090 06/M02 A2995 RMK AO2 RAB41 SLP147 P0000 60000 T00561022 56020","observationTime":"2026-03-26T08:52:00.000Z","flightCategory":"VFR","latitude":42.6973,"longitude":-73.1696},"KABQ":{"rawOb":"METAR KABQ 260852Z 13007KT 10SM CLR 18/M03 A3005 RMK AO2 SLP087 T01781033 51005 $","observationTime":"2026-03-26T08:52:00.000Z","flightCategory":"VFR","latitude":35.0419,"longitude":-106.6154},"KMEB":{"rawOb":"METAR KMEB 260852Z AUTO 00000KT 10SM BKN055 11/11 A3019 RMK AO2 SLP221 T01110106 $","observationTime":"2026-03-26T08:52:00.000Z","flightCategory":"VFR","latitude":34.7913,"longitude":-79.3683},"KBDR":{"rawOb":"METAR KBDR 260852Z AUTO 23004KT 10SM OVC100 06/04 A3001 RMK AO2 SLP162 T00610044 56035","observationTime":"2026-03-26T08:52:00.000Z","flightCategory":"VFR","latitude":41.1642,"longitude":-73.1266},"KBIS":{"rawOb":"METAR KBIS 260852Z AUTO 35013G22KT 10SM OVC009 M01/M04 A3001 RMK AO2 PK WND 33029/0813 UPB19E33 SLP167 P0000 60000 T10111039 53027","observationTime":"2026-03-26T08:52:00.000Z","flightCategory":"IFR","latitude":46.7823,"longitude":-100.7575},"KDDC":{"rawOb":"METAR KDDC 260852Z AUTO 16012KT 7SM CLR 17/11 A2977 RMK AO2 SLP048 T01670106 58017 TSNO","observationTime":"2026-03-26T08:52:00.000Z","flightCategory":"VFR","latitude":37.7711,"longitude":-99.9692},"KDCA":{"rawOb":"METAR KDCA 260852Z 21006KT 10SM BKN100 BKN250 12/03 A3003 RMK AO2 SLP168 T01170028 56023","observationTime":"2026-03-26T08:52:00.000Z","flightCategory":"VFR","latitude":38.8472,"longitude":-77.0345},"KBLF":{"rawOb":"METAR KBLF 260852Z AUTO 22003KT 10SM FEW039 FEW048 12/06 A3011 RMK AO2 SLP176 T01170056 58003 $","observationTime":"2026-03-26T08:52:00.000Z","flightCategory":"VFR","latitude":37.2978,"longitude":-81.2036},"KCVG":{"rawOb":"METAR KCVG 260852Z 21011KT 9SM BKN120 OVC200 17/10 A2993 RMK AO2 SLP128 T01720100 56010 $","observationTime":"2026-03-26T08:52:00.000Z","flightCategory":"VFR","latitude":39.0444,"longitude":-84.6724},"KBML":{"rawOb":"METAR KBML 260852Z AUTO 00000KT 10SM OVC030 01/M02 A2988 RMK AO2 SLP130 60000 T00111022 56027","observationTime":"2026-03-26T08:52:00.000Z","flightCategory":"MVFR","latitude":44.576,"longitude":-71.1782},"KSPI":{"rawOb":"METAR KSPI 260852Z AUTO 20010KT 10SM CLR 19/12 A2977 RMK AO2 SLP077 T01890117 58009","observationTime":"2026-03-26T08:52:00.000Z","flightCategory":"VFR","latitude":39.8453,"longitude":-89.684},"KCFV":{"rawOb":"METAR KCFV 260852Z AUTO 18009KT 10SM CLR 20/16 A2984 RMK AO2 SLP097 T02000156 58008","observationTime":"2026-03-26T08:52:00.000Z","flightCategory":"VFR","latitude":37.0912,"longitude":-95.5726},"KCQX":{"rawOb":"METAR KCQX 260852Z AUTO 20008G15KT 10SM SCT039 BKN055 BKN070 07/06 A3005 RMK AO2 RAB0756E06 SLP179 P0000 60000 T00670056 56045","observationTime":"2026-03-26T08:52:00.000Z","flightCategory":"VFR","latitude":41.6878,"longitude":-69.9932},"KCNU":{"rawOb":"METAR KCNU 260852Z AUTO 18008KT 10SM CLR 19/16 A2984 RMK AO2 SLP092 T01940156 56006 $","observationTime":"2026-03-26T08:52:00.000Z","flightCategory":"VFR","latitude":37.6705,"longitude":-95.4846},"KCKV":{"rawOb":"METAR KCKV 260852Z AUTO 19009KT 10SM CLR 19/13 A2999 RMK AO2 SLP151 T01890128 58009","observationTime":"2026-03-26T08:52:00.000Z","flightCategory":"VFR","latitude":36.6169,"longitude":-87.4117},"KCLT":{"rawOb":"METAR KCLT 260852Z 23004KT 10SM BKN085 14/08 A3017 RMK AO2 SLP227 T01440078 56005 $","observationTime":"2026-03-26T08:52:00.000Z","flightCategory":"VFR","latitude":35.2225,"longitude":-80.9543},"KAND":{"rawOb":"SPECI KAND 260852Z AUTO 00000KT 10SM BKN023 OVC029 13/08 A3019 RMK AO2","observationTime":"2026-03-26T08:52:00.000Z","flightCategory":"MVFR","latitude":34.498,"longitude":-82.7092},"KP69":{"rawOb":"METAR KP69 260852Z AUTO VRB03KT 06/06 A3023 RMK AO1 SLP245 P0001 60002 T00560056 53029","observationTime":"2026-03-26T08:52:00.000Z","flightCategory":"null","latitude":46.144,"longitude":-115.597},"KTRM":{"rawOb":"METAR KTRM 260852Z AUTO 28007KT 10SM CLR 25/00 A2979 RMK AO2 SLP089 T02500000 51004 TSNO","observationTime":"2026-03-26T08:52:00.000Z","flightCategory":"VFR","latitude":33.6317,"longitude":-116.1641},"KNHK":{"rawOb":"METAR KNHK 260852Z AUTO 21010G21KT 10SM FEW110 13/08 A3006 RMK AO2 SLP180 T01280083 56021 $","observationTime":"2026-03-26T08:52:00.000Z","flightCategory":"VFR","latitude":38.284,"longitude":-76.408},"KNRB":{"rawOb":"METAR KNRB 260852Z AUTO 36005KT 4SM BR FEW002 BKN007 16/16 A3014 RMK AO2 SLP205 T01610156 56015","observationTime":"2026-03-26T08:52:00.000Z","flightCategory":"IFR","latitude":30.396,"longitude":-81.423},"PATA":{"rawOb":"METAR PATA 260852Z AUTO 01005KT 10SM CLR M24/M27 A3046 RMK AO2 SLP325 T12441272 410671256 51004 TSNO $","observationTime":"2026-03-26T08:52:00.000Z","flightCategory":"VFR","latitude":65.173,"longitude":-152.107},"KVTN":{"rawOb":"METAR KVTN 260852Z AUTO 02019G26KT 10SM FEW055 SCT095 SCT120 13/00 A2974 RMK AO2 PK WND 02026/0841 SLP052 T01330000 53034 TSNO","observationTime":"2026-03-26T08:52:00.000Z","flightCategory":"VFR","latitude":42.8585,"longitude":-100.5514},"KTAN":{"rawOb":"METAR KTAN 260852Z AUTO 20006KT 10SM SCT050 OVC110 07/04 A3002 RMK AO2 SLP166 60001 T00720044 56042","observationTime":"2026-03-26T08:52:00.000Z","flightCategory":"VFR","latitude":41.8756,"longitude":-71.0208},"KSUX":{"rawOb":"METAR KSUX 260852Z AUTO 11010KT 10SM CLR 13/07 A2960 RMK AO2 SLP018 T01280067 58020","observationTime":"2026-03-26T08:52:00.000Z","flightCategory":"VFR","latitude":42.3917,"longitude":-96.3795},"KSPS":{"rawOb":"METAR KSPS 260852Z 18006KT 10SM CLR 18/14 A2988 RMK AO2 SLP105 T01780139 58008","observationTime":"2026-03-26T08:52:00.000Z","flightCategory":"VFR","latitude":33.9785,"longitude":-98.493},"KSGF":{"rawOb":"METAR KSGF 260852Z 21012KT 10SM CLR 19/14 A2988 RMK AO2 SLP107 T01940139 58009","observationTime":"2026-03-26T08:52:00.000Z","flightCategory":"VFR","latitude":37.2398,"longitude":-93.3899},"KRAP":{"rawOb":"METAR KRAP 260852Z AUTO 35013KT 10SM CLR 09/02 A2986 RMK AO2 SLP096 T00890022 51011","observationTime":"2026-03-26T08:52:00.000Z","flightCategory":"VFR","latitude":44.0458,"longitude":-103.0544},"KPYM":{"rawOb":"METAR KPYM 260852Z AUTO 19006KT 10SM BKN050 OVC110 06/04 A3002 RMK AO2 SLP168 60001 T00610039 56041 $","observationTime":"2026-03-26T08:52:00.000Z","flightCategory":"VFR","latitude":41.9085,"longitude":-70.7278},"KPWK":{"rawOb":"METAR KPWK 260852Z AUTO 18003KT 10SM FEW060 SCT080 BKN110 08/06 A2975 RMK AO2 SLP074 T00830056 58019","observationTime":"2026-03-26T08:52:00.000Z","flightCategory":"VFR","latitude":42.1208,"longitude":-87.9048},"KPPF":{"rawOb":"METAR KPPF 260852Z AUTO 19011KT 10SM CLR 20/16 A2984 RMK AO2 SLP094 T02000156 58010 TSNO","observationTime":"2026-03-26T08:52:00.000Z","flightCategory":"VFR","latitude":37.3281,"longitude":-95.5045},"KORE":{"rawOb":"METAR KORE 260852Z AUTO 18005KT 10SM FEW055 SCT075 OVC100 04/02 A2999 RMK AO2 RAB35E44 SLP159 P0000 60000 T00440017 56011","observationTime":"2026-03-26T08:52:00.000Z","flightCategory":"VFR","latitude":42.57,"longitude":-72.287},"KOMA":{"rawOb":"METAR KOMA 260852Z 16009KT 10SM FEW190 BKN220 16/09 A2965 RMK AO2 SLP033 T01560089 58015","observationTime":"2026-03-26T08:52:00.000Z","flightCategory":"VFR","latitude":41.3119,"longitude":-95.9018},"KNFG":{"rawOb":"METAR KNFG 260852Z AUTO 02003KT 3SM BR OVC003 15/14 A2995 RMK AO2 SLP141 T01500144 58008 $","observationTime":"2026-03-26T08:52:00.000Z","flightCategory":"LIFR","latitude":33.304,"longitude":-117.355},"KNFW":{"rawOb":"METAR KNFW 260852Z AUTO 18012KT 10SM CLR 21/16 A2996 RMK AO2 SLP127 T02060161 57005 $","observationTime":"2026-03-26T08:52:00.000Z","flightCategory":"VFR","latitude":32.781,"longitude":-97.436},"KABI":{"rawOb":"METAR KABI 260852Z 17009KT 10SM CLR 21/13 A2995 RMK AO2 SLP115 T02060128 56006 $","observationTime":"2026-03-26T08:52:00.000Z","flightCategory":"VFR","latitude":32.4106,"longitude":-99.6821},"KBAN":{"rawOb":"METAR KBAN 260852Z AUTO 10SM CLR 03/M08 A3019 RMK AO2 SLP146 T00331078 51003 PWINO $","observationTime":"2026-03-26T08:52:00.000Z","flightCategory":"VFR","latitude":38.355,"longitude":-119.522},"KOKC":{"rawOb":"METAR KOKC 260852Z 18009KT 10SM CLR 19/15 A2988 RMK AO2 SLP103 T01890150 58007","observationTime":"2026-03-26T08:52:00.000Z","flightCategory":"VFR","latitude":35.3843,"longitude":-97.6003},"KOKB":{"rawOb":"METAR KOKB 260852Z AUTO 00000KT 6SM BR OVC006 16/14 A2994 RMK AO2 SLP139 T01560144 58008","observationTime":"2026-03-26T08:52:00.000Z","flightCategory":"IFR","latitude":33.2195,"longitude":-117.3496},"KMWH":{"rawOb":"METAR KMWH 260852Z AUTO 25009KT 10SM CLR 02/M04 A3026 RMK AO2 SLP253 T00221044 51035","observationTime":"2026-03-26T08:52:00.000Z","flightCategory":"VFR","latitude":47.193,"longitude":-119.3146},"KMLF":{"rawOb":"METAR KMLF 260852Z AUTO 00000KT 10SM CLR 13/M02 A2999 RMK AO2 SLP092 T01331022 53001","observationTime":"2026-03-26T08:52:00.000Z","flightCategory":"VFR","latitude":38.4225,"longitude":-113.0109},"KMKE":{"rawOb":"METAR KMKE 260852Z 18003KT 10SM SCT150 09/06 A2972 RMK AO2 SLP065 T00940056 56017 $","observationTime":"2026-03-26T08:52:00.000Z","flightCategory":"VFR","latitude":42.9549,"longitude":-87.9045},"KMHK":{"rawOb":"METAR KMHK 260852Z AUTO 22015G22KT 10SM CLR 22/15 A2971 RMK AO2 SLP047 T02220150 58012","observationTime":"2026-03-26T08:52:00.000Z","flightCategory":"VFR","latitude":39.1346,"longitude":-96.6789},"KAFN":{"rawOb":"METAR KAFN 260852Z AUTO 22007KT 10SM FEW016 BKN075 OVC100 04/01 A2997 RMK AO2 SLP159 60000 T00390006 56028","observationTime":"2026-03-26T08:52:00.000Z","flightCategory":"VFR","latitude":42.8067,"longitude":-72.0013},"KMDH":{"rawOb":"METAR KMDH 260852Z AUTO 20012KT 10SM CLR 21/13 A2988 RMK AO2 SLP116 T02060133 56014","observationTime":"2026-03-26T08:52:00.000Z","flightCategory":"VFR","latitude":37.7833,"longitude":-89.2453},"KLWC":{"rawOb":"METAR KLWC 260852Z AUTO 21012G20KT 10SM CLR 22/16 A2975 RMK AO1 SLP063 T02220156 58012","observationTime":"2026-03-26T08:52:00.000Z","flightCategory":"VFR","latitude":39.0078,"longitude":-95.2115},"KNZY":{"rawOb":"METAR KNZY 260852Z VRB03KT 9SM OVC011 17/14 A2996 RMK AO2 SLP143 T01670144 58002","observationTime":"2026-03-26T08:52:00.000Z","flightCategory":"MVFR","latitude":32.6922,"longitude":-117.2098},"KIOW":{"rawOb":"METAR KIOW 260852Z AUTO 26004KT 8SM CLR 09/07 A2969 RMK AO2 SLP054 T00940067 56023 $","observationTime":"2026-03-26T08:52:00.000Z","flightCategory":"VFR","latitude":41.6394,"longitude":-91.5446},"KIJD":{"rawOb":"METAR KIJD 260852Z AUTO 18004KT 10SM OVC100 05/04 A3001 RMK AO2 SLP163 T00500039 56039","observationTime":"2026-03-26T08:52:00.000Z","flightCategory":"VFR","latitude":41.7425,"longitude":-72.1825},"KIEN":{"rawOb":"METAR KIEN 260852Z AUTO 05009G15KT 10SM CLR 11/01 A2983 RMK AO2 SLP075 T01060006 52027","observationTime":"2026-03-26T08:52:00.000Z","flightCategory":"VFR","latitude":43.0262,"longitude":-102.52},"KIAD":{"rawOb":"METAR KIAD 260852Z 19008KT 10SM SCT100 11/02 A3002 RMK AO2 SLP164 T01060017 55016","observationTime":"2026-03-26T08:52:00.000Z","flightCategory":"VFR","latitude":38.9348,"longitude":-77.4473},"KHUT":{"rawOb":"METAR KHUT 260852Z AUTO A2977 RMK AO2 SLPNO 58013 PWINO FZRANO","observationTime":"2026-03-26T08:52:00.000Z","flightCategory":"null","latitude":38.0682,"longitude":-97.8607},"KHRL":{"rawOb":"METAR KHRL 260852Z AUTO 14007KT 10SM FEW028 19/18 A3000 RMK AO2 SLP159 T01940183 56007 $","observationTime":"2026-03-26T08:52:00.000Z","flightCategory":"VFR","latitude":26.2303,"longitude":-97.6556},"KHIE":{"rawOb":"METAR KHIE 260852Z AUTO 00000KT 10SM SCT042 OVC065 02/M02 A2989 RMK AO2 SLP131 T00171017 56024","observationTime":"2026-03-26T08:52:00.000Z","flightCategory":"VFR","latitude":44.3659,"longitude":-71.5522},"KALS":{"rawOb":"METAR KALS 260852Z AUTO 26008KT 10SM CLR 04/M06 A3014 RMK AO2 SLP122 T00441056 50000","observationTime":"2026-03-26T08:52:00.000Z","flightCategory":"VFR","latitude":37.4393,"longitude":-105.8618},"KGLS":{"rawOb":"METAR KGLS 260852Z AUTO 17008KT 10SM CLR 21/19 A3007 RMK AO1 SLP181 T02110194 56006","observationTime":"2026-03-26T08:52:00.000Z","flightCategory":"VFR","latitude":29.2704,"longitude":-94.8642},"KFIT":{"rawOb":"METAR KFIT 260852Z AUTO 13004KT 10SM -RA FEW050 BKN090 OVC110 04/03 A2999 RMK AO2 RAB02 SLP159 P0000 60000 T00440028 56039","observationTime":"2026-03-26T08:52:00.000Z","flightCategory":"VFR","latitude":42.5549,"longitude":-71.757},"KEST":{"rawOb":"METAR KEST 260852Z AUTO 00000KT 9SM CLR 10/05 A2966 RMK AO2 SLP041 T01000050 58005","observationTime":"2026-03-26T08:52:00.000Z","flightCategory":"VFR","latitude":43.4008,"longitude":-94.7476},"KMFD":{"rawOb":"METAR KMFD 260852Z AUTO 21008KT 10SM CLR 14/07 A2990 RMK AO2 SLP123 T01390067 55005 $","observationTime":"2026-03-26T08:52:00.000Z","flightCategory":"VFR","latitude":40.8204,"longitude":-82.5177},"KDVN":{"rawOb":"METAR KDVN 260852Z AUTO 13010KT 10SM CLR 13/08 A2965 RMK AO2 PRESFR SLP035 T01280083 58037","observationTime":"2026-03-26T08:52:00.000Z","flightCategory":"VFR","latitude":41.6133,"longitude":-90.5948},"KATL":{"rawOb":"METAR KATL 260852Z 10004KT 10SM BKN065 BKN250 13/09 A3017 RMK AO2 SLP215 T01330094 58004 $","observationTime":"2026-03-26T08:52:00.000Z","flightCategory":"VFR","latitude":33.6297,"longitude":-84.4422},"KDPA":{"rawOb":"METAR KDPA 260852Z 17004KT 10SM CLR 11/07 A2974 RMK AO2 SLP069 T01110072 58019","observationTime":"2026-03-26T08:52:00.000Z","flightCategory":"VFR","latitude":41.8964,"longitude":-88.2512},"CYDB":{"rawOb":"SPECI CYDB 260852Z AUTO 29005KT 5SM -SN OVC038 M16/M19 A3017 RMK SLP298","observationTime":"2026-03-26T08:52:00.000Z","flightCategory":"MVFR","latitude":61.37,"longitude":-139.032},"EEEI":{"rawOb":"SPECI EEEI 260852Z 19016G27KT 9999 FEW030 08/01 Q0998","observationTime":"2026-03-26T08:52:00.000Z","flightCategory":"VFR","latitude":59.26,"longitude":24.209},"CYRQ":{"rawOb":"SPECI CYRQ 260852Z AUTO 03004KT 1 3/4SM -SN OVC010 M06/M06 A2984 RMK SLP112","observationTime":"2026-03-26T08:52:00.000Z","flightCategory":"IFR","latitude":46.358,"longitude":-72.68},"KREO":{"rawOb":"METAR KREO 260852Z AUTO 04007KT 05/M05 A3016 RMK AO1 SLP194 T00501050 51037","observationTime":"2026-03-26T08:52:00.000Z","flightCategory":"null","latitude":42.5902,"longitude":-117.8646},"UWKE":{"rawOb":"SPECI UWKE 260852Z 04003MPS 0700 0600SE R21/0900U FG VV002 03/03 Q1019 R21/190050 NOSIG RMK OBST OBSC QFE748/0997","observationTime":"2026-03-26T08:52:00.000Z","flightCategory":"LIFR","latitude":55.566,"longitude":52.1},"KCID":{"rawOb":"METAR KCID 260852Z AUTO 21003KT 6SM HZ CLR 11/08 A2967 RMK AO2 SLP046 T01110078 55024 $","observationTime":"2026-03-26T08:52:00.000Z","flightCategory":"VFR","latitude":41.8829,"longitude":-91.7246},"KBLH":{"rawOb":"METAR KBLH 260852Z AUTO 09007KT 10SM CLR 22/03 A2981 RMK AO2 SLP088 T02220028 53008 PWINO $","observationTime":"2026-03-26T08:52:00.000Z","flightCategory":"VFR","latitude":33.6188,"longitude":-114.7145},"KARR":{"rawOb":"METAR KARR 260852Z AUTO 14003KT 7SM CLR 09/07 A2974 RMK AO2 SLP069 T00890067 58019","observationTime":"2026-03-26T08:52:00.000Z","flightCategory":"VFR","latitude":41.7713,"longitude":-88.4815},"KGFA":{"rawOb":"SPECI KGFA 260852Z 36011KT 10SM SCT007 BKN017 OVC100 M03/M05 A3001 RMK AO2A SNB05E27 CIG 017V100 BKN V SCT SLP181 $","observationTime":"2026-03-26T08:52:00.000Z","flightCategory":"MVFR","latitude":47.505,"longitude":-111.187},"KMLI":{"rawOb":"METAR KMLI 260852Z AUTO 11007KT 10SM CLR 12/08 A2965 RMK AO2 PRESFR SLP037 T01170078 58037","observationTime":"2026-03-26T08:52:00.000Z","flightCategory":"VFR","latitude":41.4482,"longitude":-90.5237},"KMBG":{"rawOb":"METAR KMBG 260852Z AUTO 36018G25KT 10SM OVC100 07/03 A2985 RMK AO2 PK WND 01037/0753 SLP105 T00670028 53030","observationTime":"2026-03-26T08:52:00.000Z","flightCategory":"VFR","latitude":45.543,"longitude":-100.404},"CYYB":{"rawOb":"SPECI CYYB 260852Z AUTO 34003KT 3SM BR BKN017 M05/M06 A2969 RMK VIS VRB 1 1/2-3 SLP079","observationTime":"2026-03-26T08:52:00.000Z","flightCategory":"MVFR","latitude":46.365,"longitude":-79.423},"KBLU":{"rawOb":"METAR KBLU 260852Z AUTO 00000KT 10SM CLR 09/03 A3018 RMK AO2 SLP160 T00940033 51004 $","observationTime":"2026-03-26T08:52:00.000Z","flightCategory":"VFR","latitude":39.2762,"longitude":-120.7093},"KTOL":{"rawOb":"METAR KTOL 260852Z 22010KT 10SM CLR 12/05 A2984 RMK AO2 SLP103 T01220050 56006","observationTime":"2026-03-26T08:52:00.000Z","flightCategory":"VFR","latitude":41.587,"longitude":-83.8054},"KACT":{"rawOb":"METAR KACT 260851Z AUTO 18010KT 10SM SCT016 19/17 A2999 RMK AO2 SLP149 T01940167 58003","observationTime":"2026-03-26T08:51:00.000Z","flightCategory":"VFR","latitude":31.618,"longitude":-97.2283},"KAQV":{"rawOb":"SPECI KAQV 260851Z AUTO VRB03KT 2 1/2SM BR OVC003 18/17 A3007 RMK AO2 T01780167","observationTime":"2026-03-26T08:51:00.000Z","flightCategory":"LIFR","latitude":31.396,"longitude":-93.297},"EKSB":{"rawOb":"METAR EKSB 260851Z 27014KT 9999 BKN040 05/M03 Q1006","observationTime":"2026-03-26T08:51:00.000Z","flightCategory":"VFR","latitude":54.962,"longitude":9.787},"MUGM":{"rawOb":"METAR MUGM 260851Z 32003KT 10SM BKN250 22/19 A2995 RMK AO2 SLP143 T02220189 56016 $","observationTime":"2026-03-26T08:51:00.000Z","flightCategory":"VFR","latitude":19.909,"longitude":-75.206},"KNJM":{"rawOb":"METAR KNJM 260851Z AUTO 00000KT 9SM OVC055 13/11 A3020 RMK AO2 SLP230 T01330111 55006 $","observationTime":"2026-03-26T08:51:00.000Z","flightCategory":"VFR","latitude":34.694,"longitude":-77.029},"KNBT":{"rawOb":"METAR KNBT 260851Z AUTO 26003KT 10SM BKN060 12/12 A3019 RMK AO2 SLP229 T01220117 55004","observationTime":"2026-03-26T08:51:00.000Z","flightCategory":"VFR","latitude":35.022,"longitude":-76.463},"KUGN":{"rawOb":"METAR KUGN 260851Z AUTO 24006KT 10SM CLR 12/06 A2974 RMK AO2 SLP065 T01170061 58017","observationTime":"2026-03-26T08:51:00.000Z","flightCategory":"VFR","latitude":42.4255,"longitude":-87.8634},"KTEB":{"rawOb":"METAR KTEB 260851Z 20006KT 10SM OVC090 08/03 A3000 RMK AO2 SLP158 T00830028 56026","observationTime":"2026-03-26T08:51:00.000Z","flightCategory":"VFR","latitude":40.859,"longitude":-74.0562},"KJCT":{"rawOb":"METAR KJCT 260851Z AUTO VRB05KT 10SM FEW015 27/18 A3000 RMK AO2 SLP113 T02720178 58003 $","observationTime":"2026-03-26T08:51:00.000Z","flightCategory":"VFR","latitude":30.5105,"longitude":-99.7665},"KNYC":{"rawOb":"METAR KNYC 260851Z AUTO 10SM OVC090 09/04 A3002 RMK AO2 SLP159 T00940039 56028 $","observationTime":"2026-03-26T08:51:00.000Z","flightCategory":"VFR","latitude":40.779,"longitude":-73.9692},"KPVD":{"rawOb":"METAR KPVD 260851Z 18008KT 10SM SCT047 OVC110 06/04 A3003 RMK AO2 SLP171 60002 T00610044 56035 $","observationTime":"2026-03-26T08:51:00.000Z","flightCategory":"VFR","latitude":41.7225,"longitude":-71.4325},"KPIT":{"rawOb":"METAR KPIT 260851Z 22005KT 10SM FEW075 SCT100 15/04 A2991 RMK AO2 SLP134 T01500044 56005","observationTime":"2026-03-26T08:51:00.000Z","flightCategory":"VFR","latitude":40.4814,"longitude":-80.2083},"KORF":{"rawOb":"METAR KORF 260851Z 21010KT 10SM FEW055 OVC100 13/09 A3015 RMK AO2 SLP208 T01330089 58008","observationTime":"2026-03-26T08:51:00.000Z","flightCategory":"VFR","latitude":36.9037,"longitude":-76.1927},"KORD":{"rawOb":"METAR KORD 260851Z 00000KT 10SM SCT250 12/07 A2974 RMK AO2 SLP069 T01220067 58018","observationTime":"2026-03-26T08:51:00.000Z","flightCategory":"VFR","latitude":41.9602,"longitude":-87.9316},"KMPV":{"rawOb":"METAR KMPV 260851Z AUTO VRB03KT 10SM BKN080 BKN100 02/M01 A2991 RMK AO2 SLP140 60003 T00221006 58026","observationTime":"2026-03-26T08:51:00.000Z","flightCategory":"VFR","latitude":44.205,"longitude":-72.5654},"K6R6":{"rawOb":"METAR K6R6 260851Z AUTO 05008KT 19/09 A2995 RMK AO1 SLP107 T01940089 58003","observationTime":"2026-03-26T08:51:00.000Z","flightCategory":"null","latitude":30.0482,"longitude":-102.2127},"KJFK":{"rawOb":"METAR KJFK 260851Z 17010KT 10SM FEW075 OVC100 07/05 A3003 RMK AO2 SLP169 60000 T00670050 56031 $","observationTime":"2026-03-26T08:51:00.000Z","flightCategory":"VFR","latitude":40.6392,"longitude":-73.7639},"KILG":{"rawOb":"METAR KILG 260851Z AUTO 17005KT 10SM BKN110 08/05 A3003 RMK AO2 SLP168 T00830050 56026 $","observationTime":"2026-03-26T08:51:00.000Z","flightCategory":"VFR","latitude":39.6744,"longitude":-75.6057},"PTYA":{"rawOb":"METAR PTYA 260851Z VRB06KT 12SM FEW016 SCT130 BKN300 29/26 A2974 RMK SLP071 8/171 T02860261 53008","observationTime":"2026-03-26T08:51:00.000Z","flightCategory":"VFR","latitude":9.487,"longitude":138.077},"KPHX":{"rawOb":"METAR KPHX 260851Z 11006KT 10SM CLR 24/02 A2985 RMK AO2 SLP087 T02390022 51003","observationTime":"2026-03-26T08:51:00.000Z","flightCategory":"VFR","latitude":33.4278,"longitude":-112.0037},"KSLK":{"rawOb":"METAR KSLK 260851Z AUTO 22009KT 7SM -RA OVC027 02/01 A2979 RMK AO2 UPB38E49RAB49 SLP101 P0001 60001 T00220006 56025","observationTime":"2026-03-26T08:51:00.000Z","flightCategory":"MVFR","latitude":44.3928,"longitude":-74.2029},"KVNY":{"rawOb":"METAR KVNY 260851Z AUTO 19004KT 9SM CLR 15/13 A2995 RMK AO2 SLP132 T01500128 58000 $","observationTime":"2026-03-26T08:51:00.000Z","flightCategory":"VFR","latitude":34.2121,"longitude":-118.4915},"CYXH":{"rawOb":"SPECI CYXH 260851Z AUTO 04009G15KT 9SM -SN OVC015 M11/M14 A3017 RMK SLP269","observationTime":"2026-03-26T08:51:00.000Z","flightCategory":"MVFR","latitude":50.018,"longitude":-110.717},"KSAT":{"rawOb":"METAR KSAT 260851Z 18013KT 10SM OVC013 21/17 A3002 RMK AO2 SLP146 T02060172 58007","observationTime":"2026-03-26T08:51:00.000Z","flightCategory":"MVFR","latitude":29.5443,"longitude":-98.4839},"KBHK":{"rawOb":"METAR KBHK 260851Z AUTO 03011KT 10SM OVC070 M01/M03 A3000 RMK AO2 SNE08 SLP162 P0000 60000 T10111033 50028","observationTime":"2026-03-26T08:51:00.000Z","flightCategory":"VFR","latitude":46.352,"longitude":-104.2613},"KPWM":{"rawOb":"METAR KPWM 260851Z 20004KT 10SM BKN065 OVC090 03/02 A3001 RMK AO2 SLP163 60003 T00280017 56030 $","observationTime":"2026-03-26T08:51:00.000Z","flightCategory":"VFR","latitude":43.6424,"longitude":-70.3044},"KRDU":{"rawOb":"METAR KRDU 260851Z 22009KT 10SM FEW035 BKN043 OVC050 14/11 A3017 RMK AO2 SLP215 T01440111 56007","observationTime":"2026-03-26T08:51:00.000Z","flightCategory":"VFR","latitude":35.8923,"longitude":-78.782},"KSAN":{"rawOb":"METAR KSAN 260851Z 00000KT 9SM OVC010 17/14 A2998 RMK AO2 SLP151 T01670144 58002","observationTime":"2026-03-26T08:51:00.000Z","flightCategory":"MVFR","latitude":32.7364,"longitude":-117.1973},"KCRP":{"rawOb":"METAR KCRP 260851Z 16008KT 10SM SCT015 BKN025 BKN030 21/19 A3002 RMK AO2 SLP164 T02110194 58004 $","observationTime":"2026-03-26T08:51:00.000Z","flightCategory":"MVFR","latitude":27.7734,"longitude":-97.513},"UNEE":{"rawOb":"SPECI UNEE 260851Z 17003MPS 6000 -SN BKN002 OVC019 01/01 Q1021 NOSIG RMK QFE743","observationTime":"2026-03-26T08:51:00.000Z","flightCategory":"LIFR","latitude":55.27,"longitude":86.107},"KSTL":{"rawOb":"METAR KSTL 260851Z 23017KT 10SM FEW250 23/14 A2979 RMK AO2 SLP077 T02280139 58016 $","observationTime":"2026-03-26T08:51:00.000Z","flightCategory":"VFR","latitude":38.7525,"longitude":-90.3734},"KSDB":{"rawOb":"METAR KSDB 260851Z AUTO 36009G23KT 300V060 10SM CLR 13/03 A3010 RMK AO2 PK WND 32029/0803 RAB06E15 SLP147 P0000 60000 T01330033 58005","observationTime":"2026-03-26T08:51:00.000Z","flightCategory":"VFR","latitude":34.7433,"longitude":-118.7252},"KELP":{"rawOb":"METAR KELP 260851Z 14006KT 10SM CLR 20/M09 A2998 RMK AO2 SLP074 T02001089 58001 $","observationTime":"2026-03-26T08:51:00.000Z","flightCategory":"VFR","latitude":31.8123,"longitude":-106.3774},"KMYL":{"rawOb":"METAR KMYL 260851Z AUTO 35004KT 10SM FEW023 BKN042 02/M01 A3012 RMK AO2 SLP199 T00171006 51023 $","observationTime":"2026-03-26T08:51:00.000Z","flightCategory":"VFR","latitude":44.8943,"longitude":-116.0998},"K1JN":{"rawOb":"SPECI K1JN 260851Z AUTO 36014KT 10SM -SN OVC004 M09/M10 A3004 RMK AO2 SNB51 SLP201 $","observationTime":"2026-03-26T08:51:00.000Z","flightCategory":"LIFR","latitude":48.41,"longitude":-101.89},"KOXR":{"rawOb":"METAR KOXR 260851Z AUTO 09005KT 5SM BR BKN005 15/14 A2994 RMK AO2 SLP139 T01500139 55000","observationTime":"2026-03-26T08:51:00.000Z","flightCategory":"IFR","latitude":34.2001,"longitude":-119.2042},"KOCF":{"rawOb":"METAR KOCF 260851Z AUTO 08003KT 8SM OVC004 18/18 A3013 RMK AO2 SLP202 T01830178 56014","observationTime":"2026-03-26T08:51:00.000Z","flightCategory":"LIFR","latitude":29.1636,"longitude":-82.221},"KATT":{"rawOb":"METAR KATT 260851Z AUTO 17006KT 10SM OVC023 21/17 A3002 RMK AO2 SLP153 T02110167 58004","observationTime":"2026-03-26T08:51:00.000Z","flightCategory":"MVFR","latitude":30.3208,"longitude":-97.7604},"KEWR":{"rawOb":"METAR KEWR 260851Z 21006KT 10SM OVC095 09/04 A3001 RMK AO2 SLP161 T00940039 56028 $","observationTime":"2026-03-26T08:51:00.000Z","flightCategory":"VFR","latitude":40.6828,"longitude":-74.1692},"KCMH":{"rawOb":"METAR KCMH 260851Z 18004KT 10SM BKN080 15/08 A2992 RMK AO2 SLP129 T01500083 55007","observationTime":"2026-03-26T08:51:00.000Z","flightCategory":"VFR","latitude":39.9907,"longitude":-82.877},"KEKN":{"rawOb":"METAR KEKN 260851Z AUTO VRB06KT 10SM FEW050 13/02 A3003 RMK AO2 SLP165 T01330017 55006 $","observationTime":"2026-03-26T08:51:00.000Z","flightCategory":"VFR","latitude":38.8899,"longitude":-79.8554},"KABE":{"rawOb":"METAR KABE 260851Z 00000KT 10SM OVC080 08/02 A2999 RMK AO2 SLP156 T00780017 56022 $","observationTime":"2026-03-26T08:51:00.000Z","flightCategory":"VFR","latitude":40.658,"longitude":-75.4347},"KLGA":{"rawOb":"METAR KLGA 260851Z 15007KT 10SM OVC095 08/04 A3000 RMK AO2 SLP160 T00780044 56030","observationTime":"2026-03-26T08:51:00.000Z","flightCategory":"VFR","latitude":40.7794,"longitude":-73.8803},"KERI":{"rawOb":"METAR KERI 260851Z AUTO 21011KT 10SM BKN075 14/03 A2982 RMK AO2 SLP098 T01440033 56008","observationTime":"2026-03-26T08:51:00.000Z","flightCategory":"VFR","latitude":42.0803,"longitude":-80.1824},"PTKK":{"rawOb":"METAR PTKK 260851Z 00000KT 15SM FEW014 SCT120 BKN280 27/25 A2975 RMK SLP078 60002 8/171 T02660253 52017","observationTime":"2026-03-26T08:51:00.000Z","flightCategory":"VFR","latitude":7.462,"longitude":151.843},"KBAZ":{"rawOb":"METAR KBAZ 260851Z AUTO 18010G19KT 10SM OVC019 21/17 A3001 RMK AO2 SLP153 T02060172 58010","observationTime":"2026-03-26T08:51:00.000Z","flightCategory":"MVFR","latitude":29.7089,"longitude":-98.0459},"KDAW":{"rawOb":"METAR KDAW 260851Z AUTO 17003KT 10SM FEW011 OVC070 03/02 A2999 RMK AO2 SLP153 60001 T00330022 56032 $","observationTime":"2026-03-26T08:51:00.000Z","flightCategory":"VFR","latitude":43.2794,"longitude":-70.9243},"KLGU":{"rawOb":"METAR KLGU 260851Z AUTO 00000KT 10SM CLR 09/02 A2992 RMK AO2 SLP092 T00940017 50005","observationTime":"2026-03-26T08:51:00.000Z","flightCategory":"VFR","latitude":41.7865,"longitude":-111.8519},"KNOG":{"rawOb":"SPECI KNOG 260851Z AUTO 15011KT 10SM FEW014 SCT027 21/19 A3002 RMK AO2 PNO $","observationTime":"2026-03-26T08:51:00.000Z","flightCategory":"VFR","latitude":27.895,"longitude":-98.043},"KBKW":{"rawOb":"METAR KBKW 260851Z AUTO 24008KT 10SM CLR 13/04 A3008 RMK AO2 SLP171 T01280039 58004","observationTime":"2026-03-26T08:51:00.000Z","flightCategory":"VFR","latitude":37.7836,"longitude":-81.1228},"KBDL":{"rawOb":"METAR KBDL 260851Z 21005KT 10SM OVC100 06/03 A3001 RMK AO2 SLP162 T00560028 56031","observationTime":"2026-03-26T08:51:00.000Z","flightCategory":"VFR","latitude":41.9374,"longitude":-72.682},"CYHE":{"rawOb":"SPECI CYHE 260851Z AUTO VRB11G20KT 9SM BKN055 OVC074 05/M00 A3030 RMK SLP265","observationTime":"2026-03-26T08:51:00.000Z","flightCategory":"VFR","latitude":49.37,"longitude":-121.493},"KHDO":{"rawOb":"METAR KHDO 260851Z AUTO 15011KT 10SM OVC016 21/18 A3002 RMK AO2 SLP148 T02060178 58002 $","observationTime":"2026-03-26T08:51:00.000Z","flightCategory":"MVFR","latitude":29.3601,"longitude":-99.1742},"KROW":{"rawOb":"METAR KROW 260851Z AUTO 17008KT 10SM CLR 18/05 A2993 RMK AO2 SLP063 T01780050 58003","observationTime":"2026-03-26T08:51:00.000Z","flightCategory":"VFR","latitude":33.3074,"longitude":-104.5082},"KAVX":{"rawOb":"METAR KAVX 260851Z AUTO 18004KT 10SM CLR 13/11 A2998 RMK AO2 SLP140 T01330111 58004 $","observationTime":"2026-03-26T08:51:00.000Z","flightCategory":"VFR","latitude":33.4042,"longitude":-118.4146},"KSJT":{"rawOb":"METAR KSJT 260851Z AUTO 19005KT 10SM CLR 19/13 A2995 RMK AO2 SLP119 T01940128 58004","observationTime":"2026-03-26T08:51:00.000Z","flightCategory":"VFR","latitude":31.3517,"longitude":-100.4948},"KSMX":{"rawOb":"METAR KSMX 260851Z AUTO 02003KT 6SM BR FEW006 11/11 A3000 RMK AO2 SLP160 T01060106 58002","observationTime":"2026-03-26T08:51:00.000Z","flightCategory":"VFR","latitude":34.894,"longitude":-120.4522},"KALB":{"rawOb":"METAR KALB 260851Z 16009KT 10SM OVC070 07/M03 A2993 RMK AO2 RAE44 SLP137 P0000 60000 T00671028 56018 $","observationTime":"2026-03-26T08:51:00.000Z","flightCategory":"VFR","latitude":42.7473,"longitude":-73.7991},"KP59":{"rawOb":"METAR KP59 260851Z AUTO 07010KT M02/M03 A2978 RMK AO1 SLP096 P0001 60001 T10221033 58003","observationTime":"2026-03-26T08:51:00.000Z","flightCategory":"null","latitude":47.467,"longitude":-87.875},"KSMO":{"rawOb":"METAR KSMO 260851Z AUTO 20004KT 8SM CLR 16/14 A2997 RMK AO2 SLP147 T01560139 55002","observationTime":"2026-03-26T08:51:00.000Z","flightCategory":"VFR","latitude":34.021,"longitude":-118.4471},"KCSG":{"rawOb":"METAR KCSG 260851Z AUTO 06003KT 10SM CLR 13/10 A3016 RMK AO2 SLP209 T01330100 58005 $","observationTime":"2026-03-26T08:51:00.000Z","flightCategory":"VFR","latitude":32.5163,"longitude":-84.9422},"KIGM":{"rawOb":"METAR KIGM 260851Z AUTO 19011KT 10SM CLR 18/M05 A2997 RMK AO2 SLP082 T01781050 50004","observationTime":"2026-03-26T08:51:00.000Z","flightCategory":"VFR","latitude":35.2575,"longitude":-113.9341},"KCLE":{"rawOb":"METAR KCLE 260851Z 23005KT 10SM FEW150 FEW250 13/06 A2984 RMK AO2 SLP121 T01280056 57007","observationTime":"2026-03-26T08:51:00.000Z","flightCategory":"VFR","latitude":41.4057,"longitude":-81.8519},"KHTS":{"rawOb":"METAR KHTS 260851Z 20009KT 10SM CLR 17/06 A2999 RMK AO2 SLP150 T01720061 58008 $","observationTime":"2026-03-26T08:51:00.000Z","flightCategory":"VFR","latitude":38.3653,"longitude":-82.5548},"KCAK":{"rawOb":"METAR KCAK 260851Z 23007KT 10SM FEW120 11/05 A2989 RMK AO2 SLP122 T01110050 55006","observationTime":"2026-03-26T08:51:00.000Z","flightCategory":"VFR","latitude":40.9181,"longitude":-81.4434},"KBGD":{"rawOb":"METAR KBGD 260851Z AUTO 21016G25KT 10SM CLR 22/07 A2986 RMK AO2 PK WND 22031/0814 SLP061 T02220072 56005","observationTime":"2026-03-26T08:51:00.000Z","flightCategory":"VFR","latitude":35.695,"longitude":-101.3955},"KSAD":{"rawOb":"METAR KSAD 260851Z AUTO 11005KT 10SM CLR 15/M07 A2999 RMK AO2 SLP107 T01501067 50006","observationTime":"2026-03-26T08:51:00.000Z","flightCategory":"VFR","latitude":32.8565,"longitude":-109.636},"KAHN":{"rawOb":"METAR KAHN 260851Z AUTO 00000KT 10SM OVC075 11/09 A3018 RMK AO2 SLP217 T01060094 58010","observationTime":"2026-03-26T08:51:00.000Z","flightCategory":"VFR","latitude":33.9477,"longitude":-83.3274},"KCON":{"rawOb":"METAR KCON 260851Z AUTO 18008KT 10SM OVC100 04/01 A2999 RMK AO2 SLP157 60000 T00390011 56031 TSNO $","observationTime":"2026-03-26T08:51:00.000Z","flightCategory":"VFR","latitude":43.2049,"longitude":-71.5026},"KHSE":{"rawOb":"METAR KHSE 260851Z AUTO 23005KT 10SM CLR 16/12 A3019 RMK AO2 SLP222 T01560122 55010 $","observationTime":"2026-03-26T08:51:00.000Z","flightCategory":"VFR","latitude":35.2324,"longitude":-75.6223},"KYNG":{"rawOb":"METAR KYNG 260851Z 23007KT 10SM FEW070 SCT100 12/04 A2988 RMK AO2 SLP117 T01220044 55006 $","observationTime":"2026-03-26T08:51:00.000Z","flightCategory":"VFR","latitude":41.2548,"longitude":-80.6736},"KLPC":{"rawOb":"METAR KLPC 260851Z AUTO 00000KT 7SM OVC007 13/ A3000 RMK AO2 SLP158 T0128 58005","observationTime":"2026-03-26T08:51:00.000Z","flightCategory":"IFR","latitude":34.6647,"longitude":-120.4642},"KBED":{"rawOb":"METAR KBED 260851Z AUTO 21004KT 10SM OVC110 04/03 A3000 RMK AO2 RAB34E40 SLP173 P0000 60002 T00440028 56039","observationTime":"2026-03-26T08:51:00.000Z","flightCategory":"VFR","latitude":42.4681,"longitude":-71.2946},"KCDJ":{"rawOb":"METAR KCDJ 260851Z AUTO 22006KT 21/14 A2974 RMK AO1 SLP057 T02110144 56009","observationTime":"2026-03-26T08:51:00.000Z","flightCategory":"null","latitude":39.8198,"longitude":-93.577},"KXWA":{"rawOb":"METAR KXWA 260851Z AUTO 01021KT 10SM OVC008 M09/M11 A3007 RMK AO2 PRESFR SLP211 T10891111 50020","observationTime":"2026-03-26T08:51:00.000Z","flightCategory":"IFR","latitude":48.2542,"longitude":-103.7469},"KTPL":{"rawOb":"METAR KTPL 260851Z AUTO 17014G19KT OVC017 20/17 A3002 RMK AO2 SLP153 T02000167 58001 PWINO RVRNO $","observationTime":"2026-03-26T08:51:00.000Z","flightCategory":"null","latitude":31.157,"longitude":-97.4094},"KVCT":{"rawOb":"METAR KVCT 260851Z AUTO 15005KT 8SM CLR 18/18 A3003 RMK AO2 SLP168 T01830183 56006","observationTime":"2026-03-26T08:51:00.000Z","flightCategory":"VFR","latitude":28.8624,"longitude":-96.9301},"LTAW":{"rawOb":"METAR LTAW 260850Z 05010KT 9999 BKN030 10/02 Q1005","observationTime":"2026-03-26T08:50:00.000Z","flightCategory":"MVFR","latitude":40.308,"longitude":36.368},"KDAG":{"rawOb":"METAR KDAG 260850Z AUTO 29015KT 10SM CLR 21/01 A2993 RMK AO2 SLP108 T02110006 53005","observationTime":"2026-03-26T08:50:00.000Z","flightCategory":"VFR","latitude":34.8537,"longitude":-116.787},"LSZH":{"rawOb":"METAR LSZH 260850Z 30006KT 9999 FEW020 BKN050 03/M00 Q1013 TEMPO -SHSNRA","observationTime":"2026-03-26T08:50:00.000Z","flightCategory":"VFR","latitude":47.48,"longitude":8.536},"EKSP":{"rawOb":"METAR EKSP 260850Z 29018KT 9999 FEW035 BKN048 04/M03 Q1006 TEMPO 29018G28KT 6000 -SHRA SCT030TCU","observationTime":"2026-03-26T08:50:00.000Z","flightCategory":"VFR","latitude":55.225,"longitude":9.263},"EKKA":{"rawOb":"METAR EKKA 260850Z AUTO 30022KT 9999 BKN029/// 05/M02 Q1003 TEMPO 29025G35KT","observationTime":"2026-03-26T08:50:00.000Z","flightCategory":"MVFR","latitude":56.293,"longitude":9.114},"EKCH":{"rawOb":"METAR EKCH 260850Z AUTO 27019KT 9999 OVC028/// 06/M01 Q1002 TEMPO 27015G28KT","observationTime":"2026-03-26T08:50:00.000Z","flightCategory":"MVFR","latitude":55.618,"longitude":12.656},"EDDW":{"rawOb":"METAR EDDW 260850Z AUTO 28018KT 9999 -RA BKN016 BKN023 BKN032 04/01 Q1011 TEMPO 30015G25KT SHRA BKN012CB","observationTime":"2026-03-26T08:50:00.000Z","flightCategory":"MVFR","latitude":53.047,"longitude":8.787},"EDDH":{"rawOb":"METAR EDDH 260850Z AUTO 26008KT 220V290 9999 VCSH FEW028 SCT041 FEW///CB 05/02 Q1008 TEMPO 30015G25KT SHRA BKN012CB","observationTime":"2026-03-26T08:50:00.000Z","flightCategory":"VFR","latitude":53.633,"longitude":9.988},"KQER":{"rawOb":"METAR KQER 260850Z AUTO 21004KT 9999 CLR 18/01 A2985 RMK A02 TSNO","observationTime":"2026-03-26T08:50:00.000Z","flightCategory":"VFR","latitude":-99.99,"longitude":-99.99},"EGCK":{"rawOb":"METAR EGCK 260850Z AUTO VRB02KT 9999 NCD 08/02 Q1024","observationTime":"2026-03-26T08:50:00.000Z","flightCategory":"VFR","latitude":53.104,"longitude":-4.34},"ENTC":{"rawOb":"METAR ENTC 260850Z 02008KT CAVOK 02/M02 Q0987 NOSIG RMK WIND 2600FT 36012KT","observationTime":"2026-03-26T08:50:00.000Z","flightCategory":"VFR","latitude":69.675,"longitude":18.916},"EDDV":{"rawOb":"METAR EDDV 260850Z AUTO 30010G20KT 260V340 9999 -SHRA BKN017 BKN024 FEW///CB 04/02 Q1011 RESHRA TEMPO SHRA BKN015CB","observationTime":"2026-03-26T08:50:00.000Z","flightCategory":"MVFR","latitude":52.466,"longitude":9.68},"EDDG":{"rawOb":"METAR EDDG 260850Z AUTO 29011KT 270V330 9999 SCT021 05/01 Q1013 TEMPO SHRA BKN015CB","observationTime":"2026-03-26T08:50:00.000Z","flightCategory":"VFR","latitude":52.135,"longitude":7.697},"EGSC":{"rawOb":"METAR EGSC 260850Z 34011KT 310V010 CAVOK 05/M02 Q1022","observationTime":"2026-03-26T08:50:00.000Z","flightCategory":"VFR","latitude":52.205,"longitude":0.175},"ENTO":{"rawOb":"METAR ENTO 260850Z 33014KT CAVOK 08/M04 Q0994 NOSIG","observationTime":"2026-03-26T08:50:00.000Z","flightCategory":"VFR","latitude":59.184,"longitude":10.255},"LGBL":{"rawOb":"METAR LGBL 260850Z 06005KT 9999 FEW040 15/08 Q1006","observationTime":"2026-03-26T08:50:00.000Z","flightCategory":"VFR","latitude":39.22,"longitude":22.794},"EGSY":{"rawOb":"METAR EGSY 260850Z 32005KT 290V350 9999 FEW025 07/02 Q1024","observationTime":"2026-03-26T08:50:00.000Z","flightCategory":"VFR","latitude":51.406,"longitude":-3.434},"EGAE":{"rawOb":"METAR EGAE 260850Z 21006KT 9999 FEW009 BKN048 06/04 Q1021","observationTime":"2026-03-26T08:50:00.000Z","flightCategory":"VFR","latitude":55.043,"longitude":-7.161},"LTBO":{"rawOb":"METAR LTBO 260850Z VRB04KT 9999 FEW040 11/02 Q1005","observationTime":"2026-03-26T08:50:00.000Z","flightCategory":"VFR","latitude":38.68,"longitude":29.483},"EGTC":{"rawOb":"METAR EGTC 260850Z 34009KT CAVOK 05/M01 Q1022","observationTime":"2026-03-26T08:50:00.000Z","flightCategory":"VFR","latitude":52.072,"longitude":-0.617},"EGNR":{"rawOb":"METAR EGNR 260850Z 34009KT 310V010 9999 FEW035 07/01 Q1023","observationTime":"2026-03-26T08:50:00.000Z","flightCategory":"VFR","latitude":53.175,"longitude":-2.987},"EGPI":{"rawOb":"METAR EGPI 260850Z 24011KT 9999 FEW012 BKN036 06/04 Q1020","observationTime":"2026-03-26T08:50:00.000Z","flightCategory":"VFR","latitude":55.681,"longitude":-6.25},"EGAA":{"rawOb":"METAR EGAA 260850Z AUTO 21005KT 9999 OVC046 03/02 Q1022","observationTime":"2026-03-26T08:50:00.000Z","flightCategory":"VFR","latitude":54.654,"longitude":-6.225},"EGAC":{"rawOb":"METAR EGAC 260850Z AUTO 18006KT 9999 NCD 04/02 Q1022","observationTime":"2026-03-26T08:50:00.000Z","flightCategory":"VFR","latitude":54.614,"longitude":-5.873},"EGNS":{"rawOb":"METAR EGNS 260850Z 29007KT 9999 FEW020 06/01 Q1023 NOSIG","observationTime":"2026-03-26T08:50:00.000Z","flightCategory":"VFR","latitude":54.085,"longitude":-4.632},"EGTK":{"rawOb":"METAR EGTK 260850Z 33012KT 310V010 9999 SCT022 06/01 Q1022","observationTime":"2026-03-26T08:50:00.000Z","flightCategory":"VFR","latitude":51.838,"longitude":-1.317},"EGHC":{"rawOb":"METAR EGHC 260850Z 32015KT 9999 FEW019 08/03 Q1026","observationTime":"2026-03-26T08:50:00.000Z","flightCategory":"VFR","latitude":50.103,"longitude":-5.671},"LTAS":{"rawOb":"METAR LTAS 260850Z 35006KT 9999 FEW015 BKN035 12/08 Q1008","observationTime":"2026-03-26T08:50:00.000Z","flightCategory":"VFR","latitude":41.507,"longitude":32.089},"EKVG":{"rawOb":"METAR EKVG 260850Z 00000KT CAVOK 01/M07 Q1013 RMK WIND SKEID 35001KT","observationTime":"2026-03-26T08:50:00.000Z","flightCategory":"VFR","latitude":62.065,"longitude":-7.282},"EYSA":{"rawOb":"METAR EYSA 260850Z 22009KT 9999 SCT017 06/01 Q1003 NOSIG","observationTime":"2026-03-26T08:50:00.000Z","flightCategory":"VFR","latitude":55.894,"longitude":23.395},"YSCB":{"rawOb":"SPECI YSCB 260850Z AUTO 30010KT 9999 // FEW012 SCT024 OVC033 15/14 Q1006","observationTime":"2026-03-26T08:50:00.000Z","flightCategory":"VFR","latitude":-35.309,"longitude":149.2},"EGHE":{"rawOb":"METAR EGHE 260850Z 33013KT 9999 SCT025TCU 10/03 Q1027","observationTime":"2026-03-26T08:50:00.000Z","flightCategory":"VFR","latitude":49.914,"longitude":-6.296},"EGHQ":{"rawOb":"METAR EGHQ 260850Z 33013KT 9999 FEW024 SCT040 08/02 Q1026","observationTime":"2026-03-26T08:50:00.000Z","flightCategory":"VFR","latitude":50.438,"longitude":-4.998},"LTAL":{"rawOb":"METAR LTAL 260850Z VRB03KT 9999 BKN026 BKN080 08/02 Q1005","observationTime":"2026-03-26T08:50:00.000Z","flightCategory":"MVFR","latitude":41.305,"longitude":33.792},"EGJA":{"rawOb":"METAR EGJA 260850Z 34015KT 9999 FEW026 08/03 Q1023","observationTime":"2026-03-26T08:50:00.000Z","flightCategory":"VFR","latitude":49.706,"longitude":-2.215},"LGSO":{"rawOb":"METAR LGSO 260850Z 36010KT CAVOK 17/06 Q1007","observationTime":"2026-03-26T08:50:00.000Z","flightCategory":"VFR","latitude":37.422,"longitude":24.95},"LGPA":{"rawOb":"METAR LGPA 260850Z 34010KT CAVOK 16/07 Q1006","observationTime":"2026-03-26T08:50:00.000Z","flightCategory":"VFR","latitude":37.022,"longitude":25.114},"LGMK":{"rawOb":"METAR LGMK 260850Z COR 35012KT 9999 FEW020 15/07 Q1006","observationTime":"2026-03-26T08:50:00.000Z","flightCategory":"VFR","latitude":37.435,"longitude":25.348},"LGNX":{"rawOb":"METAR LGNX 260850Z 35010KT CAVOK 16/08 Q1006","observationTime":"2026-03-26T08:50:00.000Z","flightCategory":"VFR","latitude":37.081,"longitude":25.369},"EGLF":{"rawOb":"METAR EGLF 260850Z AUTO 33007KT 310V020 9999 BKN018/// 06/01 Q1022","observationTime":"2026-03-26T08:50:00.000Z","flightCategory":"MVFR","latitude":51.28,"longitude":-0.773},"LGKF":{"rawOb":"METAR LGKF 260850Z 00000KT 9999 SCT030 16/11 Q1007","observationTime":"2026-03-26T08:50:00.000Z","flightCategory":"VFR","latitude":38.12,"longitude":20.5},"EGPD":{"rawOb":"METAR EGPD 260850Z COR AUTO 28009KT 9999 NCD 03/M02 Q1018 NOSIG","observationTime":"2026-03-26T08:50:00.000Z","flightCategory":"VFR","latitude":57.205,"longitude":-2.205},"EGBB":{"rawOb":"METAR EGBB 260850Z 34008KT 9999 FEW016 05/01 Q1023","observationTime":"2026-03-26T08:50:00.000Z","flightCategory":"VFR","latitude":52.46,"longitude":-1.758},"EGCC":{"rawOb":"METAR EGCC 260850Z COR AUTO 24003KT 170V310 9999 NCD 04/M00 Q1023 NOSIG","observationTime":"2026-03-26T08:50:00.000Z","flightCategory":"VFR","latitude":53.354,"longitude":-2.275},"KQEJ":{"rawOb":"METAR KQEJ 260850Z AUTO 25003KT 9999 CLR 20/M04 A2984 RMK A02 TSNO","observationTime":"2026-03-26T08:50:00.000Z","flightCategory":"VFR","latitude":-99.99,"longitude":-99.99},"EGPA":{"rawOb":"METAR EGPA 260850Z 32017KT 9999 FEW042CB 05/M04 Q1016","observationTime":"2026-03-26T08:50:00.000Z","flightCategory":"VFR","latitude":58.958,"longitude":-2.905},"EGPF":{"rawOb":"METAR EGPF 260850Z AUTO VRB02KT 9999 NCD 03/M01 Q1021","observationTime":"2026-03-26T08:50:00.000Z","flightCategory":"VFR","latitude":55.867,"longitude":-4.433},"EVVA":{"rawOb":"METAR EVVA 260850Z AUTO 19017KT 9999 BKN017 OVC024 06/02 Q1000","observationTime":"2026-03-26T08:50:00.000Z","flightCategory":"MVFR","latitude":57.361,"longitude":21.545},"EVLA":{"rawOb":"METAR EVLA 260850Z AUTO 21015KT 9999 FEW020/// SCT024/// 05/02 Q1001","observationTime":"2026-03-26T08:50:00.000Z","flightCategory":"VFR","latitude":56.517,"longitude":21.097},"EEKA":{"rawOb":"METAR EEKA 260850Z AUTO 21012KT 170V260 9999 BKN025/// 07/01 Q0997","observationTime":"2026-03-26T08:50:00.000Z","flightCategory":"MVFR","latitude":58.991,"longitude":22.831},"EGPH":{"rawOb":"METAR EGPH 260850Z 27006KT 240V310 CAVOK 05/M02 Q1021","observationTime":"2026-03-26T08:50:00.000Z","flightCategory":"VFR","latitude":55.952,"longitude":-3.36},"EEKE":{"rawOb":"METAR EEKE 260850Z AUTO 20011KT 9999 OVC014/// 04/02 Q0999","observationTime":"2026-03-26T08:50:00.000Z","flightCategory":"MVFR","latitude":58.23,"longitude":22.509},"EETU":{"rawOb":"METAR EETU 260850Z AUTO 22010KT 190V250 9999 FEW026/// BKN031/// BKN035/// 10/04 Q1001","observationTime":"2026-03-26T08:50:00.000Z","flightCategory":"VFR","latitude":58.307,"longitude":26.691},"EEPU":{"rawOb":"METAR EEPU 260850Z AUTO 20014KT 9999 FEW019/// BKN210/// 04/02 Q1001","observationTime":"2026-03-26T08:50:00.000Z","flightCategory":"VFR","latitude":58.419,"longitude":24.473},"LGHI":{"rawOb":"METAR LGHI 260850Z /////KT CAVOK 15/09 Q1006","observationTime":"2026-03-26T08:50:00.000Z","flightCategory":"VFR","latitude":38.343,"longitude":26.141},"EGEO":{"rawOb":"METAR EGEO 260850Z 10007KT 9999 FEW030 03/00 Q1020","observationTime":"2026-03-26T08:50:00.000Z","flightCategory":"VFR","latitude":56.464,"longitude":-5.4},"ESGT":{"rawOb":"METAR ESGT 260850Z 34007KT 9999 FEW023 BKN032 06/02 Q0994","observationTime":"2026-03-26T08:50:00.000Z","flightCategory":"VFR","latitude":58.314,"longitude":12.347},"KFHM":{"rawOb":"METAR KFHM 260850Z 00000KT 15/13","observationTime":"2026-03-26T08:50:00.000Z","flightCategory":"null","latitude":34.0677,"longitude":-118.2417},"ENZV":{"rawOb":"METAR ENZV 260850Z 33016KT 9999 -SHRASN BKN024CB 04/00 Q1003 TEMPO 33022G32KT 2000 SHSNRAGS BKN006 SCT013CB","observationTime":"2026-03-26T08:50:00.000Z","flightCategory":"MVFR","latitude":58.884,"longitude":5.637},"ENVA":{"rawOb":"METAR ENVA 260850Z 26024KT 9999 -DZRA BKN018 05/03 Q0990 RMK WIND 670FT 27023G36KT","observationTime":"2026-03-26T08:50:00.000Z","flightCategory":"MVFR","latitude":63.46,"longitude":10.931},"ENOL":{"rawOb":"METAR ENOL 260850Z 28024KT 9999 -SHRA SCT015TCU BKN022 05/03 Q0990 TEMPO 26030G40KT BKN014TCU","observationTime":"2026-03-26T08:50:00.000Z","flightCategory":"MVFR","latitude":63.703,"longitude":9.609},"ENGM":{"rawOb":"METAR ENGM 260850Z 33008KT 270V010 CAVOK 07/M05 Q0992 NOSIG","observationTime":"2026-03-26T08:50:00.000Z","flightCategory":"VFR","latitude":60.201,"longitude":11.08},"EGPK":{"rawOb":"METAR EGPK 260850Z 13005KT CAVOK 05/M01 Q1021","observationTime":"2026-03-26T08:50:00.000Z","flightCategory":"VFR","latitude":55.509,"longitude":-4.587},"ENDU":{"rawOb":"METAR ENDU 260850Z 27002KT 9999 FEW005 SCT025 02/M02 Q0986 NOSIG RMK WIND 1374FT 35005KT WIND 2165FT 36006KT","observationTime":"2026-03-26T08:50:00.000Z","flightCategory":"VFR","latitude":69.058,"longitude":18.544},"ENBR":{"rawOb":"METAR ENBR 260850Z 34015KT 9999 VCSH SCT022TCU 04/M02 Q1003 RMK WIND 1200FT 34027KT","observationTime":"2026-03-26T08:50:00.000Z","flightCategory":"VFR","latitude":60.29,"longitude":5.222},"ENBO":{"rawOb":"METAR ENBO 260850Z 36010KT 9999 FEW051 05/M00 Q0985 NOSIG","observationTime":"2026-03-26T08:50:00.000Z","flightCategory":"VFR","latitude":67.267,"longitude":14.359},"ENAN":{"rawOb":"METAR ENAN 260850Z 02019KT 9999 VCSH FEW014 BKN024 03/M00 Q0987","observationTime":"2026-03-26T08:50:00.000Z","flightCategory":"MVFR","latitude":69.307,"longitude":16.131},"ENVD":{"rawOb":"METAR ENVD 260850Z 07017KT 1800 -SNRA VV006 00/M00 Q0988","observationTime":"2026-03-26T08:50:00.000Z","flightCategory":"IFR","latitude":70.065,"longitude":29.835},"ENST":{"rawOb":"METAR ENST 260850Z 04003KT 360V090 9999 FEW016 07/02 Q0986 RMK WIND 0300FT VRB04KT","observationTime":"2026-03-26T08:50:00.000Z","flightCategory":"VFR","latitude":65.961,"longitude":12.472},"ENSO":{"rawOb":"METAR ENSO 260850Z 35021G32KT 9999 FEW015CB FEW030 03/00 Q1003","observationTime":"2026-03-26T08:50:00.000Z","flightCategory":"VFR","latitude":59.792,"longitude":5.341},"ENSK":{"rawOb":"METAR ENSK 260850Z VRB05KT 9999 VCSH FEW020 BKN028 04/M00 Q0987","observationTime":"2026-03-26T08:50:00.000Z","flightCategory":"MVFR","latitude":68.58,"longitude":15.029},"LGAL":{"rawOb":"METAR LGAL 260850Z 10006KT CAVOK 13/04 Q1006","observationTime":"2026-03-26T08:50:00.000Z","flightCategory":"VFR","latitude":40.856,"longitude":25.945},"ELLX":{"rawOb":"METAR ELLX 260850Z 30008KT 270V360 9999 FEW014 BKN032 03/M01 Q1015 NOSIG","observationTime":"2026-03-26T08:50:00.000Z","flightCategory":"VFR","latitude":49.626,"longitude":6.204},"EBOS":{"rawOb":"METAR EBOS 260850Z 36013KT 9999 FEW020TCU SCT035 06/01 Q1019 TEMPO 34015G25KT 3500 SHRA","observationTime":"2026-03-26T08:50:00.000Z","flightCategory":"VFR","latitude":51.199,"longitude":2.862},"EBLG":{"rawOb":"METAR EBLG 260850Z 30011KT 270V330 9999 SCT015 05/01 Q1017 TEMPO 4000 SHRASNGS BKN012CB","observationTime":"2026-03-26T08:50:00.000Z","flightCategory":"VFR","latitude":50.637,"longitude":5.443},"EBCI":{"rawOb":"METAR EBCI 260850Z 29006KT 250V340 9999 VCSH SCT011CB BKN028 04/01 Q1018 TEMPO 4000 SHRASN BKN014CB","observationTime":"2026-03-26T08:50:00.000Z","flightCategory":"MVFR","latitude":50.459,"longitude":4.454},"EBBR":{"rawOb":"METAR EBBR 260850Z COR 31010KT 280V340 9999 VCSH FEW020CB 06/02 Q1018 TEMPO 4000 SHGS SHSNRA BKN014CB","observationTime":"2026-03-26T08:50:00.000Z","flightCategory":"VFR","latitude":50.896,"longitude":4.526},"EBAW":{"rawOb":"METAR EBAW 260850Z 32006KT 290V360 9999 FEW016TCU 06/01 Q1018 TEMPO 4000 SHRAGS BKN013CB","observationTime":"2026-03-26T08:50:00.000Z","flightCategory":"VFR","latitude":51.189,"longitude":4.46},"ESUP":{"rawOb":"METAR ESUP 260850Z AUTO 15006KT 9999 -RA FEW006/// BKN015/// OVC023/// 02/02 Q0983","observationTime":"2026-03-26T08:50:00.000Z","flightCategory":"MVFR","latitude":67.246,"longitude":23.069},"ESNX":{"rawOb":"METAR ESNX 260850Z VRB01KT 9999 BKN004 OVC006 01/01 Q0980","observationTime":"2026-03-26T08:50:00.000Z","flightCategory":"LIFR","latitude":65.592,"longitude":19.283},"ESNV":{"rawOb":"METAR ESNV 260850Z 27008KT 230V300 9999 BKN030 BKN054 02/M00 Q0982","observationTime":"2026-03-26T08:50:00.000Z","flightCategory":"MVFR","latitude":64.579,"longitude":16.839},"ESNL":{"rawOb":"METAR ESNL 260850Z 26007KT 210V300 9999 FEW009 BKN012 OVC017 02/00 Q0982","observationTime":"2026-03-26T08:50:00.000Z","flightCategory":"MVFR","latitude":64.552,"longitude":18.711},"ESKM":{"rawOb":"METAR ESKM 260850Z AUTO 33005KT 300V360 9999 OVC062/// 04/01 Q0989","observationTime":"2026-03-26T08:50:00.000Z","flightCategory":"VFR","latitude":60.96,"longitude":14.507},"LGTS":{"rawOb":"METAR LGTS 260850Z 15013KT 9999 FEW025 17/08 Q1005 NOSIG","observationTime":"2026-03-26T08:50:00.000Z","flightCategory":"VFR","latitude":40.52,"longitude":22.971},"LGSM":{"rawOb":"METAR LGSM 260850Z 01008KT 320V050 9000 FEW025 15/08 Q1004","observationTime":"2026-03-26T08:50:00.000Z","flightCategory":"VFR","latitude":37.69,"longitude":26.912},"LGSA":{"rawOb":"METAR LGSA 260850Z 29007KT 9999 FEW025 16/04 Q1008","observationTime":"2026-03-26T08:50:00.000Z","flightCategory":"VFR","latitude":35.54,"longitude":24.141},"LGLM":{"rawOb":"METAR LGLM 260850Z 13005KT CAVOK 15/07 Q1006","observationTime":"2026-03-26T08:50:00.000Z","flightCategory":"VFR","latitude":39.917,"longitude":25.236},"EGSS":{"rawOb":"METAR EGSS 260850Z AUTO 34010KT 310V010 9999 NCD 05/M01 Q1021","observationTime":"2026-03-26T08:50:00.000Z","flightCategory":"VFR","latitude":51.881,"longitude":0.223},"LGKO":{"rawOb":"METAR LGKO 260850Z 35010KT CAVOK 15/09 Q1004","observationTime":"2026-03-26T08:50:00.000Z","flightCategory":"VFR","latitude":36.801,"longitude":27.091},"LGKL":{"rawOb":"METAR LGKL 260850Z 14004KT 9999 FEW025 SCT080 18/07 Q1008","observationTime":"2026-03-26T08:50:00.000Z","flightCategory":"VFR","latitude":37.068,"longitude":22.026},"LGAD":{"rawOb":"METAR LGAD 260850Z 19006KT 9999 SCT020 17/10 Q1007","observationTime":"2026-03-26T08:50:00.000Z","flightCategory":"VFR","latitude":37.923,"longitude":21.287},"ESMK":{"rawOb":"METAR ESMK 260850Z 26013KT 220V290 9999 BKN021 06/02 Q0999","observationTime":"2026-03-26T08:50:00.000Z","flightCategory":"MVFR","latitude":55.922,"longitude":14.085},"LLBG":{"rawOb":"METAR LLBG 260850Z VRB03KT 9999 FEW012 SCT020 16/11 Q1001 TEMPO 8000 RA BKN025 RMK BKN070","observationTime":"2026-03-26T08:50:00.000Z","flightCategory":"VFR","latitude":32.011,"longitude":34.887},"KQEN":{"rawOb":"METAR KQEN 260850Z AUTO 4800 CLR 10/03 / RMK A02 TSNO","observationTime":"2026-03-26T08:50:00.000Z","flightCategory":"IFR","latitude":-99.99,"longitude":-99.99},"KQEV":{"rawOb":"METAR KQEV 260850Z AUTO 31003KT 9999 CLR 20/01 A2989 RMK A02 TSNO","observationTime":"2026-03-26T08:50:00.000Z","flightCategory":"VFR","latitude":-99.99,"longitude":-99.99},"KQEX":{"rawOb":"METAR KQEX 260850Z AUTO 34006G13KT 9999 CLR 21/M04 A2981 RMK A02 TSNO","observationTime":"2026-03-26T08:50:00.000Z","flightCategory":"VFR","latitude":-99.99,"longitude":-99.99},"LGKZ":{"rawOb":"METAR LGKZ 260850Z 19007KT 9999 FEW025 13/M01 Q1005","observationTime":"2026-03-26T08:50:00.000Z","flightCategory":"VFR","latitude":40.288,"longitude":21.842},"KQFT":{"rawOb":"METAR KQFT 260850Z AUTO 29003KT 9999 CLR 18/M00 A2990 RMK A02 TSNO","observationTime":"2026-03-26T08:50:00.000Z","flightCategory":"VFR","latitude":-99.99,"longitude":-99.99},"LGKP":{"rawOb":"METAR LGKP 260850Z 28021KT 9999 FEW025 17/10 Q1005","observationTime":"2026-03-26T08:50:00.000Z","flightCategory":"VFR","latitude":35.421,"longitude":27.146},"EGPB":{"rawOb":"METAR EGPB 260850Z COR 31021KT 9999 4000E VCSH SCT022CB 04/M02 Q1013 TEMPO SHRA","observationTime":"2026-03-26T08:50:00.000Z","flightCategory":"VFR","latitude":59.88,"longitude":-1.296},"EGKK":{"rawOb":"METAR EGKK 260850Z 36010KT 9999 FEW020 06/01 Q1022","observationTime":"2026-03-26T08:50:00.000Z","flightCategory":"VFR","latitude":51.148,"longitude":-0.19},"EGNO":{"rawOb":"METAR EGNO 260850Z 33009KT 9999 FEW020 06/M01 Q1023","observationTime":"2026-03-26T08:50:00.000Z","flightCategory":"VFR","latitude":53.746,"longitude":-2.889},"KLAL":{"rawOb":"METAR KLAL 260850Z 04004KT 10SM SKC 19/18 A3010","observationTime":"2026-03-26T08:50:00.000Z","flightCategory":"VFR","latitude":27.9866,"longitude":-82.0193},"KQEI":{"rawOb":"METAR KQEI 260850Z AUTO 21002KT 9999 CLR 20/M07 A2986 RMK A02 TSNO","observationTime":"2026-03-26T08:50:00.000Z","flightCategory":"VFR","latitude":-99.99,"longitude":-99.99},"ESGG":{"rawOb":"METAR ESGG 260850Z 28011KT 250V310 CAVOK 06/M00 Q0995","observationTime":"2026-03-26T08:50:00.000Z","flightCategory":"VFR","latitude":57.667,"longitude":12.285},"ETNG":{"rawOb":"METAR ETNG 260850Z 30013KT 9999 SCT020 SCT036 05/01 Q1016 NOSIG","observationTime":"2026-03-26T08:50:00.000Z","flightCategory":"VFR","latitude":50.964,"longitude":6.032},"EGLL":{"rawOb":"METAR EGLL 260850Z COR AUTO 35006KT 300V040 9999 NCD 06/00 Q1022 NOSIG","observationTime":"2026-03-26T08:50:00.000Z","flightCategory":"VFR","latitude":51.477,"longitude":-0.461},"EFHK":{"rawOb":"METAR EFHK 260850Z 19017KT 9999 FEW020 07/01 Q0997 NOSIG","observationTime":"2026-03-26T08:50:00.000Z","flightCategory":"VFR","latitude":60.327,"longitude":24.957},"KQEP":{"rawOb":"METAR KQEP 260850Z AUTO 24005G14KT 9999 CLR 18/M01 A2993 RMK A02 TSNO","observationTime":"2026-03-26T08:50:00.000Z","flightCategory":"VFR","latitude":-99.99,"longitude":-99.99},"ESGJ":{"rawOb":"METAR ESGJ 260850Z 27012KT 9999 DZ SCT016 BKN021 05/02 Q0993","observationTime":"2026-03-26T08:50:00.000Z","flightCategory":"MVFR","latitude":57.752,"longitude":14.069},"EFTP":{"rawOb":"METAR EFTP 260850Z AUTO 20015KT 160V230 9999 BKN023 06/M01 Q0994","observationTime":"2026-03-26T08:50:00.000Z","flightCategory":"MVFR","latitude":61.419,"longitude":23.616},"KQFB":{"rawOb":"METAR KQFB 260850Z AUTO 29008G12KT 9999 CLR 22/M03 A2992 RMK A02 TSNO","observationTime":"2026-03-26T08:50:00.000Z","flightCategory":"VFR","latitude":-99.99,"longitude":-99.99},"ESGP":{"rawOb":"METAR ESGP 260850Z AUTO 27013KT 9999 SCT086/// 06/01 Q0996","observationTime":"2026-03-26T08:50:00.000Z","flightCategory":"VFR","latitude":57.781,"longitude":11.869},"EFTU":{"rawOb":"METAR EFTU 260850Z AUTO 19013KT 9999 -SHRA OVC011 03/01 Q0994","observationTime":"2026-03-26T08:50:00.000Z","flightCategory":"MVFR","latitude":60.514,"longitude":22.263},"EFVA":{"rawOb":"METAR EFVA 260850Z AUTO 20018KT 9999 OVC009 04/02 Q0988","observationTime":"2026-03-26T08:50:00.000Z","flightCategory":"IFR","latitude":63.051,"longitude":21.762},"EFOU":{"rawOb":"METAR EFOU 260850Z AUTO 19014G24KT 9999 -SHRA OVC026 06/01 Q0987","observationTime":"2026-03-26T08:50:00.000Z","flightCategory":"MVFR","latitude":64.93,"longitude":25.355},"EFRO":{"rawOb":"METAR EFRO 260850Z AUTO 20014KT 9999 -RA OVC006 03/02 Q0985","observationTime":"2026-03-26T08:50:00.000Z","flightCategory":"IFR","latitude":66.562,"longitude":25.829},"EFMA":{"rawOb":"METAR EFMA 260850Z AUTO 18015KT 9999 OVC009 03/02 Q0991","observationTime":"2026-03-26T08:50:00.000Z","flightCategory":"IFR","latitude":60.125,"longitude":19.903},"EFIV":{"rawOb":"METAR EFIV 260850Z AUTO 04004KT 9999 OVC008 01/01 Q0984","observationTime":"2026-03-26T08:50:00.000Z","flightCategory":"IFR","latitude":68.607,"longitude":27.405},"LICG":{"rawOb":"METAR LICG 260850Z 26013KT 9999 SCT010 13/10 Q1009","observationTime":"2026-03-26T08:50:00.000Z","flightCategory":"VFR","latitude":36.814,"longitude":11.971},"LICD":{"rawOb":"METAR LICD 260850Z AUTO 31009KT 290V350 9999 NCD 16/11 Q1009","observationTime":"2026-03-26T08:50:00.000Z","flightCategory":"VFR","latitude":35.498,"longitude":12.618},"EGGW":{"rawOb":"METAR EGGW 260850Z AUTO 34008KT 290V010 9999 NCD 05/M01 Q1021","observationTime":"2026-03-26T08:50:00.000Z","flightCategory":"VFR","latitude":51.875,"longitude":-0.368},"EGEC":{"rawOb":"METAR EGEC 260850Z 22006KT 9999 SCT033 06/03 Q1021","observationTime":"2026-03-26T08:50:00.000Z","flightCategory":"VFR","latitude":55.437,"longitude":-5.686},"LICB":{"rawOb":"METAR LICB 260850Z AUTO 27013KT 9999 BKN016/// 14/11 Q1007","observationTime":"2026-03-26T08:50:00.000Z","flightCategory":"MVFR","latitude":36.994,"longitude":14.606},"EGKA":{"rawOb":"METAR EGKA 260850Z 35011KT 320V020 9999 FEW014 06/03 Q1022","observationTime":"2026-03-26T08:50:00.000Z","flightCategory":"VFR","latitude":50.836,"longitude":-0.294},"LOXZ":{"rawOb":"METAR LOXZ 260850Z 08006KT 9999 FEW025 BKN050 04/M01 Q1001 NOSIG","observationTime":"2026-03-26T08:50:00.000Z","flightCategory":"VFR","latitude":47.203,"longitude":14.744},"LIRZ":{"rawOb":"METAR LIRZ 260850Z AUTO 26010KT 9999 FEW019/// BKN046/// BKN082/// 07/03 Q0993","observationTime":"2026-03-26T08:50:00.000Z","flightCategory":"VFR","latitude":43.097,"longitude":12.51},"LIPY":{"rawOb":"METAR LIPY 260850Z AUTO 23005KT 130V300 9999 -RA BKN025/// 09/04 Q0992","observationTime":"2026-03-26T08:50:00.000Z","flightCategory":"MVFR","latitude":43.617,"longitude":13.36},"LIMZ":{"rawOb":"METAR LIMZ 260850Z AUTO 33012G22KT 300V360 9999 NCD 11/M12 Q1001","observationTime":"2026-03-26T08:50:00.000Z","flightCategory":"VFR","latitude":44.547,"longitude":7.623},"EGKB":{"rawOb":"METAR EGKB 260850Z 34009KT 310V020 9999 FEW045 04/M00 Q1022","observationTime":"2026-03-26T08:50:00.000Z","flightCategory":"VFR","latitude":51.33,"longitude":0.033},"LIMW":{"rawOb":"METAR LIMW 260850Z 27015G29KT 9999 BKN060 06/M10 Q1009","observationTime":"2026-03-26T08:50:00.000Z","flightCategory":"VFR","latitude":45.735,"longitude":7.351},"EGLC":{"rawOb":"METAR EGLC 260850Z AUTO 33008KT 9999 NCD 05/M01 Q1022","observationTime":"2026-03-26T08:50:00.000Z","flightCategory":"VFR","latitude":51.505,"longitude":0.055},"LICR":{"rawOb":"METAR LICR 260850Z AUTO 20003KT 150V250 9999 SCT060/// 16/09 Q1005","observationTime":"2026-03-26T08:50:00.000Z","flightCategory":"VFR","latitude":38.072,"longitude":15.654},"LICA":{"rawOb":"METAR LICA 260850Z AUTO 25017KT 9999 FEW022/// 16/12 Q1004","observationTime":"2026-03-26T08:50:00.000Z","flightCategory":"VFR","latitude":38.908,"longitude":16.242},"LIBP":{"rawOb":"METAR LIBP 260850Z AUTO 23019KT 9999 NCD 14/02 Q0991","observationTime":"2026-03-26T08:50:00.000Z","flightCategory":"VFR","latitude":42.432,"longitude":14.181},"LTCK":{"rawOb":"METAR LTCK 260850Z 28007KT 230V320 9999 SCT030 BKN100 11/05 Q1004","observationTime":"2026-03-26T08:50:00.000Z","flightCategory":"VFR","latitude":38.748,"longitude":41.661},"KRYY":{"rawOb":"METAR KRYY 260850Z AUTO 00000KT 10SM CLR 14/10 A3018 RMK AO2 SLP950 T01390100 58012 $","observationTime":"2026-03-26T08:50:00.000Z","flightCategory":"VFR","latitude":34.0146,"longitude":-84.5964},"LIPZ":{"rawOb":"METAR LIPZ 260850Z 06009KT 9999 -RA SCT035 BKN045 07/04 Q0996 NOSIG","observationTime":"2026-03-26T08:50:00.000Z","flightCategory":"VFR","latitude":45.505,"longitude":12.352},"EGMC":{"rawOb":"METAR EGMC 260850Z 32009KT 290V350 CAVOK 06/01 Q1021","observationTime":"2026-03-26T08:50:00.000Z","flightCategory":"VFR","latitude":51.571,"longitude":0.696},"EGMD":{"rawOb":"METAR EGMD 260850Z 33011KT 9999 FEW040 06/03 Q1022","observationTime":"2026-03-26T08:50:00.000Z","flightCategory":"VFR","latitude":50.956,"longitude":0.939},"LIPX":{"rawOb":"METAR LIPX 260850Z 36019G31KT 320V020 9999 FEW065 BKN080 11/M05 Q0996","observationTime":"2026-03-26T08:50:00.000Z","flightCategory":"VFR","latitude":45.387,"longitude":10.872},"LIPR":{"rawOb":"METAR LIPR 260850Z 25017G27KT 8000 -DZ BKN012 04/02 Q0989","observationTime":"2026-03-26T08:50:00.000Z","flightCategory":"MVFR","latitude":44.02,"longitude":12.612},"LIPQ":{"rawOb":"METAR LIPQ 260850Z AUTO 05008KT 010V080 9999 OVC077/// 11/M01 Q0994","observationTime":"2026-03-26T08:50:00.000Z","flightCategory":"VFR","latitude":45.828,"longitude":13.472},"LIPK":{"rawOb":"METAR LIPK 260850Z 34033G47KT 3500 +RA BR OVC010 02/01 Q0993","observationTime":"2026-03-26T08:50:00.000Z","flightCategory":"IFR","latitude":44.196,"longitude":12.07},"LIPH":{"rawOb":"METAR LIPH 260850Z 33008KT 290V010 9999 SCT040 BKN060 09/02 Q0996","observationTime":"2026-03-26T08:50:00.000Z","flightCategory":"VFR","latitude":45.648,"longitude":12.194},"LIPE":{"rawOb":"METAR LIPE 260850Z 34010KT 310V020 8000 RA SCT010 BKN020 04/03 Q0998","observationTime":"2026-03-26T08:50:00.000Z","flightCategory":"MVFR","latitude":44.531,"longitude":11.297},"CYHD":{"rawOb":"SPECI CYHD 260850Z AUTO 06010G16KT 3SM -SN BKN011 BKN017 OVC240 M08/M10 A2987 RMK VIS VRB 1 3/4-3 SLP144","observationTime":"2026-03-26T08:50:00.000Z","flightCategory":"MVFR","latitude":49.83,"longitude":-92.74},"LIPB":{"rawOb":"METAR LIPB 260850Z 03011KT 350V080 9999 BKN120 10/M07 Q1000","observationTime":"2026-03-26T08:50:00.000Z","flightCategory":"VFR","latitude":46.46,"longitude":11.326},"LICJ":{"rawOb":"METAR LICJ 260850Z 23017KT 9999 SCT030 SCT070 16/09 Q1005","observationTime":"2026-03-26T08:50:00.000Z","flightCategory":"VFR","latitude":38.176,"longitude":13.091},"LICC":{"rawOb":"METAR LICC 260850Z 25017KT 9999 FEW030 17/13 Q1006","observationTime":"2026-03-26T08:50:00.000Z","flightCategory":"VFR","latitude":37.467,"longitude":15.064},"LIBR":{"rawOb":"METAR LIBR 260850Z 18015KT CAVOK 17/05 Q1000","observationTime":"2026-03-26T08:50:00.000Z","flightCategory":"VFR","latitude":40.658,"longitude":17.951},"LIBD":{"rawOb":"METAR LIBD 260850Z 22012KT 9999 -RA FEW040 14/07 Q0998","observationTime":"2026-03-26T08:50:00.000Z","flightCategory":"VFR","latitude":41.138,"longitude":16.765},"LIRQ":{"rawOb":"METAR LIRQ 260850Z 34006KT 310V010 9999 -RA BKN030 BKN070 07/04 Q0996","observationTime":"2026-03-26T08:50:00.000Z","flightCategory":"MVFR","latitude":43.81,"longitude":11.205},"LIRN":{"rawOb":"METAR LIRN 260850Z 24022G33KT 210V270 9999 BKN050 14/01 Q0999 NOSIG","observationTime":"2026-03-26T08:50:00.000Z","flightCategory":"VFR","latitude":40.885,"longitude":14.292},"LIRF":{"rawOb":"METAR LIRF 260850Z 30016KT 9999 -SHRA FEW015 BKN035 09/05 Q0996 RESHRA WS R34R TEMPO TSRA","observationTime":"2026-03-26T08:50:00.000Z","flightCategory":"VFR","latitude":41.8,"longitude":12.239},"LIRA":{"rawOb":"METAR LIRA 260850Z 02010KT 9999 -TSRA BKN025CB 07/04 Q0996","observationTime":"2026-03-26T08:50:00.000Z","flightCategory":"MVFR","latitude":41.808,"longitude":12.585},"LIML":{"rawOb":"METAR LIML 260850Z 33012KT 280V360 9999 BKN090 13/M07 Q0998 NOSIG","observationTime":"2026-03-26T08:50:00.000Z","flightCategory":"VFR","latitude":45.461,"longitude":9.263},"LIMJ":{"rawOb":"METAR LIMJ 260850Z 36025G43KT 330V040 CAVOK 13/M11 Q0997","observationTime":"2026-03-26T08:50:00.000Z","flightCategory":"VFR","latitude":44.413,"longitude":8.838},"ESCF":{"rawOb":"METAR ESCF 260850Z 24010KT 9999 SCT018 BKN071 06/03 Q0992","observationTime":"2026-03-26T08:50:00.000Z","flightCategory":"VFR","latitude":58.398,"longitude":15.526},"LIMF":{"rawOb":"METAR LIMF 260850Z 31016KT CAVOK 12/M13 Q1001 WS R36","observationTime":"2026-03-26T08:50:00.000Z","flightCategory":"VFR","latitude":45.203,"longitude":7.649},"LIME":{"rawOb":"METAR LIME 260850Z VRB02KT 9999 FEW040 BKN070 08/03 Q0997 NOSIG","observationTime":"2026-03-26T08:50:00.000Z","flightCategory":"VFR","latitude":45.674,"longitude":9.704},"LSGG":{"rawOb":"METAR LSGG 260850Z AUTO 05004KT 010V080 6000 2400NE -SHSN BKN025 02/M02 Q1016 RESN TEMPO 1200 SHSN","observationTime":"2026-03-26T08:50:00.000Z","flightCategory":"MVFR","latitude":46.248,"longitude":6.128},"LSZB":{"rawOb":"METAR LSZB 260850Z 25009KT 9999 -SN FEW022 SCT036 BKN048 02/M02 Q1014","observationTime":"2026-03-26T08:50:00.000Z","flightCategory":"VFR","latitude":46.914,"longitude":7.497},"LIMC":{"rawOb":"METAR LIMC 260850Z 33021KT CAVOK 12/M08 Q0999 NOSIG","observationTime":"2026-03-26T08:50:00.000Z","flightCategory":"VFR","latitude":45.631,"longitude":8.728},"LSZA":{"rawOb":"METAR LSZA 260850Z 01020G33KT 350V070 9999 FEW060 11/M09 Q1001","observationTime":"2026-03-26T08:50:00.000Z","flightCategory":"VFR","latitude":46.004,"longitude":8.91},"LIEO":{"rawOb":"METAR LIEO 260850Z 26021G33KT 9999 SCT030 11/04 Q1002","observationTime":"2026-03-26T08:50:00.000Z","flightCategory":"VFR","latitude":40.899,"longitude":9.518},"LSGC":{"rawOb":"METAR LSGC 260850Z AUTO 34004KT 240V060 9999 -SN BKN007 BKN009 M03/M04 Q1012","observationTime":"2026-03-26T08:50:00.000Z","flightCategory":"IFR","latitude":47.083,"longitude":6.792},"LSGS":{"rawOb":"METAR LSGS 260850Z 25015KT 9999 FEW025 BKN050 02/M00 Q1014","observationTime":"2026-03-26T08:50:00.000Z","flightCategory":"VFR","latitude":46.219,"longitude":7.33},"LSZG":{"rawOb":"METAR LSZG 260850Z 25007KT 220V300 9000 -RASN FEW020 BKN032 BKN050 03/01 Q1014","observationTime":"2026-03-26T08:50:00.000Z","flightCategory":"VFR","latitude":47.179,"longitude":7.415},"LIEE":{"rawOb":"METAR LIEE 260850Z 32018KT 9999 -RA FEW050 11/02 Q1008","observationTime":"2026-03-26T08:50:00.000Z","flightCategory":"VFR","latitude":39.243,"longitude":9.06},"LSZR":{"rawOb":"METAR LSZR 260850Z 27009KT 9999 -RA BKN011 02/02 Q1012 RERASN RMK L","observationTime":"2026-03-26T08:50:00.000Z","flightCategory":"MVFR","latitude":47.485,"longitude":9.561},"LSZS":{"rawOb":"METAR LSZS 260850Z 35005KT 300V030 2000 -SN SCT030 BKN040 M05/M08 Q1001 RMK E TL180","observationTime":"2026-03-26T08:50:00.000Z","flightCategory":"IFR","latitude":46.526,"longitude":9.879},"KQEQ":{"rawOb":"METAR KQEQ 260850Z AUTO 23005KT 9999 CLR 16/04 A2997 RMK A02 TSNO","observationTime":"2026-03-26T08:50:00.000Z","flightCategory":"VFR","latitude":-99.99,"longitude":-99.99},"LIEA":{"rawOb":"METAR LIEA 260850Z 31024G35KT 270V340 9999 BKN035 11/M01 Q1006 WS IN APCH RWY 02","observationTime":"2026-03-26T08:50:00.000Z","flightCategory":"VFR","latitude":40.631,"longitude":8.289},"LSZC":{"rawOb":"METAR LSZC 260850Z 19008G21KT 140V260 9999 3500E -DZ VCSH FEW015 OVC018 01/M01 Q1014","observationTime":"2026-03-26T08:50:00.000Z","flightCategory":"MVFR","latitude":46.972,"longitude":8.392},"LGZA":{"rawOb":"METAR LGZA 260850Z 20006KT 9999 SCT020 SCT080 17/09 Q1007","observationTime":"2026-03-26T08:50:00.000Z","flightCategory":"VFR","latitude":37.751,"longitude":20.884},"LSZL":{"rawOb":"METAR LSZL 260850Z VRB06G35KT 9999 FEW100 11/M11 Q1003 RMK BLU+","observationTime":"2026-03-26T08:50:00.000Z","flightCategory":"VFR","latitude":46.164,"longitude":8.878},"KQEW":{"rawOb":"METAR KQEW 260850Z AUTO 23005KT 9999 // CLR 21/M03 A2988 RMK A02 TSNO","observationTime":"2026-03-26T08:50:00.000Z","flightCategory":"VFR","latitude":-99.99,"longitude":-99.99},"LGSR":{"rawOb":"METAR LGSR 260850Z 33013KT CAVOK 17/06 Q1006","observationTime":"2026-03-26T08:50:00.000Z","flightCategory":"VFR","latitude":36.399,"longitude":25.479},"LGRX":{"rawOb":"METAR LGRX 260850Z VRB03KT 9999 SCT025 16/09 Q1007","observationTime":"2026-03-26T08:50:00.000Z","flightCategory":"VFR","latitude":38.151,"longitude":21.426},"LGPZ":{"rawOb":"METAR LGPZ 260850Z 18006KT 9999 FEW015 BKN030 BKN080 14/09 Q1006","observationTime":"2026-03-26T08:50:00.000Z","flightCategory":"MVFR","latitude":38.921,"longitude":20.761},"LGMT":{"rawOb":"METAR LGMT 260850Z 04004KT 9999 FEW025 14/06 Q1007","observationTime":"2026-03-26T08:50:00.000Z","flightCategory":"VFR","latitude":39.054,"longitude":26.604},"LGKV":{"rawOb":"METAR LGKV 260850Z 13006KT 9999 FEW025 15/09 Q1006","observationTime":"2026-03-26T08:50:00.000Z","flightCategory":"VFR","latitude":40.915,"longitude":24.622},"KQFV":{"rawOb":"METAR KQFV 260850Z AUTO 24003KT 9999 CLR 18/M01 A2992 RMK A02 TSNO","observationTime":"2026-03-26T08:50:00.000Z","flightCategory":"VFR","latitude":-99.99,"longitude":-99.99},"LLHA":{"rawOb":"METAR LLHA 260850Z AUTO 32007KT 9999 FEW026 16/10 Q1001","observationTime":"2026-03-26T08:50:00.000Z","flightCategory":"VFR","latitude":32.809,"longitude":35.043},"LLER":{"rawOb":"METAR LLER 260850Z AUTO 25014KT 220V280 9999 BKN046 15/08 Q1005 RMK RERA","observationTime":"2026-03-26T08:50:00.000Z","flightCategory":"VFR","latitude":29.722,"longitude":35.012},"LGIO":{"rawOb":"METAR LGIO 260850Z 03003KT 9999 SCT025 12/07 Q1006","observationTime":"2026-03-26T08:50:00.000Z","flightCategory":"VFR","latitude":39.696,"longitude":20.823},"KQFX":{"rawOb":"METAR KQFX 260850Z AUTO 4800 HZ CLR 19/03 A2989 RMK A02 TSNO","observationTime":"2026-03-26T08:50:00.000Z","flightCategory":"IFR","latitude":-99.99,"longitude":-99.99},"ENRS":{"rawOb":"METAR ENRS 260850Z 02029KT 9999 FEW019 06/02 Q0988","observationTime":"2026-03-26T08:50:00.000Z","flightCategory":"VFR","latitude":67.527,"longitude":12.104},"LATI":{"rawOb":"METAR LATI 260850Z 17011KT 140V210 9999 FEW076 17/03 Q1003 NOSIG","observationTime":"2026-03-26T08:50:00.000Z","flightCategory":"VFR","latitude":41.419,"longitude":19.716},"ENMS":{"rawOb":"METAR ENMS 260850Z 17003KT 100V200 9999 FEW030 03/M00 Q0985 RMK WIND 412FT 15002KT","observationTime":"2026-03-26T08:50:00.000Z","flightCategory":"VFR","latitude":65.784,"longitude":13.218},"EDXW":{"rawOb":"METAR EDXW 260850Z 31023G34KT 9999 FEW037 05/M03 Q1008","observationTime":"2026-03-26T08:50:00.000Z","flightCategory":"VFR","latitude":54.913,"longitude":8.341},"EDVE":{"rawOb":"METAR EDVE 260850Z AUTO 28013KT 9999 BKN018 05/01 Q1010","observationTime":"2026-03-26T08:50:00.000Z","flightCategory":"MVFR","latitude":52.319,"longitude":10.558},"KQFU":{"rawOb":"METAR KQFU 260850Z AUTO 23006G10KT 9000 HZ CLR 16/01 A2996 RMK A02 TSNO","observationTime":"2026-03-26T08:50:00.000Z","flightCategory":"VFR","latitude":-99.99,"longitude":-99.99},"LWOH":{"rawOb":"METAR LWOH 260850Z 15003KT 080V190 9999 SCT040 11/02 Q1003","observationTime":"2026-03-26T08:50:00.000Z","flightCategory":"VFR","latitude":41.181,"longitude":20.744},"LGEL":{"rawOb":"METAR LGEL 260850Z 18003KT 9999 FEW025 17/03 Q1007","observationTime":"2026-03-26T08:50:00.000Z","flightCategory":"VFR","latitude":38.064,"longitude":23.556},"EGSH":{"rawOb":"METAR EGSH 260850Z COR 31012KT 280V350 9999 VCSH FEW011 05/01 Q1020 NOSIG","observationTime":"2026-03-26T08:50:00.000Z","flightCategory":"VFR","latitude":52.676,"longitude":1.283},"ESDF":{"rawOb":"METAR ESDF 260850Z 25012KT 9999 BKN018 05/03 Q0997","observationTime":"2026-03-26T08:50:00.000Z","flightCategory":"MVFR","latitude":56.266,"longitude":15.267},"EDTY":{"rawOb":"METAR EDTY 260850Z 31008KT 290V350 9999 FEW016 BKN019 BKN041 03/00 Q1012","observationTime":"2026-03-26T08:50:00.000Z","flightCategory":"MVFR","latitude":49.118,"longitude":9.784},"EDTL":{"rawOb":"METAR EDTL 260850Z 33011KT 310V360 9999 -DZ BKN019 BKN031 BKN057 04/01 Q1015","observationTime":"2026-03-26T08:50:00.000Z","flightCategory":"MVFR","latitude":48.369,"longitude":7.828},"EDMO":{"rawOb":"METAR EDMO 260850Z AUTO 36009KT 9999 SHSNRA SCT004 BKN015 OVC034 FEW///CB 01/01 Q1009","observationTime":"2026-03-26T08:50:00.000Z","flightCategory":"MVFR","latitude":48.081,"longitude":11.283},"EDJA":{"rawOb":"METAR EDJA 260850Z 32012KT 3500 SHSNRA FEW005 BKN009TCU OVC030 01/00 Q1010","observationTime":"2026-03-26T08:50:00.000Z","flightCategory":"IFR","latitude":47.989,"longitude":10.239},"EDHK":{"rawOb":"METAR EDHK 260850Z 31013KT 280V350 9999 SCT035 05/M02 Q1007","observationTime":"2026-03-26T08:50:00.000Z","flightCategory":"VFR","latitude":54.376,"longitude":10.143},"EDHI":{"rawOb":"METAR EDHI 260850Z 25009KT 9999 -SHRA FEW018CB SCT041 05/03 Q1009","observationTime":"2026-03-26T08:50:00.000Z","flightCategory":"VFR","latitude":53.536,"longitude":9.837},"EDAH":{"rawOb":"METAR EDAH 260850Z 26015KT 9999 FEW022 BKN025 BKN029 06/01 Q1005","observationTime":"2026-03-26T08:50:00.000Z","flightCategory":"MVFR","latitude":53.879,"longitude":14.152},"ENWV":{"rawOb":"METAR ENWV 260850Z AUTO /////KT 9999NDV FEW037/// 04/M05 Q1010 W///S7","observationTime":"2026-03-26T08:50:00.000Z","flightCategory":"null","latitude":56.278,"longitude":3.395},"ENUG":{"rawOb":"METAR ENUG 260850Z AUTO 08017KT 9999NDV SCT038/// BKN097/// 03/M04 Q0989 W///S4","observationTime":"2026-03-26T08:50:00.000Z","flightCategory":"null","latitude":71.305,"longitude":22.253},"ENSE":{"rawOb":"METAR ENSE 260850Z AUTO 32039KT 9999 FEW045/// 04/M05 Q1005 W///S7","observationTime":"2026-03-26T08:50:00.000Z","flightCategory":"VFR","latitude":61.45,"longitude":2.15},"ENQR":{"rawOb":"METAR ENQR 260850Z AUTO 32035G46KT 9999 BKN039/// ///// Q1005 W///S7","observationTime":"2026-03-26T08:50:00.000Z","flightCategory":"VFR","latitude":61.53,"longitude":2.22},"ENQC":{"rawOb":"METAR ENQC 260850Z AUTO 34034G47KT 9999 BKN045/// 06/M05 Q1004 W///S7","observationTime":"2026-03-26T08:50:00.000Z","flightCategory":"VFR","latitude":60.886,"longitude":3.61},"ENQA":{"rawOb":"METAR ENQA 260850Z AUTO 34042KT 9999 SCT041/// SCT045/// 04/M03 Q1003 W06/S6","observationTime":"2026-03-26T08:50:00.000Z","flightCategory":"VFR","latitude":60.645,"longitude":3.725},"ENNE":{"rawOb":"METAR ENNE 260850Z 36042KT 6000 DZ BKN008 OVC013 05/03 Q0988 W///S6","observationTime":"2026-03-26T08:50:00.000Z","flightCategory":"IFR","latitude":66.03,"longitude":8.08},"ENLA":{"rawOb":"METAR ENLA 260850Z AUTO 31037KT 9999NDV BKN036/// 05/M03 Q1009 W///S7","observationTime":"2026-03-26T08:50:00.000Z","flightCategory":"null","latitude":57.111,"longitude":2.846},"LWSK":{"rawOb":"METAR LWSK 260850Z 13011KT CAVOK 15/04 Q1002 NOSIG","observationTime":"2026-03-26T08:50:00.000Z","flightCategory":"VFR","latitude":41.952,"longitude":21.627},"ENNA":{"rawOb":"METAR ENNA 260850Z 35007KT 3100 -SN VV015 00/00 Q0988 RMK WIND 1800FT 06016KT","observationTime":"2026-03-26T08:50:00.000Z","flightCategory":"IFR","latitude":70.059,"longitude":24.971},"ENML":{"rawOb":"METAR ENML 260850Z 34008KT 300V010 9999 -SHRASN SCT013CB 03/00 Q0998 RMK WIND 1587FT 31028G39KT","observationTime":"2026-03-26T08:50:00.000Z","flightCategory":"VFR","latitude":62.744,"longitude":7.262},"ENKR":{"rawOb":"METAR ENKR 260850Z 08011KT 6000 -SN SCT005 BKN013 00/M00 Q0987 RMK WIND 731FT 09012KT","observationTime":"2026-03-26T08:50:00.000Z","flightCategory":"MVFR","latitude":69.725,"longitude":29.898},"ENKB":{"rawOb":"METAR ENKB 260850Z 28015KT 9999 -RA FEW026TCU SCT033 BKN053 05/M00 Q0996 RMK WIND 745FT 31039KT","observationTime":"2026-03-26T08:50:00.000Z","flightCategory":"VFR","latitude":63.109,"longitude":7.816},"ENFL":{"rawOb":"METAR ENFL 260850Z 32019KT 9999 VCSH FEW030CB SCT039 05/M03 Q1002","observationTime":"2026-03-26T08:50:00.000Z","flightCategory":"VFR","latitude":61.582,"longitude":5.02},"ENEV":{"rawOb":"METAR ENEV 260850Z 36012KT 9999 FEW064 04/M00 Q0986 NOSIG RMK WIND 1400FT 01018KT","observationTime":"2026-03-26T08:50:00.000Z","flightCategory":"VFR","latitude":68.491,"longitude":16.683},"ENBL":{"rawOb":"METAR ENBL 260850Z 33006KT 280V360 1000 R07/1200 SN FEW/// SCT004 BKN010 M00/M01 Q1000","observationTime":"2026-03-26T08:50:00.000Z","flightCategory":"LIFR","latitude":61.391,"longitude":5.76},"ENAT":{"rawOb":"METAR ENAT 260850Z 32004KT 7000 -SHSN VV019 M00/M01 Q0988 RMK WIND 700FT 01009KT","observationTime":"2026-03-26T08:50:00.000Z","flightCategory":"MVFR","latitude":69.978,"longitude":23.358},"ESIB":{"rawOb":"METAR ESIB 260850Z 28010KT 9999 FEW029 BKN050 07/01 Q0993","observationTime":"2026-03-26T08:50:00.000Z","flightCategory":"VFR","latitude":58.431,"longitude":12.71},"LTAG":{"rawOb":"METAR LTAG 260850Z 01007KT CAVOK 17/08 Q1000 NOSIG","observationTime":"2026-03-26T08:50:00.000Z","flightCategory":"VFR","latitude":37.002,"longitude":35.426},"LTCJ":{"rawOb":"METAR LTCJ 260850Z 05006KT 340V120 9999 SCT040 BKN100 15/08 Q1002 NOSIG","observationTime":"2026-03-26T08:50:00.000Z","flightCategory":"VFR","latitude":37.93,"longitude":41.117},"ESMV":{"rawOb":"METAR ESMV 260850Z AUTO 24008KT 9999 OVC017/// 05/03 Q0995","observationTime":"2026-03-26T08:50:00.000Z","flightCategory":"MVFR","latitude":57.29,"longitude":14.134},"LTCE":{"rawOb":"METAR LTCE 260850Z 18005KT 150V230 9999 -SHRA SCT035 BKN080 07/M01 Q1004 NOSIG","observationTime":"2026-03-26T08:50:00.000Z","flightCategory":"VFR","latitude":39.956,"longitude":41.17},"LTCC":{"rawOb":"METAR LTCC 260850Z VRB05KT 9999 SCT015 BKN035 BKN090 13/10 Q1003 NOSIG","observationTime":"2026-03-26T08:50:00.000Z","flightCategory":"VFR","latitude":37.894,"longitude":40.201},"LTBU":{"rawOb":"METAR LTBU 260850Z 14006KT 110V180 9999 SCT017 BKN023 10/05 Q1007","observationTime":"2026-03-26T08:50:00.000Z","flightCategory":"MVFR","latitude":41.139,"longitude":27.919},"ESPA":{"rawOb":"METAR ESPA 260850Z 17013KT 3000 BR VV006 02/02 Q0982","observationTime":"2026-03-26T08:50:00.000Z","flightCategory":"IFR","latitude":65.541,"longitude":22.126},"LTAU":{"rawOb":"METAR LTAU 260850Z 00000KT 9999 BKN025 BKN080 08/02 Q1004 NOSIG","observationTime":"2026-03-26T08:50:00.000Z","flightCategory":"MVFR","latitude":38.77,"longitude":35.495},"LTAT":{"rawOb":"METAR LTAT 260850Z 06005KT 020V090 9999 -SHRA FEW008 BKN032 BKN090 10/07 Q1003 NOSIG","observationTime":"2026-03-26T08:50:00.000Z","flightCategory":"VFR","latitude":38.435,"longitude":38.092},"ENUN":{"rawOb":"METAR ENUN 260850Z 02047G60KT 7000 OVC035 03/M05 Q0994 W///S7","observationTime":"2026-03-26T08:50:00.000Z","flightCategory":"MVFR","latitude":-99.99,"longitude":-99.99},"ESPE":{"rawOb":"METAR ESPE 260850Z 11003KT 9000 -RA FEW002 BKN004 BKN037 02/02 Q0981","observationTime":"2026-03-26T08:50:00.000Z","flightCategory":"LIFR","latitude":65.875,"longitude":20.144},"ENSL":{"rawOb":"METAR ENSL 260850Z AUTO 32043KT 9999 BKN022/// 04/M01 Q1010 W04/S6","observationTime":"2026-03-26T08:50:00.000Z","flightCategory":"MVFR","latitude":58.367,"longitude":1.907},"ENSF":{"rawOb":"METAR ENSF 260850Z AUTO 35038KT 9999 SCT042/// 04/M08 Q1006 W/////","observationTime":"2026-03-26T08:50:00.000Z","flightCategory":"VFR","latitude":61.25,"longitude":1.85},"ENOA":{"rawOb":"METAR ENOA 260850Z 34037G49KT 9999 VCSH SCT020CB BKN040 04/M02 Q1005 RESHRAGS W///S6","observationTime":"2026-03-26T08:50:00.000Z","flightCategory":"VFR","latitude":60.492,"longitude":2.827},"ENLE":{"rawOb":"METAR ENLE 260850Z 29037KT 9999 VCSH FEW010 SCT020CB 04/M02 Q1011 W07/S7","observationTime":"2026-03-26T08:50:00.000Z","flightCategory":"VFR","latitude":56.535,"longitude":3.205},"ESSB":{"rawOb":"METAR ESSB 260850Z 22006KT 190V270 9999 SCT014 BKN018 05/02 Q0991","observationTime":"2026-03-26T08:50:00.000Z","flightCategory":"MVFR","latitude":59.356,"longitude":17.933},"ESSA":{"rawOb":"METAR ESSA 260850Z 23007KT 9999 BKN015 04/01 Q0990 NOSIG","observationTime":"2026-03-26T08:50:00.000Z","flightCategory":"MVFR","latitude":59.664,"longitude":17.92},"ESOW":{"rawOb":"METAR ESOW 260850Z AUTO 21008KT 9999 OVC012/// 03/01 Q0991","observationTime":"2026-03-26T08:50:00.000Z","flightCategory":"MVFR","latitude":59.595,"longitude":16.638},"ESOK":{"rawOb":"METAR ESOK 260850Z 29007KT 250V320 9999 BKN047 05/01 Q0991","observationTime":"2026-03-26T08:50:00.000Z","flightCategory":"VFR","latitude":59.442,"longitude":13.342},"ESOE":{"rawOb":"METAR ESOE 260850Z 25008KT 210V290 9999 BKN009 04/01 Q0991","observationTime":"2026-03-26T08:50:00.000Z","flightCategory":"IFR","latitude":59.229,"longitude":15.046},"ESKN":{"rawOb":"METAR ESKN 260850Z 25013KT 9999 BKN011 04/02 Q0991","observationTime":"2026-03-26T08:50:00.000Z","flightCategory":"MVFR","latitude":58.786,"longitude":16.918},"RJTR":{"rawOb":"SPECI RJTR 260850Z AUTO 35007KT 10SM BKN014 BKN019 BKN050 OVC065 12/10 A2986 RMK AO2 CIG 014V026 SLP115 $","observationTime":"2026-03-26T08:50:00.000Z","flightCategory":"MVFR","latitude":35.514,"longitude":139.395},"ESUT":{"rawOb":"METAR ESUT 260850Z AUTO 01005KT 7000 -SN BKN024/// OVC030/// 01/M01 Q0983","observationTime":"2026-03-26T08:50:00.000Z","flightCategory":"MVFR","latitude":65.806,"longitude":15.083},"ESNZ":{"rawOb":"METAR ESNZ 260850Z 29009KT 9999 FEW022 02/00 Q0986","observationTime":"2026-03-26T08:50:00.000Z","flightCategory":"VFR","latitude":63.199,"longitude":14.489},"ESNU":{"rawOb":"METAR ESNU 260850Z 19010KT 9999 SCT008 BKN010 03/01 Q0984","observationTime":"2026-03-26T08:50:00.000Z","flightCategory":"MVFR","latitude":63.789,"longitude":20.285},"ESNS":{"rawOb":"METAR ESNS 260850Z 22009KT 190V250 9999 BKN007 03/02 Q0983","observationTime":"2026-03-26T08:50:00.000Z","flightCategory":"IFR","latitude":64.625,"longitude":21.077},"ESNQ":{"rawOb":"METAR ESNQ 260850Z 36010KT 1700 SN BKN004 OVC014 M01/M01 Q0981","observationTime":"2026-03-26T08:50:00.000Z","flightCategory":"LIFR","latitude":67.823,"longitude":20.34},"ESSD":{"rawOb":"METAR ESSD 260850Z 26004KT 210V330 9999 BKN015 04/01 Q0989","observationTime":"2026-03-26T08:50:00.000Z","flightCategory":"MVFR","latitude":60.422,"longitude":15.515},"ESNO":{"rawOb":"METAR ESNO 260850Z 22007KT 9999 FEW007 BKN078 03/02 Q0985","observationTime":"2026-03-26T08:50:00.000Z","flightCategory":"VFR","latitude":63.412,"longitude":18.98},"ESNN":{"rawOb":"METAR ESNN 260850Z VRB03KT CAVOK 06/03 Q0987","observationTime":"2026-03-26T08:50:00.000Z","flightCategory":"VFR","latitude":62.532,"longitude":17.436},"ESNK":{"rawOb":"METAR ESNK 260850Z VRB03KT 9999 BKN019 OVC082 05/02 Q0986","observationTime":"2026-03-26T08:50:00.000Z","flightCategory":"MVFR","latitude":63.047,"longitude":17.766},"ESNG":{"rawOb":"METAR ESNG 260850Z 10003KT 3500 BR OVC003 01/01 Q0981","observationTime":"2026-03-26T08:50:00.000Z","flightCategory":"LIFR","latitude":67.133,"longitude":20.81},"EGTE":{"rawOb":"METAR EGTE 260850Z 34005KT 300V020 9999 SCT022 07/03 Q1024","observationTime":"2026-03-26T08:50:00.000Z","flightCategory":"VFR","latitude":50.737,"longitude":-3.406},"EGJJ":{"rawOb":"METAR EGJJ 260850Z 33012G22KT 290V050 9999 SCT029 09/02 Q1024","observationTime":"2026-03-26T08:50:00.000Z","flightCategory":"VFR","latitude":49.21,"longitude":-2.194},"EGJB":{"rawOb":"METAR EGJB 260850Z 33015KT 9999 SCT024 09/02 Q1024","observationTime":"2026-03-26T08:50:00.000Z","flightCategory":"VFR","latitude":49.433,"longitude":-2.598},"PTRO":{"rawOb":"METAR PTRO 260850Z 36005KT 13SM SCT015CB BKN110 OVC290 27/25 A2972 RMK CB ALQDS","observationTime":"2026-03-26T08:50:00.000Z","flightCategory":"VFR","latitude":7.367,"longitude":134.544},"EGHI":{"rawOb":"METAR EGHI 260850Z 32009KT 300V360 9999 FEW022 07/02 Q1023","observationTime":"2026-03-26T08:50:00.000Z","flightCategory":"VFR","latitude":50.944,"longitude":-1.358},"EGHH":{"rawOb":"METAR EGHH 260850Z 35007KT 290V040 9999 FEW024 07/02 Q1023","observationTime":"2026-03-26T08:50:00.000Z","flightCategory":"VFR","latitude":50.779,"longitude":-1.836},"EGGD":{"rawOb":"METAR EGGD 260850Z AUTO 33004KT 280V040 9999 BKN026 BKN031 06/01 Q1023","observationTime":"2026-03-26T08:50:00.000Z","flightCategory":"MVFR","latitude":51.383,"longitude":-2.719},"EGFF":{"rawOb":"METAR EGFF 260850Z AUTO 30005KT 9999 NCD 07/03 Q1024","observationTime":"2026-03-26T08:50:00.000Z","flightCategory":"VFR","latitude":51.397,"longitude":-3.343},"ESTL":{"rawOb":"METAR ESTL 260850Z 27016KT 9999 BKN020 OVC026 05/01 Q1000","observationTime":"2026-03-26T08:50:00.000Z","flightCategory":"MVFR","latitude":56.083,"longitude":13.213},"ESTA":{"rawOb":"METAR ESTA 260850Z 27016KT 9999 BKN022 05/02 Q0999","observationTime":"2026-03-26T08:50:00.000Z","flightCategory":"MVFR","latitude":56.294,"longitude":12.848},"ESMX":{"rawOb":"METAR ESMX 260850Z 24011KT 9999 BKN017 05/04 Q0995","observationTime":"2026-03-26T08:50:00.000Z","flightCategory":"MVFR","latitude":56.927,"longitude":14.73},"ESMT":{"rawOb":"METAR ESMT 260850Z 28020KT 9999 BKN048 OVC061 05/02 Q0998","observationTime":"2026-03-26T08:50:00.000Z","flightCategory":"VFR","latitude":56.691,"longitude":12.82},"ESMS":{"rawOb":"METAR ESMS 260850Z 26015KT 9999 FEW023 BKN026 05/01 Q1000","observationTime":"2026-03-26T08:50:00.000Z","flightCategory":"MVFR","latitude":55.539,"longitude":13.373},"ESMQ":{"rawOb":"METAR ESMQ 260850Z 24013KT 9999 BKN020 07/03 Q0996","observationTime":"2026-03-26T08:50:00.000Z","flightCategory":"MVFR","latitude":56.685,"longitude":16.284},"ENJS":{"rawOb":"METAR ENJS 260850Z 31035KT 9999 BKN013CB 03/00 Q1007 W07/S6","observationTime":"2026-03-26T08:50:00.000Z","flightCategory":"MVFR","latitude":58.835,"longitude":2.545},"ESSP":{"rawOb":"METAR ESSP 260850Z 25008KT 9999 BKN016 06/03 Q0992","observationTime":"2026-03-26T08:50:00.000Z","flightCategory":"MVFR","latitude":58.584,"longitude":16.255},"ESSV":{"rawOb":"METAR ESSV 260850Z 22017KT 9999 SCT014 BKN019 05/02 Q0994","observationTime":"2026-03-26T08:50:00.000Z","flightCategory":"MVFR","latitude":57.662,"longitude":18.348},"ESOH":{"rawOb":"METAR ESOH 260850Z VRB02KT 9999 BKN049 04/02 Q0990","observationTime":"2026-03-26T08:50:00.000Z","flightCategory":"VFR","latitude":60.02,"longitude":13.579},"ESSL":{"rawOb":"METAR ESSL 260850Z 26014KT 9999 BKN018 06/02 Q0992","observationTime":"2026-03-26T08:50:00.000Z","flightCategory":"MVFR","latitude":58.406,"longitude":15.681},"ENHE":{"rawOb":"METAR ENHE 260850Z 34028KT 9999 -RA OVC010 04/03 Q0988 W08/S7","observationTime":"2026-03-26T08:50:00.000Z","flightCategory":"MVFR","latitude":65.325,"longitude":2.327},"ENFB":{"rawOb":"METAR ENFB 260850Z AUTO /////// 9999 SCT033/// 04/M06 Q1006 W/////","observationTime":"2026-03-26T08:50:00.000Z","flightCategory":"VFR","latitude":61.206,"longitude":1.829},"EFSI":{"rawOb":"METAR EFSI 260850Z AUTO 19013G24KT 160V220 9999 BKN018 04/01 Q0990","observationTime":"2026-03-26T08:50:00.000Z","flightCategory":"MVFR","latitude":62.693,"longitude":22.83},"LTBF":{"rawOb":"METAR LTBF 260850Z 00000KT 9999 BKN015 12/06 Q1007 BECMG FEW035","observationTime":"2026-03-26T08:50:00.000Z","flightCategory":"MVFR","latitude":39.619,"longitude":27.926},"LTBD":{"rawOb":"METAR LTBD 260850Z 10006KT 060V130 CAVOK 16/07 Q1004","observationTime":"2026-03-26T08:50:00.000Z","flightCategory":"VFR","latitude":37.816,"longitude":27.886},"LTAY":{"rawOb":"METAR LTAY 260850Z 10009KT 9999 SCT030 09/03 Q1005 NOSIG","observationTime":"2026-03-26T08:50:00.000Z","flightCategory":"VFR","latitude":37.785,"longitude":29.701},"LTAR":{"rawOb":"METAR LTAR 260850Z 08003KT 040V150 9999 -RA SCT008 BKN025 BKN070 03/01 Q1004","observationTime":"2026-03-26T08:50:00.000Z","flightCategory":"MVFR","latitude":39.798,"longitude":36.894},"EGNV":{"rawOb":"METAR EGNV 260850Z 28009KT 250V310 CAVOK 05/M03 Q1021","observationTime":"2026-03-26T08:50:00.000Z","flightCategory":"VFR","latitude":54.511,"longitude":-1.418},"LTAP":{"rawOb":"METAR LTAP 260850Z 04010KT 9999 FEW020 BKN033 09/03 Q1005 NOSIG","observationTime":"2026-03-26T08:50:00.000Z","flightCategory":"VFR","latitude":40.826,"longitude":35.52},"LTAN":{"rawOb":"METAR LTAN 260850Z 36012KT 320V030 9999 BKN035 08/03 Q1005 NOSIG","observationTime":"2026-03-26T08:50:00.000Z","flightCategory":"VFR","latitude":37.979,"longitude":32.562},"LCEN":{"rawOb":"METAR LCEN 260850Z 31007KT 9999 FEW0CB BKN025 17/10 Q1002 NOSIG","observationTime":"2026-03-26T08:50:00.000Z","flightCategory":"MVFR","latitude":35.155,"longitude":33.496},"LTFB":{"rawOb":"METAR LTFB 260850Z 07008KT 040V110 CAVOK 16/05 Q1005","observationTime":"2026-03-26T08:50:00.000Z","flightCategory":"VFR","latitude":37.951,"longitude":27.333},"EDWE":{"rawOb":"METAR EDWE 260850Z AUTO 33015KT 9999 FEW047 06/M03 Q1012","observationTime":"2026-03-26T08:50:00.000Z","flightCategory":"VFR","latitude":53.388,"longitude":7.229},"EDVK":{"rawOb":"METAR EDVK 260850Z 29012KT 270V330 9999 FEW016 BKN020 03/M01 Q1011","observationTime":"2026-03-26T08:50:00.000Z","flightCategory":"MVFR","latitude":51.421,"longitude":9.388},"EDLV":{"rawOb":"METAR EDLV 260850Z 30011KT 280V360 9999 SCT018 BKN023 BKN028 05/00 Q1016","observationTime":"2026-03-26T08:50:00.000Z","flightCategory":"MVFR","latitude":51.602,"longitude":6.142},"EGNX":{"rawOb":"METAR EGNX 260850Z 32008KT 290V360 CAVOK 05/01 Q1022","observationTime":"2026-03-26T08:50:00.000Z","flightCategory":"VFR","latitude":52.833,"longitude":-1.333},"EDFM":{"rawOb":"METAR EDFM 260850Z 33010KT 300V360 9999 FEW023 SCT040 06/00 Q1014","observationTime":"2026-03-26T08:50:00.000Z","flightCategory":"VFR","latitude":49.474,"longitude":8.515},"EDFH":{"rawOb":"METAR EDFH 260850Z 32010KT 290V350 9999 SCT016 BKN021 02/M02 Q1013","observationTime":"2026-03-26T08:50:00.000Z","flightCategory":"MVFR","latitude":49.946,"longitude":7.265},"LTDB":{"rawOb":"METAR LTDB 260850Z 06005KT 360V110 9999 FEW035 SCT180 18/10 Q1001 NOSIG","observationTime":"2026-03-26T08:50:00.000Z","flightCategory":"VFR","latitude":36.8939,"longitude":35.07},"LTFM":{"rawOb":"METAR LTFM 260850Z 05008KT 9999 SCT015 BKN025 10/06 Q1007 NOSIG","observationTime":"2026-03-26T08:50:00.000Z","flightCategory":"MVFR","latitude":41.262,"longitude":28.74},"LTCW":{"rawOb":"METAR LTCW 260850Z 30005KT 9999 FEW010 SCT030 BKN070 04/M01 Q1005","observationTime":"2026-03-26T08:50:00.000Z","flightCategory":"VFR","latitude":37.55,"longitude":44.238},"LTFJ":{"rawOb":"METAR LTFJ 260850Z 19005KT 130V260 9999 BKN028 11/05 Q1007 NOSIG","observationTime":"2026-03-26T08:50:00.000Z","flightCategory":"MVFR","latitude":40.899,"longitude":29.309},"LTCR":{"rawOb":"METAR LTCR 260850Z 10014KT 9999 FEW010 SCT040 BKN100 15/09 Q1002","observationTime":"2026-03-26T08:50:00.000Z","flightCategory":"VFR","latitude":37.232,"longitude":40.638},"LTFE":{"rawOb":"METAR LTFE 260850Z 26006KT 230V300 9999 FEW035 17/10 Q1004 NOSIG","observationTime":"2026-03-26T08:50:00.000Z","flightCategory":"VFR","latitude":37.245,"longitude":27.673},"LTFC":{"rawOb":"METAR LTFC 260850Z VRB04KT 9999 SCT035 11/03 Q1005","observationTime":"2026-03-26T08:50:00.000Z","flightCategory":"VFR","latitude":37.855,"longitude":30.368},"LTCS":{"rawOb":"METAR LTCS 260850Z 12010KT 9000 -SHRA BKN010 BKN030 10/10 Q1003","observationTime":"2026-03-26T08:50:00.000Z","flightCategory":"MVFR","latitude":37.445,"longitude":38.904},"LTCG":{"rawOb":"METAR LTCG 260850Z 34004KT 310V020 9999 SCT009 BKN028 10/08 Q1008 NOSIG","observationTime":"2026-03-26T08:50:00.000Z","flightCategory":"MVFR","latitude":40.995,"longitude":39.782},"LTBS":{"rawOb":"METAR LTBS 260850Z 22008KT 9999 FEW030 18/08 Q1003 NOSIG","observationTime":"2026-03-26T08:50:00.000Z","flightCategory":"VFR","latitude":36.713,"longitude":28.793},"LTBR":{"rawOb":"METAR LTBR 260850Z VRB04KT 9999 FEW020 BKN035 12/05 Q1007 NOSIG","observationTime":"2026-03-26T08:50:00.000Z","flightCategory":"VFR","latitude":40.255,"longitude":29.562},"LTBJ":{"rawOb":"METAR LTBJ 260850Z 31006KT 270V360 CAVOK 15/05 Q1004 NOSIG","observationTime":"2026-03-26T08:50:00.000Z","flightCategory":"VFR","latitude":38.285,"longitude":27.155},"LTBA":{"rawOb":"METAR LTBA 260850Z 16006KT 130V190 9999 SCT035 12/05 Q1007","observationTime":"2026-03-26T08:50:00.000Z","flightCategory":"VFR","latitude":40.982,"longitude":28.821},"LTAZ":{"rawOb":"METAR LTAZ 260850Z 24003KT 200V290 9999 BKN027 08/02 Q1005","observationTime":"2026-03-26T08:50:00.000Z","flightCategory":"MVFR","latitude":38.771,"longitude":34.521},"LTAJ":{"rawOb":"METAR LTAJ 260850Z 05008KT 020V080 9999 FEW015 SCT040 BKN080 10/07 Q1002 NOSIG","observationTime":"2026-03-26T08:50:00.000Z","flightCategory":"VFR","latitude":36.947,"longitude":37.479},"LTAI":{"rawOb":"METAR LTAI 260850Z 35006KT 290V050 9999 FEW030 20/05 Q1002 NOSIG","observationTime":"2026-03-26T08:50:00.000Z","flightCategory":"VFR","latitude":36.9,"longitude":30.798},"LTAF":{"rawOb":"METAR LTAF 260850Z 02006KT 310V080 9999 SCT035 BKN100 18/09 Q1001 NOSIG","observationTime":"2026-03-26T08:50:00.000Z","flightCategory":"VFR","latitude":36.989,"longitude":35.293},"LTAC":{"rawOb":"METAR LTAC 260850Z 04006KT 010V090 9999 SCT026 BKN100 07/01 Q1005 NOSIG","observationTime":"2026-03-26T08:50:00.000Z","flightCategory":"VFR","latitude":40.128,"longitude":32.995},"LOWK":{"rawOb":"METAR LOWK 260850Z AUTO 26003KT 220V300 9999 FEW034 BKN070 04/02 Q1001 TEMPO FM1000 01015G25KT","observationTime":"2026-03-26T08:50:00.000Z","flightCategory":"VFR","latitude":46.648,"longitude":14.318},"LOWG":{"rawOb":"METAR LOWG 260850Z AUTO 34013KT 300V360 9999 FEW044 OVC050 08/M00 Q1000 TEMPO 35025G35KT","observationTime":"2026-03-26T08:50:00.000Z","flightCategory":"VFR","latitude":46.997,"longitude":15.447},"LTCP":{"rawOb":"METAR LTCP 260850Z 08016KT 9999 SCT015 BKN033 BKN080 12/08 Q1003","observationTime":"2026-03-26T08:50:00.000Z","flightCategory":"VFR","latitude":37.731,"longitude":38.469},"EGPC":{"rawOb":"METAR EGPC 260850Z 27013KT 9999 -SHRASN FEW012CB BKN030 02/M01 Q1017","observationTime":"2026-03-26T08:50:00.000Z","flightCategory":"MVFR","latitude":58.459,"longitude":-3.093},"LOWI":{"rawOb":"METAR LOWI 260850Z 11004KT 060V160 1500 -SHSN FEW003 SCT008 BKN015 01/M00 Q1008 RESN TEMPO 2500 SHSN BKN008","observationTime":"2026-03-26T08:50:00.000Z","flightCategory":"LIFR","latitude":47.26,"longitude":11.344},"LOWS":{"rawOb":"METAR LOWS 260850Z 30008KT 8000 -RA FEW006 SCT009 BKN013 03/02 Q1008 BECMG BKN030","observationTime":"2026-03-26T08:50:00.000Z","flightCategory":"MVFR","latitude":47.789,"longitude":13.009},"EGPE":{"rawOb":"METAR EGPE 260850Z 24009KT 9999 FEW034 04/M01 Q1019","observationTime":"2026-03-26T08:50:00.000Z","flightCategory":"VFR","latitude":57.538,"longitude":-4.053},"EGPL":{"rawOb":"METAR EGPL 260850Z 19011KT 9999 FEW016 OVC040 06/03 Q1017","observationTime":"2026-03-26T08:50:00.000Z","flightCategory":"VFR","latitude":57.475,"longitude":-7.364},"EGPN":{"rawOb":"METAR EGPN 260850Z 27009KT CAVOK 04/M02 Q1020","observationTime":"2026-03-26T08:50:00.000Z","flightCategory":"VFR","latitude":56.453,"longitude":-3.026},"EGPO":{"rawOb":"METAR EGPO 260850Z 00000KT 9999 VCSH FEW022 SCT049 05/00 Q1016","observationTime":"2026-03-26T08:50:00.000Z","flightCategory":"VFR","latitude":58.215,"longitude":-6.329},"EGPU":{"rawOb":"METAR EGPU 260850Z 20010KT 9999 BKN049 06/04 Q1019","observationTime":"2026-03-26T08:50:00.000Z","flightCategory":"VFR","latitude":56.499,"longitude":-6.872},"CYYC":{"rawOb":"SPECI CYYC 260850Z 06007KT 1SM R35L/P6000FT/N R11/P6000FT/N R35R/P6000FT/D -SN VV010 M12/M14 A3010 RMK SN8 VIS S 21/2 SLP267","observationTime":"2026-03-26T08:50:00.000Z","flightCategory":"IFR","latitude":51.116,"longitude":-114.011},"LTCO":{"rawOb":"METAR LTCO 260850Z VRB01KT 9999 FEW035 SCT070 05/01 Q1005","observationTime":"2026-03-26T08:50:00.000Z","flightCategory":"VFR","latitude":39.654,"longitude":43.026},"LOWL":{"rawOb":"METAR LOWL 260850Z AUTO 31011KT 9999 FEW028 SCT032 BKN038 05/M01 Q1007 NOSIG","observationTime":"2026-03-26T08:50:00.000Z","flightCategory":"VFR","latitude":48.233,"longitude":14.188},"LTCM":{"rawOb":"METAR LTCM 260850Z 27004KT 230V320 9999 FEW010 BKN030 11/05 Q1009","observationTime":"2026-03-26T08:50:00.000Z","flightCategory":"MVFR","latitude":42.019,"longitude":35.072},"LOWW":{"rawOb":"METAR LOWW 260850Z 34018KT 9999 -RA FEW011 BKN015 05/03 Q1002 NOSIG","observationTime":"2026-03-26T08:50:00.000Z","flightCategory":"MVFR","latitude":48.117,"longitude":16.582},"LIPO":{"rawOb":"METAR LIPO 260850Z AUTO VRB02KT 9999 BKN085/// 09/04 Q0997","observationTime":"2026-03-26T08:50:00.000Z","flightCategory":"VFR","latitude":45.429,"longitude":10.331},"BGKK":{"rawOb":"METAR BGKK 260850Z AUTO 04021G43KT 010V070 2800NDV -SN BKN031/// M06/M13 Q0997","observationTime":"2026-03-26T08:50:00.000Z","flightCategory":"null","latitude":65.575,"longitude":-37.133},"EDLN":{"rawOb":"METAR EDLN 260850Z 30017G27KT 9999 -RA FEW020 BKN023 04/01 Q1016","observationTime":"2026-03-26T08:50:00.000Z","flightCategory":"MVFR","latitude":51.23,"longitude":6.504},"EDHL":{"rawOb":"METAR EDHL 260850Z 27011KT 230V290 9999 SCT016 06/02 Q1007","observationTime":"2026-03-26T08:50:00.000Z","flightCategory":"VFR","latitude":53.805,"longitude":10.719},"EDGS":{"rawOb":"METAR EDGS 260850Z 30015KT 9999 VCSH FEW005 BKN008 BKN021 00/M01 Q1011","observationTime":"2026-03-26T08:50:00.000Z","flightCategory":"IFR","latitude":50.708,"longitude":8.083},"EDBC":{"rawOb":"METAR EDBC 260850Z AUTO 30014KT 260V320 9999 SCT023 BKN028 05/M00 Q1009","observationTime":"2026-03-26T08:50:00.000Z","flightCategory":"MVFR","latitude":51.856,"longitude":11.42},"EDAC":{"rawOb":"METAR EDAC 260850Z 30010KT 9999 SCT019 BKN037 04/M00 Q1010","observationTime":"2026-03-26T08:50:00.000Z","flightCategory":"VFR","latitude":50.982,"longitude":12.506},"ENSB":{"rawOb":"METAR ENSB 260850Z 11007KT 9999 FEW030 M12/M16 Q1003 NOSIG RMK WIND 1400FT 06004KT","observationTime":"2026-03-26T08:50:00.000Z","flightCategory":"VFR","latitude":78.246,"longitude":15.466},"ENRY":{"rawOb":"METAR ENRY 260850Z 32009KT CAVOK 08/M05 Q0994 NOSIG","observationTime":"2026-03-26T08:50:00.000Z","flightCategory":"VFR","latitude":59.381,"longitude":10.783},"ENHD":{"rawOb":"METAR ENHD 260850Z 34019G30KT 9999 VCSH FEW015CB SCT029 06/01 Q1003","observationTime":"2026-03-26T08:50:00.000Z","flightCategory":"VFR","latitude":59.341,"longitude":5.22},"ENCN":{"rawOb":"METAR ENCN 260850Z 31012KT 280V340 CAVOK 07/M05 Q0998","observationTime":"2026-03-26T08:50:00.000Z","flightCategory":"VFR","latitude":58.2,"longitude":8.077},"ENAL":{"rawOb":"METAR ENAL 260850Z 31014KT 9999 VCSH SCT017 BKN050 05/02 Q0999","observationTime":"2026-03-26T08:50:00.000Z","flightCategory":"VFR","latitude":62.562,"longitude":6.115},"ENNO":{"rawOb":"METAR ENNO 260850Z 32005KT 9999 FEW043 08/M05 Q0966","observationTime":"2026-03-26T08:50:00.000Z","flightCategory":"VFR","latitude":59.565,"longitude":9.217},"FHAW":{"rawOb":"METAR FHAW 260850Z 15013KT 9999 FEW021 28/21 Q1011 TEMPO SCT020 RMK BLU TEMPO WHT","observationTime":"2026-03-26T08:50:00.000Z","flightCategory":"VFR","latitude":-7.97,"longitude":-14.394},"ENNM":{"rawOb":"METAR ENNM 260850Z 00000KT 9999 SCT020 03/M01 Q0988","observationTime":"2026-03-26T08:50:00.000Z","flightCategory":"VFR","latitude":64.471,"longitude":11.57},"ENMH":{"rawOb":"METAR ENMH 260850Z AUTO VRB02KT 9999 -SN BKN020/// 02/M01 Q0990","observationTime":"2026-03-26T08:50:00.000Z","flightCategory":"MVFR","latitude":71.029,"longitude":27.829},"EVGA":{"rawOb":"METAR EVGA 260850Z 22008KT CAVOK 08/01 Q1002 NOSIG","observationTime":"2026-03-26T08:50:00.000Z","flightCategory":"VFR","latitude":56.778,"longitude":24.854},"EYVI":{"rawOb":"METAR EYVI 260850Z VRB02KT CAVOK 09/M00 Q1003 NOSIG","observationTime":"2026-03-26T08:50:00.000Z","flightCategory":"VFR","latitude":54.634,"longitude":25.286},"EVRA":{"rawOb":"METAR EVRA 260850Z 21010KT 180V250 9999 FEW024 08/01 Q1002 NOSIG","observationTime":"2026-03-26T08:50:00.000Z","flightCategory":"VFR","latitude":56.924,"longitude":23.968},"EYPA":{"rawOb":"METAR EYPA 260850Z 21009KT 180V240 9999 FEW020 05/01 Q1003","observationTime":"2026-03-26T08:50:00.000Z","flightCategory":"VFR","latitude":55.973,"longitude":21.092},"EKYT":{"rawOb":"SPECI EKYT 260850Z AUTO 29017G28KT 9999 BKN022/// 05/01 Q0999","observationTime":"2026-03-26T08:50:00.000Z","flightCategory":"MVFR","latitude":57.093,"longitude":9.879},"ENHV":{"rawOb":"METAR ENHV 260850Z AUTO 08010KT 9999 FEW019/// OVC036/// 02/M02 Q0990","observationTime":"2026-03-26T08:50:00.000Z","flightCategory":"VFR","latitude":71.009,"longitude":25.982},"EYKA":{"rawOb":"METAR EYKA 260850Z VRB01KT 9999 -RA SCT028 BKN032 OVC042 05/04 Q1004","observationTime":"2026-03-26T08:50:00.000Z","flightCategory":"VFR","latitude":54.962,"longitude":24.069},"EETN":{"rawOb":"METAR EETN 260850Z 20014KT 9999 FEW030 08/00 Q0998 NOSIG","observationTime":"2026-03-26T08:50:00.000Z","flightCategory":"VFR","latitude":59.413,"longitude":24.801},"ENBS":{"rawOb":"METAR ENBS 260850Z AUTO 03006KT 1700 -SN FEW003/// SCT008/// BKN023/// 00/M01 Q0989","observationTime":"2026-03-26T08:50:00.000Z","flightCategory":"IFR","latitude":70.601,"longitude":29.698},"ENSS":{"rawOb":"METAR ENSS 260850Z 09016KT 9000 -RA BKN005 02/01 Q0989 RMK WIND 0500FT VRB14G28KT","observationTime":"2026-03-26T08:50:00.000Z","flightCategory":"IFR","latitude":70.355,"longitude":31.044},"ENSR":{"rawOb":"METAR ENSR 260850Z 14002KT 9999 VCSH FEW016 SCT025 BKN032 02/M01 Q0987 RMK WIND RWY 32 13001KT WIND 1119FT 06002KT","observationTime":"2026-03-26T08:50:00.000Z","flightCategory":"VFR","latitude":69.789,"longitude":20.955},"ENSG":{"rawOb":"METAR ENSG 260850Z 24011KT 200V300 9999 -SHSN FEW012 SCT026 BKN044 01/M04 Q0997 RMK WIND 3806FT 28033KT","observationTime":"2026-03-26T08:50:00.000Z","flightCategory":"VFR","latitude":61.158,"longitude":7.141},"ENSD":{"rawOb":"METAR ENSD 260850Z 29009KT 240V360 6000 -SHSNRA FEW004 SCT010 BKN019 02/M01 Q1001 RMK WIND RWY 26 VRB07KT WIND 1126FT 25006G20KT","observationTime":"2026-03-26T08:50:00.000Z","flightCategory":"MVFR","latitude":61.829,"longitude":6.104},"ENOV":{"rawOb":"METAR ENOV 260850Z 23008KT 170V270 9999 -SHRASN SCT015 BKN020 03/M00 Q1000 RMK WIND RWY 24 24005KT WIND 2090FT /////KT","observationTime":"2026-03-26T08:50:00.000Z","flightCategory":"MVFR","latitude":62.18,"longitude":6.078},"LTFO":{"rawOb":"METAR LTFO 260850Z 29003KT 240V320 9999 SCT012 BKN035 11/09 Q1007","observationTime":"2026-03-26T08:50:00.000Z","flightCategory":"VFR","latitude":41.179,"longitude":40.845},"EGNJ":{"rawOb":"METAR EGNJ 260850Z AUTO 32012KT 9999 NCD 05/M02 Q1021","observationTime":"2026-03-26T08:50:00.000Z","flightCategory":"VFR","latitude":53.58,"longitude":-0.341},"EGNM":{"rawOb":"METAR EGNM 260850Z 28007KT 220V320 CAVOK 03/M03 Q1021","observationTime":"2026-03-26T08:50:00.000Z","flightCategory":"VFR","latitude":53.862,"longitude":-1.665},"EGNT":{"rawOb":"METAR EGNT 260850Z 28012KT CAVOK 04/M02 Q1021","observationTime":"2026-03-26T08:50:00.000Z","flightCategory":"VFR","latitude":55.037,"longitude":-1.702},"LTFH":{"rawOb":"METAR LTFH 260850Z 31006KT 280V340 2700 -SHRA BR BKN006 BKN020 09/08 Q1008 BECMG 8000 SCT008 BKN028","observationTime":"2026-03-26T08:50:00.000Z","flightCategory":"IFR","latitude":41.255,"longitude":36.567},"LTFG":{"rawOb":"METAR LTFG 260850Z 24007KT 210V270 9999 FEW030 SCT080 17/09 Q1003","observationTime":"2026-03-26T08:50:00.000Z","flightCategory":"VFR","latitude":36.299,"longitude":32.3},"LTFD":{"rawOb":"METAR LTFD 260850Z 07015KT 9999 FEW035 13/06 Q1006","observationTime":"2026-03-26T08:50:00.000Z","flightCategory":"VFR","latitude":39.559,"longitude":27.025},"LTDA":{"rawOb":"METAR LTDA 260850Z 03009KT 9999 SCT035 BKN100 16/10 Q1001 NOSIG 4CU035 6AC100","observationTime":"2026-03-26T08:50:00.000Z","flightCategory":"VFR","latitude":36.361,"longitude":36.283},"LTCV":{"rawOb":"METAR LTCV 260850Z 32005KT 280V350 9999 SCT030 BKN080 13/08 Q1002","observationTime":"2026-03-26T08:50:00.000Z","flightCategory":"VFR","latitude":37.365,"longitude":42.06},"LTCT":{"rawOb":"METAR LTCT 260850Z 36004KT 260V070 7000 FEW011 SCT025 BKN070 13/07 Q1004","observationTime":"2026-03-26T08:50:00.000Z","flightCategory":"MVFR","latitude":39.977,"longitude":43.878},"ETHA":{"rawOb":"SPECI ETHA 260850Z 36010KT 2000 SHSN BKN008 OVC060 01/M00 Q1009 YLO BLU TEMPO YLO","observationTime":"2026-03-26T08:50:00.000Z","flightCategory":"IFR","latitude":47.834,"longitude":10.867},"LTCN":{"rawOb":"METAR LTCN 260850Z 28006KT 240V300 9999 FEW015 BKN030 BKN090 11/08 Q1003 RESHRA","observationTime":"2026-03-26T08:50:00.000Z","flightCategory":"MVFR","latitude":37.539,"longitude":36.953},"LTCI":{"rawOb":"METAR LTCI 260850Z 28009KT 9999 FEW015 SCT030 BKN070 07/03 Q1004 NOSIG","observationTime":"2026-03-26T08:50:00.000Z","flightCategory":"VFR","latitude":38.469,"longitude":43.337},"LTCF":{"rawOb":"METAR LTCF 260850Z 06006KT 030V100 9999 SCT035 BKN070 07/03 Q1006 NOSIG","observationTime":"2026-03-26T08:50:00.000Z","flightCategory":"VFR","latitude":40.562,"longitude":43.115},"LTCD":{"rawOb":"METAR LTCD 260850Z 19003KT 130V280 9999 SCT040 BKN080 11/04 Q1003 BECMG 12012KT","observationTime":"2026-03-26T08:50:00.000Z","flightCategory":"VFR","latitude":39.71,"longitude":39.527},"LTCB":{"rawOb":"METAR LTCB 260850Z 31005KT 9999 SCT012 BKN028 10/09 Q1008 NOSIG","observationTime":"2026-03-26T08:50:00.000Z","flightCategory":"MVFR","latitude":40.967,"longitude":38.081},"LTCA":{"rawOb":"METAR LTCA 260850Z 07009KT 9999 -SHRA BKN033 BKN090 09/06 Q1004 NOSIG","observationTime":"2026-03-26T08:50:00.000Z","flightCategory":"VFR","latitude":38.607,"longitude":39.291},"LTBY":{"rawOb":"METAR LTBY 260850Z VRB04KT 9999 FEW017 SCT030 10/03 Q1006","observationTime":"2026-03-26T08:50:00.000Z","flightCategory":"VFR","latitude":39.81,"longitude":30.519},"ESKS":{"rawOb":"METAR ESKS 260850Z 35013KT 310V020 9999 FEW029 BKN045 BKN100 03/M01 Q0989","observationTime":"2026-03-26T08:50:00.000Z","flightCategory":"VFR","latitude":61.165,"longitude":12.834},"KVPS":{"rawOb":"SPECI KVPS 260850Z AUTO 00000KT 2 3/4SM BR OVC003 14/13 A3011 RMK AO2 VIS 2 3/4V10 VIS 7/8 RWY20 CIG 002 RWY20 SLP203 $","observationTime":"2026-03-26T08:50:00.000Z","flightCategory":"LIFR","latitude":30.483,"longitude":-86.526},"EDDS":{"rawOb":"METAR EDDS 260850Z AUTO 32013KT 290V350 9999 SCT019 BKN026 BKN042 04/M01 Q1012 NOSIG","observationTime":"2026-03-26T08:50:00.000Z","flightCategory":"MVFR","latitude":48.69,"longitude":9.222},"EDDN":{"rawOb":"METAR EDDN 260850Z AUTO 32011KT 9999 FEW019 BKN035 05/01 Q1011 NOSIG","observationTime":"2026-03-26T08:50:00.000Z","flightCategory":"VFR","latitude":49.503,"longitude":11.055},"EDDM":{"rawOb":"METAR EDDM 260850Z AUTO 34012KT 9999 SCT021 BKN031 05/M00 Q1009 NOSIG","observationTime":"2026-03-26T08:50:00.000Z","flightCategory":"VFR","latitude":48.348,"longitude":11.813},"EDDL":{"rawOb":"METAR EDDL 260850Z AUTO 32014KT 9999 VCSH SCT024 BKN037 FEW///CB 06/M01 Q1015 TEMPO SHRA BKN020CB","observationTime":"2026-03-26T08:50:00.000Z","flightCategory":"VFR","latitude":51.296,"longitude":6.769},"EDDK":{"rawOb":"METAR EDDK 260850Z AUTO 31015KT 9999 SCT022 BKN032 BKN049 06/00 Q1015 NOSIG","observationTime":"2026-03-26T08:50:00.000Z","flightCategory":"VFR","latitude":50.865,"longitude":7.157},"EDDF":{"rawOb":"METAR EDDF 260850Z AUTO 30011KT 270V330 9999 SCT028 BKN041 BKN048 06/M01 Q1014 NOSIG","observationTime":"2026-03-26T08:50:00.000Z","flightCategory":"VFR","latitude":50.045,"longitude":8.598},"EDDR":{"rawOb":"METAR EDDR 260850Z AUTO 30009KT 270V330 9999 SCT017 SCT031 BKN040 04/00 Q1015 NOSIG","observationTime":"2026-03-26T08:50:00.000Z","flightCategory":"VFR","latitude":49.213,"longitude":7.108},"EDDP":{"rawOb":"METAR EDDP 260850Z AUTO 30012KT 9999 FEW021 BKN032 BKN039 05/00 Q1010 NOSIG","observationTime":"2026-03-26T08:50:00.000Z","flightCategory":"VFR","latitude":51.435,"longitude":12.24},"EDDE":{"rawOb":"METAR EDDE 260850Z AUTO 32014KT 290V350 9999 SCT025 BKN042 BKN048 04/M02 Q1010 NOSIG","observationTime":"2026-03-26T08:50:00.000Z","flightCategory":"VFR","latitude":50.983,"longitude":10.961},"EDDC":{"rawOb":"METAR EDDC 260850Z AUTO 31010KT 280V340 9999 BKN018 BKN024 OVC032 04/M00 Q1009 NOSIG","observationTime":"2026-03-26T08:50:00.000Z","flightCategory":"MVFR","latitude":51.128,"longitude":13.7543},"EDDB":{"rawOb":"METAR EDDB 260850Z AUTO 28014KT 9999 SCT021 BKN027 BKN031 06/00 Q1008 NOSIG","observationTime":"2026-03-26T08:50:00.000Z","flightCategory":"MVFR","latitude":52.3807,"longitude":13.5306},"BGSF":{"rawOb":"METAR BGSF 260850Z AUTO 24012KT 9999NDV BKN100/// BKN110/// M14/M18 Q0999","observationTime":"2026-03-26T08:50:00.000Z","flightCategory":"null","latitude":67.013,"longitude":-50.718},"BGGH":{"rawOb":"METAR BGGH 260850Z 35015KT 9999 -SN DRSN FEW017 BKN022 OVC025 M08/M12 Q1000","observationTime":"2026-03-26T08:50:00.000Z","flightCategory":"MVFR","latitude":64.191,"longitude":-51.677},"LSMA":{"rawOb":"METAR LSMA 260850Z 00000KT 0900 R01/1100VP2000D R19/1000N SN FEW002 BKN006 OVC008 00/M00 Q1014 RMK AMB","observationTime":"2026-03-26T08:50:00.000Z","flightCategory":"LIFR","latitude":46.943,"longitude":8.286},"BGJN":{"rawOb":"METAR BGJN 260850Z 06010KT 350V150 9999 DRSN BKN140 M12/M20 Q1000","observationTime":"2026-03-26T08:50:00.000Z","flightCategory":"VFR","latitude":69.24,"longitude":-51.064},"EKOD":{"rawOb":"METAR EKOD 260850Z AUTO 28018KT 9999 FEW036/// BKN041/// 05/M02 Q1004","observationTime":"2026-03-26T08:50:00.000Z","flightCategory":"VFR","latitude":55.475,"longitude":10.331},"LSMD":{"rawOb":"METAR LSMD 260850Z 33013KT 9999 FEW017 OVC056 03/M01 Q1013 RMK BLU","observationTime":"2026-03-26T08:50:00.000Z","flightCategory":"VFR","latitude":47.399,"longitude":8.648},"EKVD":{"rawOb":"METAR EKVD 260850Z 29018KT 9999 -SHRA FEW030TCU BKN034 05/M02 Q1005","observationTime":"2026-03-26T08:50:00.000Z","flightCategory":"VFR","latitude":55.436,"longitude":9.329},"LSME":{"rawOb":"METAR LSME 260850Z 27006KT 9999 FEW022 BKN055 BKN064 02/00 Q1014 RMK BLU","observationTime":"2026-03-26T08:50:00.000Z","flightCategory":"VFR","latitude":47.092,"longitude":8.305},"EFKT":{"rawOb":"METAR EFKT 260850Z AUTO 17007KT 9999 -RA OVC006 02/02 Q0983","observationTime":"2026-03-26T08:50:00.000Z","flightCategory":"IFR","latitude":67.701,"longitude":24.847},"EFKS":{"rawOb":"METAR EFKS 260850Z AUTO 18014KT 9999 SCT018 OVC047 04/01 Q0989","observationTime":"2026-03-26T08:50:00.000Z","flightCategory":"VFR","latitude":65.992,"longitude":29.236},"LSMM":{"rawOb":"METAR LSMM 260850Z AUTO 30006KT 270V340 1000NDV R10/0900V1300N R28/0600N SN FEW005 M00/M00 Q1013 RMK","observationTime":"2026-03-26T08:50:00.000Z","flightCategory":"LIFR","latitude":46.743,"longitude":8.11},"EFKI":{"rawOb":"METAR EFKI 260850Z AUTO 21015G28KT 170V240 9999 SCT035 08/M01 Q0991","observationTime":"2026-03-26T08:50:00.000Z","flightCategory":"VFR","latitude":64.283,"longitude":27.673},"LSMP":{"rawOb":"METAR LSMP 260850Z AUTO 01003KT 330V070 9999NDV -SHRASN BKN030 OVC055 03/M02 Q1015 RMK","observationTime":"2026-03-26T08:50:00.000Z","flightCategory":"null","latitude":46.844,"longitude":6.916},"EFKE":{"rawOb":"METAR EFKE 260850Z AUTO 17014KT 9999 -RA OVC019 04/01 Q0985","observationTime":"2026-03-26T08:50:00.000Z","flightCategory":"MVFR","latitude":65.784,"longitude":24.579},"EFET":{"rawOb":"METAR EFET 260850Z AUTO 08003KT 020V120 7000 -SN OVC008 01/00 Q0982","observationTime":"2026-03-26T08:50:00.000Z","flightCategory":"IFR","latitude":68.363,"longitude":23.424},"EKRN":{"rawOb":"METAR EKRN 260850Z 25019KT 9999 SCT040 05/03 Q1002","observationTime":"2026-03-26T08:50:00.000Z","flightCategory":"VFR","latitude":55.068,"longitude":14.749},"EFUT":{"rawOb":"METAR EFUT 260850Z 20015KT 9999 SCT030 08/00 Q0997","observationTime":"2026-03-26T08:50:00.000Z","flightCategory":"VFR","latitude":60.896,"longitude":26.938},"EKEB":{"rawOb":"METAR EKEB 260850Z AUTO 29019G29KT 260V320 9999 BKN035/// 04/M03 Q1006","observationTime":"2026-03-26T08:50:00.000Z","flightCategory":"VFR","latitude":55.528,"longitude":8.563},"EKBI":{"rawOb":"METAR EKBI 260850Z AUTO 30020KT 9999 BKN030/// 04/M02 Q1004","observationTime":"2026-03-26T08:50:00.000Z","flightCategory":"MVFR","latitude":55.74,"longitude":9.152},"EKAH":{"rawOb":"METAR EKAH 260850Z AUTO 28023G34KT 9999 BKN029/// 06/M01 Q1001","observationTime":"2026-03-26T08:50:00.000Z","flightCategory":"MVFR","latitude":56.3,"longitude":10.619},"EKRK":{"rawOb":"METAR EKRK 260850Z AUTO 29019KT 9999 OVC029/// 05/M02 Q1002","observationTime":"2026-03-26T08:50:00.000Z","flightCategory":"MVFR","latitude":55.587,"longitude":12.136},"EFJY":{"rawOb":"METAR EFJY 260850Z AUTO 19016KT 160V220 9999 FEW030 07/M01 Q0993","observationTime":"2026-03-26T08:50:00.000Z","flightCategory":"VFR","latitude":62.404,"longitude":25.675},"LTBH":{"rawOb":"METAR LTBH 260850Z 02007KT 350V050 CAVOK 12/06 Q1007","observationTime":"2026-03-26T08:50:00.000Z","flightCategory":"VFR","latitude":40.14,"longitude":26.425},"EFKU":{"rawOb":"METAR EFKU 260850Z AUTO 18018KT CAVOK 08/01 Q0994","observationTime":"2026-03-26T08:50:00.000Z","flightCategory":"VFR","latitude":63.008,"longitude":27.799},"EFSA":{"rawOb":"METAR EFSA 260850Z AUTO 19012KT 9999 BKN021 07/03 Q0997","observationTime":"2026-03-26T08:50:00.000Z","flightCategory":"MVFR","latitude":61.943,"longitude":28.945},"EFHA":{"rawOb":"METAR EFHA 260850Z 21013KT 170V230 9999 BKN024 06/M00 Q0994","observationTime":"2026-03-26T08:50:00.000Z","flightCategory":"MVFR","latitude":61.855,"longitude":24.805},"EFKK":{"rawOb":"METAR EFKK 260850Z AUTO 19021G33KT 9999 OVC014 05/02 Q0987","observationTime":"2026-03-26T08:50:00.000Z","flightCategory":"MVFR","latitude":63.721,"longitude":23.143},"EFPO":{"rawOb":"METAR EFPO 260850Z AUTO 19013KT 9999 BKN022 06/00 Q0992","observationTime":"2026-03-26T08:50:00.000Z","flightCategory":"MVFR","latitude":61.462,"longitude":21.8},"EFMI":{"rawOb":"METAR EFMI 260850Z AUTO 20012KT 170V230 9999 SCT029 08/00 Q0996","observationTime":"2026-03-26T08:50:00.000Z","flightCategory":"VFR","latitude":61.687,"longitude":27.201},"EFJO":{"rawOb":"METAR EFJO 260850Z AUTO 17012KT 9999 -SHRA NSC 07/03 Q0996","observationTime":"2026-03-26T08:50:00.000Z","flightCategory":"VFR","latitude":62.66,"longitude":29.611},"EFLP":{"rawOb":"METAR EFLP 260850Z AUTO 18006KT 150V210 9999 -SHRA OVC018 05/04 Q0998","observationTime":"2026-03-26T08:50:00.000Z","flightCategory":"MVFR","latitude":61.044,"longitude":28.151},"ESIA":{"rawOb":"METAR ESIA 260850Z 28010KT 250V310 9999 FEW025 FEW037 BKN080 06/02 Q0992","observationTime":"2026-03-26T08:50:00.000Z","flightCategory":"VFR","latitude":58.514,"longitude":14.507},"ENDR":{"rawOb":"METAR ENDR 260850Z AUTO 33045KT 9999NDV OVC013/// 04/02 Q0987 W///S6","observationTime":"2026-03-26T08:50:00.000Z","flightCategory":"null","latitude":64.349,"longitude":7.78},"EGGP":{"rawOb":"METAR EGGP 260850Z 31006KT 270V350 9999 FEW035 06/00 Q1023","observationTime":"2026-03-26T08:50:00.000Z","flightCategory":"VFR","latitude":53.334,"longitude":-2.85},"ENSH":{"rawOb":"METAR ENSH 260850Z 35016KT 9999 FEW035 05/M01 Q0986 RMK WIND 0150FT 36017KT","observationTime":"2026-03-26T08:50:00.000Z","flightCategory":"VFR","latitude":68.245,"longitude":14.669},"ENRA":{"rawOb":"METAR ENRA 260850Z 11003KT 9999 BKN067 02/M01 Q0985","observationTime":"2026-03-26T08:50:00.000Z","flightCategory":"VFR","latitude":66.364,"longitude":14.302},"ENHF":{"rawOb":"METAR ENHF 260850Z 08010KT 9999 FEW026 BKN049 01/M03 Q0988 RMK WIND RWY 04 09007KT WIND 1253FT 10019KT","observationTime":"2026-03-26T08:50:00.000Z","flightCategory":"VFR","latitude":70.681,"longitude":23.677},"ENBV":{"rawOb":"METAR ENBV 260850Z 11016KT 6000 -SNRA SCT003 BKN018 01/M00 Q0990","observationTime":"2026-03-26T08:50:00.000Z","flightCategory":"MVFR","latitude":70.871,"longitude":29.032},"ESCM":{"rawOb":"METAR ESCM 260850Z 22009KT 9999 BKN018 05/01 Q0990","observationTime":"2026-03-26T08:50:00.000Z","flightCategory":"MVFR","latitude":59.899,"longitude":17.589},"ENBN":{"rawOb":"METAR ENBN 260850Z 22007KT 9999 FEW015 06/03 Q0987","observationTime":"2026-03-26T08:50:00.000Z","flightCategory":"VFR","latitude":65.458,"longitude":12.216},"EDSB":{"rawOb":"METAR EDSB 260850Z 30005KT 240V340 9999 BKN020 BKN049 05/00 Q1015","observationTime":"2026-03-26T08:50:00.000Z","flightCategory":"MVFR","latitude":48.779,"longitude":8.081},"EDQM":{"rawOb":"METAR EDQM 260850Z AUTO 30008KT 250V340 9999 // FEW015/// SCT019/// OVC031/// 02/M01 Q1009","observationTime":"2026-03-26T08:50:00.000Z","flightCategory":"VFR","latitude":50.289,"longitude":11.86},"BGBW":{"rawOb":"METAR BGBW 260850Z AUTO 06003KT 9999NDV BKN100/// M03/M14 Q0993","observationTime":"2026-03-26T08:50:00.000Z","flightCategory":"null","latitude":61.164,"longitude":-45.42},"EGNH":{"rawOb":"METAR EGNH 260850Z 35007KT 320V020 9999 FEW024 06/00 Q1023","observationTime":"2026-03-26T08:50:00.000Z","flightCategory":"VFR","latitude":53.774,"longitude":-3.039},"EDNY":{"rawOb":"METAR EDNY 260850Z 31006KT 240V030 9999 FEW019 BKN022 OVC042 04/M00 Q1012","observationTime":"2026-03-26T08:50:00.000Z","flightCategory":"MVFR","latitude":47.671,"longitude":9.511},"EDMA":{"rawOb":"METAR EDMA 260850Z 33013KT 9999 -RA BKN014 BKN021 OVC039 03/00 Q1010","observationTime":"2026-03-26T08:50:00.000Z","flightCategory":"MVFR","latitude":48.425,"longitude":10.932},"EDLW":{"rawOb":"METAR EDLW 260850Z 27008KT 230V310 9999 BKN017 04/00 Q1014","observationTime":"2026-03-26T08:50:00.000Z","flightCategory":"MVFR","latitude":51.518,"longitude":7.612},"EDLP":{"rawOb":"METAR EDLP 260850Z 30009KT 250V340 9999 FEW012 BKN014 OVC018 03/M00 Q1012","observationTime":"2026-03-26T08:50:00.000Z","flightCategory":"MVFR","latitude":51.614,"longitude":8.616},"GMMH":{"rawOb":"SPECI GMMH 260849Z 02013KT 8000 SCT013 19/15 Q1014 NOSIG","observationTime":"2026-03-26T08:49:00.000Z","flightCategory":"MVFR","latitude":23.718,"longitude":-15.932},"ETND":{"rawOb":"SPECI ETND 260849Z 27011KT 7000 -SHRA BKN017 05/01 Q1012 BLACKWHT BLU+ TEMPO YLO","observationTime":"2026-03-26T08:49:00.000Z","flightCategory":"MVFR","latitude":52.588,"longitude":8.342},"CYNM":{"rawOb":"SPECI CYNM 260849Z AUTO 36005KT 9SM -SN FEW140 BKN210 M17/M19 A2979 RMK SLP118","observationTime":"2026-03-26T08:49:00.000Z","flightCategory":"VFR","latitude":49.759,"longitude":-77.793},"FAUT":{"rawOb":"SPECI FAUT 260849Z 18002KT 9999 FEW025 25/19 Q1016","observationTime":"2026-03-26T08:49:00.000Z","flightCategory":"VFR","latitude":-31.546,"longitude":28.673},"CYBR":{"rawOb":"SPECI CYBR 260849Z AUTO 35010G17KT 9SM -SN OVC050 M12/M15 A3015 RMK PRESRR SLP249","observationTime":"2026-03-26T08:49:00.000Z","flightCategory":"VFR","latitude":49.91,"longitude":-99.945},"KBKB":{"rawOb":"METAR KBKB 260849Z AUTO 00000KT 3/4SM BR CLR 14/14 A3005 RMK AO2 SLP202 T01440144 58002","observationTime":"2026-03-26T08:49:00.000Z","flightCategory":"LIFR","latitude":31.022,"longitude":-92.911},"KJDN":{"rawOb":"METAR KJDN 260848Z AUTO 02008KT M02/M06 A3008 RMK AO1 SLP199 T10221056 53012","observationTime":"2026-03-26T08:48:00.000Z","flightCategory":"null","latitude":47.3259,"longitude":-106.9488},"KNFJ":{"rawOb":"METAR KNFJ 260848Z AUTO 00000KT 10SM BKN005 14/13 A3013 RMK AO2 SLP207 T01390133 56010 $","observationTime":"2026-03-26T08:48:00.000Z","flightCategory":"IFR","latitude":30.512,"longitude":-86.954},"PAIW":{"rawOb":"SPECI PAIW 260848Z AUTO 18029KT 5SM UP BR BKN007 BKN044 OVC060 M07/M08 A3039 RMK AO2 PK WND 18035/0838 UPE02B31 CIG 004V009 P0000 FZRANO","observationTime":"2026-03-26T08:48:00.000Z","flightCategory":"IFR","latitude":65.621,"longitude":-168.093},"ETNN":{"rawOb":"SPECI ETNN 260848Z 29011KT 9999 SCT030 05/00 Q1015 BLU+BLU+ TEMPO GRN","observationTime":"2026-03-26T08:48:00.000Z","flightCategory":"VFR","latitude":50.829,"longitude":6.66},"CYBG":{"rawOb":"SPECI CYBG 260848Z 09016KT 1 1/2SM -SN DRSN OVC020 M10/M11 A2984 RMK SN5SC3 DENSITY ALT -2358FT VIS VRB 1-2 SLP119","observationTime":"2026-03-26T08:48:00.000Z","flightCategory":"IFR","latitude":48.331,"longitude":-70.989},"KMOB":{"rawOb":"SPECI KMOB 260848Z AUTO 00000KT 1/4SM FG VV004 14/14 A3013 RMK AO2 T01440144","observationTime":"2026-03-26T08:48:00.000Z","flightCategory":"LIFR","latitude":30.6882,"longitude":-88.2459},"PAHY":{"rawOb":"SPECI PAHY 260847Z AUTO 00000KT OVC009 00/M01 A3000 RMK AO2 CIG 005V012 P0006 PWINO FZRANO $","observationTime":"2026-03-26T08:47:00.000Z","flightCategory":"null","latitude":55.202,"longitude":-132.825},"CYKF":{"rawOb":"SPECI CYKF 260847Z AUTO 20002KT 6SM BR CLR M01/M02 A2975 RMK SLP088","observationTime":"2026-03-26T08:47:00.000Z","flightCategory":"VFR","latitude":43.462,"longitude":-80.386},"KNBG":{"rawOb":"SPECI KNBG 260847Z AUTO 20003KT 3/4SM VV017 17/17 A3009 RMK AO2 T01720172 $","observationTime":"2026-03-26T08:47:00.000Z","flightCategory":"LIFR","latitude":29.837,"longitude":-90.024},"KNRA":{"rawOb":"METAR KNRA 260846Z AUTO 19006KT 10SM FEW100 04/02 A3039 RMK AO2 SLP235 6//// T00390022 51031 TSNO PNO $","observationTime":"2026-03-26T08:46:00.000Z","flightCategory":"VFR","latitude":48.18,"longitude":-122.63},"CWPF":{"rawOb":"METAR CWPF 260845Z AUTO 23009KT 05/02 RMK AO1 SLP279 T00530015 53027","observationTime":"2026-03-26T08:45:00.000Z","flightCategory":"null","latitude":48.432,"longitude":-123.439},"K3L4":{"rawOb":"METAR K3L4 260845Z AUTO 19004KT 7SM CLR 19/19 A3007 RMK A01","observationTime":"2026-03-26T08:45:00.000Z","flightCategory":"VFR","latitude":29.8,"longitude":-92.804},"KGDK":{"rawOb":"METAR KGDK 260845Z AUTO 21009KT 10SM SCT110 16/10 A2990 RMK AO2","observationTime":"2026-03-26T08:45:00.000Z","flightCategory":"VFR","latitude":39.6935,"longitude":-83.9896},"K1BN":{"rawOb":"SPECI K1BN 260845Z AUTO 36015KT 10SM OVC007 M08/M10 A3003 RMK AO2 SNB20E35 CIG 005V008 SLP194 $","observationTime":"2026-03-26T08:45:00.000Z","flightCategory":"IFR","latitude":47.91,"longitude":-100.93},"KEGI":{"rawOb":"SPECI KEGI 260845Z AUTO 00000KT 1/2SM R18/2000V2400FT FG VV001 12/12 A3012 RMK AO2 SLP200 $","observationTime":"2026-03-26T08:45:00.000Z","flightCategory":"LIFR","latitude":30.653,"longitude":-86.525},"OKAS":{"rawOb":"SPECI OKAS 260845Z AUTO 16011KT 9000 BR CLR 19/17 A2962 RMK AO2 RAE30RAB33E45 PRESFR SLP028 $","observationTime":"2026-03-26T08:45:00.000Z","flightCategory":"VFR","latitude":29.347,"longitude":47.521},"LIRP":{"rawOb":"METAR LIRP 260845Z VRB02KT 9999 FEW030 SCT070 09/06 Q0996 NOSIG","observationTime":"2026-03-26T08:45:00.000Z","flightCategory":"VFR","latitude":43.684,"longitude":10.393},"LMML":{"rawOb":"METAR LMML 260845Z 25009KT 210V280 9999 FEW021 17/12 Q1008 NOSIG","observationTime":"2026-03-26T08:45:00.000Z","flightCategory":"VFR","latitude":35.858,"longitude":14.477},"KGVW":{"rawOb":"METAR KGVW 260845Z AUTO 11008KT 090V150 10SM CLR A3007 RMK A01","observationTime":"2026-03-26T08:45:00.000Z","flightCategory":"VFR","latitude":29.1303,"longitude":-94.5466},"KFGN":{"rawOb":"METAR KFGN 260844Z AUTO 03013KT 5SM BR BKN009 OVC015 M04/M06 RMK AO2","observationTime":"2026-03-26T08:44:00.000Z","flightCategory":"IFR","latitude":49.318,"longitude":-94.902},"KHFF":{"rawOb":"SPECI KHFF 260844Z AUTO 00000KT 10SM BKN036 14/12 A3016 RMK AO2 SLP215 $","observationTime":"2026-03-26T08:44:00.000Z","flightCategory":"VFR","latitude":35.0424,"longitude":-79.4973},"EGXC":{"rawOb":"SPECI EGXC 260843Z 31009KT CAVOK 05/M02 Q1021 NOSIG RMK BLU BLU","observationTime":"2026-03-26T08:43:00.000Z","flightCategory":"VFR","latitude":53.094,"longitude":-0.173},"MMSD":{"rawOb":"METAR MMSD 260843Z 00000KT 12SM SKC 21/13 A2989 RMK RTS","observationTime":"2026-03-26T08:43:00.000Z","flightCategory":"VFR","latitude":23.157,"longitude":-109.72},"UIII":{"rawOb":"SPECI UIII 260843Z 33009MPS 9999 FEW050CB 10/M03 Q1015 R30/65D NOSIG RMK QFE717/0956","observationTime":"2026-03-26T08:43:00.000Z","flightCategory":"VFR","latitude":52.273,"longitude":104.38},"RKSP":{"rawOb":"SPECI RKSP 260843Z 23005KT 0800 FG VV001 05/04 A2993 RMK CIG001","observationTime":"2026-03-26T08:43:00.000Z","flightCategory":"LIFR","latitude":37.962,"longitude":124.67},"CYYN":{"rawOb":"SPECI CYYN 260843Z AUTO 17003KT 110V180 9SM OVC010 M15/M17 A3014 RMK SLP275","observationTime":"2026-03-26T08:43:00.000Z","flightCategory":"MVFR","latitude":50.292,"longitude":-107.691},"ETSN":{"rawOb":"SPECI ETSN 260843Z 34010KT 9999 BKN015TCU BKN035 02/M00 Q1010 RESHGS WHT WHT TEMPO AMB","observationTime":"2026-03-26T08:43:00.000Z","flightCategory":"MVFR","latitude":48.71,"longitude":11.21},"RJTY":{"rawOb":"SPECI RJTY 260842Z 04006KT 10SM -RA BKN016 OVC022 12/10 A2990 RMK AO2A RAE0755DZB0758E07RAB15E28DZB28E30RAB30E31RAB36 CIG 014V020 SLP130 $","observationTime":"2026-03-26T08:42:00.000Z","flightCategory":"MVFR","latitude":35.749,"longitude":139.349},"K1CN":{"rawOb":"SPECI K1CN 260842Z AUTO 01022KT 9SM OVC005 M07/M09 M RMK AO2 SNE0755SNB30E42 SLPNO $","observationTime":"2026-03-26T08:42:00.000Z","flightCategory":"IFR","latitude":47.71,"longitude":-101.01},"CYVO":{"rawOb":"SPECI CYVO 260842Z AUTO 33006KT 9SM OVC005 M05/M06 A2969 RMK SLP080","observationTime":"2026-03-26T08:42:00.000Z","flightCategory":"IFR","latitude":48.056,"longitude":-77.779},"KMIB":{"rawOb":"SPECI KMIB 260842Z 01014KT 9SM -SN OVC008 M08/M11 A3006 RMK PRESFR SLP203","observationTime":"2026-03-26T08:42:00.000Z","flightCategory":"IFR","latitude":48.4062,"longitude":-101.3413},"CBBC":{"rawOb":"SPECI CBBC 260841Z AUTO 15005KT 9SM SCT006 SCT036 BKN120 OVC150 01/01 A3020 RMK SLP229","observationTime":"2026-03-26T08:41:00.000Z","flightCategory":"VFR","latitude":52.181,"longitude":-128.154},"ETHC":{"rawOb":"SPECI ETHC 260841Z 26011KT 9999 BKN016 SCT040 05/00 Q1010 WHT BLU+ TEMPO GRN","observationTime":"2026-03-26T08:41:00.000Z","flightCategory":"MVFR","latitude":52.591,"longitude":10.022},"KXER":{"rawOb":"METAR KXER 260840Z AUTO 17007KT 9SM SCT023 SCT038 A3010 RMK A01","observationTime":"2026-03-26T08:40:00.000Z","flightCategory":"VFR","latitude":27.946,"longitude":-90.997},"MMZC":{"rawOb":"METAR MMZC 260840Z E00000KT 8SM SKC 11/M03 A3025 RMK RTS","observationTime":"2026-03-26T08:40:00.000Z","flightCategory":"VFR","latitude":22.904,"longitude":-102.68},"KQFW":{"rawOb":"METAR KQFW 260840Z AUTO 20006G13KT 9999 CLR 19/M03 A2971 RMK A02 TSNO","observationTime":"2026-03-26T08:40:00.000Z","flightCategory":"VFR","latitude":-99.99,"longitude":-99.99},"KBQX":{"rawOb":"METAR KBQX 260840Z AUTO 17011KT 10SM 22/22 A3009 RMK A01","observationTime":"2026-03-26T08:40:00.000Z","flightCategory":"VFR","latitude":28.314,"longitude":-95.62},"KGUL":{"rawOb":"METAR KGUL 260840Z AUTO 15005KT 8SM CLR 23/16 A3006 RMK A01","observationTime":"2026-03-26T08:40:00.000Z","flightCategory":"VFR","latitude":27.3039,"longitude":-93.5383},"KDIK":{"rawOb":"SPECI KDIK 260840Z AUTO 35015G20KT 10SM SCT012 BKN095 OVC110 M01/M03 A2997 RMK AO2 T10111028","observationTime":"2026-03-26T08:40:00.000Z","flightCategory":"VFR","latitude":46.7997,"longitude":-102.7971},"CWWU":{"rawOb":"SPECI CWWU 260840Z 22012KT 8SM -SHSN DRSN BKN028 BKN032 M02/M05 A3023 RMK SC6SC1 SLP239","observationTime":"2026-03-26T08:40:00.000Z","flightCategory":"MVFR","latitude":47.516,"longitude":-52.98},"PKWA":{"rawOb":"METAR PKWA 260840Z AUTO 14013KT 5SM RA SCT006 SCT034 BKN046 24/23 A2981 RMK AO2 P0020 T02440232","observationTime":"2026-03-26T08:40:00.000Z","flightCategory":"MVFR","latitude":8.72,"longitude":167.724},"CYET":{"rawOb":"SPECI CYET 260840Z AUTO 36006KT 2 1/2SM -SN OVC026 M15/M18 A3023 RMK SLP319","observationTime":"2026-03-26T08:40:00.000Z","flightCategory":"IFR","latitude":53.58,"longitude":-116.455},"CYOW":{"rawOb":"SPECI CYOW 260840Z 09007KT 3SM BR BKN003 OVC045 M01/M02 A2976 RMK SF5SC3 SLP085","observationTime":"2026-03-26T08:40:00.000Z","flightCategory":"LIFR","latitude":45.307,"longitude":-75.66},"CZPC":{"rawOb":"SPECI CZPC 260840Z AUTO 09008KT 1SM -SN SCT004 OVC014 M08/M10 A3001 RMK SLP235","observationTime":"2026-03-26T08:40:00.000Z","flightCategory":"IFR","latitude":49.522,"longitude":-114.005},"KPBH":{"rawOb":"METAR KPBH 260840Z AUTO 00000KT 10SM OVC120 02/M01 A2972 RMK AO2 T00201012","observationTime":"2026-03-26T08:40:00.000Z","flightCategory":"VFR","latitude":45.7064,"longitude":-90.4052},"ETIC":{"rawOb":"SPECI ETIC 260840Z AUTO 30008KT 9999 FEW012 FEW018 OVC038 03/01 A2979 RMK AO2 SLP101","observationTime":"2026-03-26T08:40:00.000Z","flightCategory":"VFR","latitude":49.696,"longitude":11.941},"K1DN":{"rawOb":"SPECI K1DN 260840Z AUTO 02017G22KT 6SM BR OVC004 M07/M08 A2999 RMK AO2 SNE0755SNB29E40 PRESFR SLP178 $","observationTime":"2026-03-26T08:40:00.000Z","flightCategory":"LIFR","latitude":47.8,"longitude":-101.3},"KPAM":{"rawOb":"SPECI KPAM 260840Z AUTO 04004KT 2 3/4SM BR CLR 16/15 A3010 RMK AO2 VIS 1 1/4V3 SLP196 $","observationTime":"2026-03-26T08:40:00.000Z","flightCategory":"IFR","latitude":30.071,"longitude":-85.577},"KMCC":{"rawOb":"METAR KMCC 260840Z AUTO 15006KT 10SM CLR 14/11 A3001 RMK AO2","observationTime":"2026-03-26T08:40:00.000Z","flightCategory":"VFR","latitude":38.678,"longitude":-121.403},"CYWG":{"rawOb":"SPECI CYWG 260840Z 36016G23KT 15SM -SN OVC014 M09/M11 A3005 RMK SC8 PRESFR SLP196","observationTime":"2026-03-26T08:40:00.000Z","flightCategory":"MVFR","latitude":49.916,"longitude":-97.249},"KSBD":{"rawOb":"METAR KSBD 260840Z AUTO 00000KT 10SM CLR 17/09 A2997 RMK AO2 T01690091","observationTime":"2026-03-26T08:40:00.000Z","flightCategory":"VFR","latitude":34.09,"longitude":-117.247},"EBFS":{"rawOb":"SPECI EBFS 260840Z 30007KT 9000 SCT006 BKN012 03/02 Q1017 BLACKYLO YLO BECMG GRN","observationTime":"2026-03-26T08:40:00.000Z","flightCategory":"MVFR","latitude":50.243,"longitude":4.646},"ETAD":{"rawOb":"SPECI ETAD 260840Z AUTO 32007KT 9999 BKN022 BKN030 OVC036 03/M01 A2995 RMK AO2 CIG 022V029 SLP144 $","observationTime":"2026-03-26T08:40:00.000Z","flightCategory":"MVFR","latitude":49.979,"longitude":6.698},"ETIH":{"rawOb":"SPECI ETIH 260840Z AUTO 31005KT 9999 SCT019 SCT024 OVC037 04/M00 A2981 RMK AO2 SLP106 $","observationTime":"2026-03-26T08:40:00.000Z","flightCategory":"VFR","latitude":49.216,"longitude":11.839},"KXNX":{"rawOb":"METAR KXNX 260840Z AUTO 19004KT 10SM SCT048 OVC055 17/12 A3007 RMK A01","observationTime":"2026-03-26T08:40:00.000Z","flightCategory":"VFR","latitude":36.3745,"longitude":-86.41},"KPOE":{"rawOb":"SPECI KPOE 260840Z AUTO 20004KT 9SM OVC003 18/17 A3007 RMK AO2 SLP183","observationTime":"2026-03-26T08:40:00.000Z","flightCategory":"LIFR","latitude":31.047,"longitude":-93.194},"KXMR":{"rawOb":"SPECI KXMR 260840Z AUTO 26003KT 4SM -RA BR SCT017 BKN026 21/19 A3006 RMK AO2 RAE0755DZB00E09RAB09 CIG 017V027 BKN V OVC CIG 021 RWY31 SLP182 $","observationTime":"2026-03-26T08:40:00.000Z","flightCategory":"MVFR","latitude":28.4674,"longitude":-80.5589},"KLUG":{"rawOb":"METAR KLUG 260840Z AUTO 18009KT 10SM FEW042 OVC055 17/12 A3006 RMK A01","observationTime":"2026-03-26T08:40:00.000Z","flightCategory":"VFR","latitude":35.5082,"longitude":-86.8055},"KUNU":{"rawOb":"METAR KUNU 260840Z AUTO 00000KT 10SM CLR 10/06 A2973 RMK AO2 T00970059 TSNO","observationTime":"2026-03-26T08:40:00.000Z","flightCategory":"VFR","latitude":43.4285,"longitude":-88.7017},"KVAF":{"rawOb":"METAR KVAF 260840Z 13011KT 4SM HZ SCT022 BKN030 22/18 A3007 RMK A01 WINDS UN-RELIABLE 350 TO 45 DEGREES","observationTime":"2026-03-26T08:40:00.000Z","flightCategory":"MVFR","latitude":27.3536,"longitude":-94.6253},"KOYE":{"rawOb":"METAR KOYE 260840Z AUTO 08006KT 8SM CLR 22/20 A3008 RMK A01","observationTime":"2026-03-26T08:40:00.000Z","flightCategory":"VFR","latitude":28.8669,"longitude":-90.4911},"KJSL":{"rawOb":"METAR KJSL 260840Z AUTO 12008KT 10SM CLR A3007 RMK A01","observationTime":"2026-03-26T08:40:00.000Z","flightCategory":"VFR","latitude":26.2367,"longitude":-91.2567},"KQEY":{"rawOb":"METAR KQEY 260840Z AUTO 25005KT 9999 CLR 20/M02 A2963 RMK A02 TSNO","observationTime":"2026-03-26T08:40:00.000Z","flightCategory":"VFR","latitude":-99.99,"longitude":-99.99},"KNDZ":{"rawOb":"SPECI KNDZ 260839Z AUTO 00000KT 3/4SM BR VV002 14/14 A3013 RMK AO2 T01390139 $","observationTime":"2026-03-26T08:39:00.000Z","flightCategory":"LIFR","latitude":30.6973,"longitude":-87.0207},"K2V6":{"rawOb":"METAR K2V6 260839Z AUTO 22010KT 10SM CLR 15/01 A2977 RMK AO2","observationTime":"2026-03-26T08:39:00.000Z","flightCategory":"VFR","latitude":40.1047,"longitude":-102.7128},"LIRT":{"rawOb":"SPECI LIRT 260839Z AUTO 24019G35KT 200V300 //// // ///////// 05/M02 Q0994 RMK ///","observationTime":"2026-03-26T08:39:00.000Z","flightCategory":"null","latitude":41.047,"longitude":15.233},"CYPO":{"rawOb":"SPECI CYPO 260839Z AUTO 28004KT 9SM BKN016 M31/M34 A3011 RMK SLP210","observationTime":"2026-03-26T08:39:00.000Z","flightCategory":"MVFR","latitude":54.988,"longitude":-85.439},"KORH":{"rawOb":"SPECI KORH 260839Z AUTO 23010KT 10SM SCT024 OVC095 03/02 A2997 RMK AO2 T00330022 $","observationTime":"2026-03-26T08:39:00.000Z","flightCategory":"VFR","latitude":42.2706,"longitude":-71.8731},"YSTW":{"rawOb":"SPECI YSTW 260838Z AUTO 24021G31KT 9999 // OVC100 23/15 Q1008","observationTime":"2026-03-26T08:38:00.000Z","flightCategory":"VFR","latitude":-31.084,"longitude":150.847},"KMRT":{"rawOb":"METAR KMRT 260838Z AUTO 10SM CLR 13/08 A2989 RMK AO2","observationTime":"2026-03-26T08:38:00.000Z","flightCategory":"VFR","latitude":40.2237,"longitude":-83.3474},"KSAW":{"rawOb":"METAR KSAW 260838Z AUTO 03004KT 1 1/4SM BR BKN001 M01/M01 A2972 RMK AO2 PRESFR VIS 1V2","observationTime":"2026-03-26T08:38:00.000Z","flightCategory":"LIFR","latitude":46.341,"longitude":-87.395},"K1KN":{"rawOb":"SPECI K1KN 260838Z AUTO 01012KT 10SM -SN OVC005 M09/M11 A3005 RMK AO2 SNB38 SLP207 $","observationTime":"2026-03-26T08:38:00.000Z","flightCategory":"IFR","latitude":48.55,"longitude":-102.12},"KCAR":{"rawOb":"SPECI KCAR 260837Z AUTO 11006KT 2 1/2SM -SN BR BKN020 BKN026 OVC034 M05/M07 A2997 RMK AO2 P0002 T10501067","observationTime":"2026-03-26T08:37:00.000Z","flightCategory":"IFR","latitude":46.8705,"longitude":-68.0172},"KS24":{"rawOb":"METAR KS24 260837Z AUTO 21009KT 10SM CLR 13/07 A2985 RMK AO2","observationTime":"2026-03-26T08:37:00.000Z","flightCategory":"VFR","latitude":41.296,"longitude":-83.037},"K1A5":{"rawOb":"METAR K1A5 260837Z AUTO 00000KT 10SM SCT050 OVC070 08/07 A3024 RMK AO2","observationTime":"2026-03-26T08:37:00.000Z","flightCategory":"VFR","latitude":35.2228,"longitude":-83.415},"UMKK":{"rawOb":"SPECI UMKK 260837Z 26005MPS 230V290 9999 BKN021 07/02 Q1004 R24/290063 NOSIG RMK QFE752/1003","observationTime":"2026-03-26T08:37:00.000Z","flightCategory":"MVFR","latitude":54.885,"longitude":20.583},"YWLM":{"rawOb":"SPECI YWLM 260836Z AUTO 27018G28KT 250V330 9999 // FEW060 SCT070 BKN100 26/17 Q1004","observationTime":"2026-03-26T08:36:00.000Z","flightCategory":"VFR","latitude":-32.794,"longitude":151.836},"CYCY":{"rawOb":"SPECI CYCY 260836Z AUTO 30027KT 3/8SM SN BLSN OVC023 M25/M29 A2975 RMK SLP081","observationTime":"2026-03-26T08:36:00.000Z","flightCategory":"LIFR","latitude":70.484,"longitude":-68.515},"YGEL":{"rawOb":"SPECI YGEL 260836Z AUTO 09017G27KT 9999 // OVC089 29/17 Q1011","observationTime":"2026-03-26T08:36:00.000Z","flightCategory":"VFR","latitude":-28.805,"longitude":114.699},"KP33":{"rawOb":"METAR KP33 260836Z AUTO 00000KT 10SM CLR 10/M07 A3009 RMK AO2","observationTime":"2026-03-26T08:36:00.000Z","flightCategory":"VFR","latitude":32.245,"longitude":-109.895},"KBCT":{"rawOb":"METAR KBCT 260836Z AUTO 25002KT 10SM FEW033 SCT039 20/17 A3008 RMK AO2","observationTime":"2026-03-26T08:36:00.000Z","flightCategory":"VFR","latitude":26.379,"longitude":-80.106},"KPIM":{"rawOb":"METAR KPIM 260836Z AUTO 15005KT 10SM FEW021 15/15 A3017 RMK AO2","observationTime":"2026-03-26T08:36:00.000Z","flightCategory":"VFR","latitude":32.8421,"longitude":-84.8766},"KAXS":{"rawOb":"METAR KAXS 260836Z AUTO 13006KT CLR 18/14 A2988 RMK AO2","observationTime":"2026-03-26T08:36:00.000Z","flightCategory":"null","latitude":34.6963,"longitude":-99.3402},"KI69":{"rawOb":"METAR KI69 260836Z AUTO 20005KT 10SM SCT110 17/10 A2996 RMK AO1 T01700100","observationTime":"2026-03-26T08:36:00.000Z","flightCategory":"VFR","latitude":39.078,"longitude":-84.21},"OEJN":{"rawOb":"SPECI OEJN 260836Z 35026KT 5000 BLDU BKN040 23/13 Q1009 NOSIG","observationTime":"2026-03-26T08:36:00.000Z","flightCategory":"MVFR","latitude":21.685,"longitude":39.166},"KPHN":{"rawOb":"METAR KPHN 260836Z AUTO 00000KT 10SM CLR 07/M00 A2979 RMK AO2","observationTime":"2026-03-26T08:36:00.000Z","flightCategory":"VFR","latitude":42.9103,"longitude":-82.5332},"KSXU":{"rawOb":"METAR KSXU 260836Z AUTO 13012KT 10SM CLR 16/M04 A2997 RMK AO2","observationTime":"2026-03-26T08:36:00.000Z","flightCategory":"VFR","latitude":34.9355,"longitude":-104.6366},"KAMN":{"rawOb":"METAR KAMN 260836Z AUTO 12003KT 10SM CLR 04/00 A2976 RMK AO2","observationTime":"2026-03-26T08:36:00.000Z","flightCategory":"VFR","latitude":43.3209,"longitude":-84.6871},"KCVH":{"rawOb":"METAR KCVH 260835Z AUTO 00000KT 10SM CLR 11/07 A3009 RMK A01","observationTime":"2026-03-26T08:35:00.000Z","flightCategory":"VFR","latitude":36.892,"longitude":-121.4105},"SBFI":{"rawOb":"SPECI SBFI 260835Z 24003KT 3000 0500SE R33/0375D R15/P2000N PRFG BKN002 23/23 Q1012","observationTime":"2026-03-26T08:35:00.000Z","flightCategory":"LIFR","latitude":-25.595,"longitude":-54.488},"KEIK":{"rawOb":"METAR KEIK 260835Z AUTO 23006KT 10SM SCT130 SCT150 17/M02 A2983 RMK AO2 T01711017 $","observationTime":"2026-03-26T08:35:00.000Z","flightCategory":"VFR","latitude":40.0117,"longitude":-105.0503},"KHVE":{"rawOb":"METAR KHVE 260835Z AUTO 29006KT 10SM CLR 18/M05 A2993 RMK AO2","observationTime":"2026-03-26T08:35:00.000Z","flightCategory":"VFR","latitude":38.418,"longitude":-110.7041},"KCOM":{"rawOb":"METAR KCOM 260835Z AUTO 17007KT 10SM CLR 19/13 A2998 RMK AO2 T01900125","observationTime":"2026-03-26T08:35:00.000Z","flightCategory":"VFR","latitude":31.8415,"longitude":-99.4058},"KGDB":{"rawOb":"METAR KGDB 260835Z AUTO 36010KT 10SM -RA SCT080 OVC090 12/08 A2979 RMK AO2 T01160075","observationTime":"2026-03-26T08:35:00.000Z","flightCategory":"VFR","latitude":44.7521,"longitude":-95.5591},"KEMM":{"rawOb":"METAR KEMM 260835Z AUTO 29005KT 10SM CLR 08/M05 A3004 RMK AO2","observationTime":"2026-03-26T08:35:00.000Z","flightCategory":"VFR","latitude":41.8224,"longitude":-110.5555},"KRCV":{"rawOb":"METAR KRCV 260835Z AUTO 00000KT 10SM CLR 10/M02 A3019 RMK AO2 T01041024","observationTime":"2026-03-26T08:35:00.000Z","flightCategory":"VFR","latitude":37.7092,"longitude":-106.3549},"KLRJ":{"rawOb":"METAR KLRJ 260835Z AUTO 00000KT 10SM CLR 11/07 A2961 RMK AO2","observationTime":"2026-03-26T08:35:00.000Z","flightCategory":"VFR","latitude":42.7771,"longitude":-96.195},"KAVQ":{"rawOb":"METAR KAVQ 260835Z AUTO 12009KT 10SM CLR 21/M04 A2993 RMK AO2","observationTime":"2026-03-26T08:35:00.000Z","flightCategory":"VFR","latitude":32.4112,"longitude":-111.216},"KBDU":{"rawOb":"METAR KBDU 260835Z AUTO 35006KT 10SM CLR 17/M01 A2986 RMK AO2","observationTime":"2026-03-26T08:35:00.000Z","flightCategory":"VFR","latitude":40.0377,"longitude":-105.2274},"KLUL":{"rawOb":"METAR KLUL 260835Z AUTO 19005KT 10SM OVC010 18/17 A3013 RMK A02 T01830169","observationTime":"2026-03-26T08:35:00.000Z","flightCategory":"MVFR","latitude":31.6682,"longitude":-89.1705},"KF00":{"rawOb":"METAR KF00 260835Z AUTO 18012G18KT 10SM CLR 20/15 A2997 RMK AO2","observationTime":"2026-03-26T08:35:00.000Z","flightCategory":"VFR","latitude":33.6158,"longitude":-96.1809},"KHII":{"rawOb":"METAR KHII 260835Z AUTO 00000KT 10SM CLR 28/M00 A2981 RMK AO2","observationTime":"2026-03-26T08:35:00.000Z","flightCategory":"VFR","latitude":34.5659,"longitude":-114.3522},"KLUM":{"rawOb":"METAR KLUM 260835Z AUTO 36004KT 10SM SCT110 09/02 A2970 RMK AO2 T00910019 PWINO","observationTime":"2026-03-26T08:35:00.000Z","flightCategory":"VFR","latitude":44.8936,"longitude":-91.8666},"KPEZ":{"rawOb":"METAR KPEZ 260835Z AUTO 16006KT 10SM OVC018 21/17 A3004 RMK AO2 T02060171","observationTime":"2026-03-26T08:35:00.000Z","flightCategory":"MVFR","latitude":28.9561,"longitude":-98.5184},"KPNA":{"rawOb":"METAR KPNA 260835Z AUTO 28005KT 10SM BKN120 01/M05 A3001 RMK AO2","observationTime":"2026-03-26T08:35:00.000Z","flightCategory":"VFR","latitude":42.7929,"longitude":-109.8051},"KSVC":{"rawOb":"METAR KSVC 260835Z AUTO 32013KT 10SM CLR 16/M12 A3010 RMK AO2 T01551121","observationTime":"2026-03-26T08:35:00.000Z","flightCategory":"VFR","latitude":32.631,"longitude":-108.1466},"KVHN":{"rawOb":"METAR KVHN 260835Z AUTO 22010KT 10SM CLR 19/03 A3004 RMK AO2 T01920026","observationTime":"2026-03-26T08:35:00.000Z","flightCategory":"VFR","latitude":31.0602,"longitude":-104.7832},"KGHB":{"rawOb":"METAR KGHB 260835Z AUTO 13005KT 10SM CLR 23/16 A3009 RMK A01","observationTime":"2026-03-26T08:35:00.000Z","flightCategory":"VFR","latitude":27.8403,"longitude":-91.9878},"KMLE":{"rawOb":"METAR KMLE 260835Z AUTO 12004KT 10SM CLR 16/08 A2966 RMK AO2 T01560083","observationTime":"2026-03-26T08:35:00.000Z","flightCategory":"VFR","latitude":41.1981,"longitude":-96.1131},"KONL":{"rawOb":"METAR KONL 260835Z AUTO 23017G21KT 10SM CLR 21/03 A2961 RMK AO2 T02100030","observationTime":"2026-03-26T08:35:00.000Z","flightCategory":"VFR","latitude":42.4691,"longitude":-98.6903},"KFLY":{"rawOb":"METAR KFLY 260835Z AUTO 27003KT 10SM CLR 12/M02 A3000 RMK AO2 T01181020","observationTime":"2026-03-26T08:35:00.000Z","flightCategory":"VFR","latitude":38.9439,"longitude":-104.5684},"KANK":{"rawOb":"METAR KANK 260835Z AUTO 22011KT 10SM CLR 15/M03 A3008 RMK AO2 T01521034 $","observationTime":"2026-03-26T08:35:00.000Z","flightCategory":"VFR","latitude":38.538,"longitude":-106.049},"KAQX":{"rawOb":"METAR KAQX 260835Z AUTO 00000KT 3SM BR CLR 11/11 A3018 RMK AO2","observationTime":"2026-03-26T08:35:00.000Z","flightCategory":"MVFR","latitude":32.9941,"longitude":-81.271},"KBEC":{"rawOb":"METAR KBEC 260835Z AUTO 21014G18KT 10SM CLR 21/15 A2982 RMK AO2 T02060150","observationTime":"2026-03-26T08:35:00.000Z","flightCategory":"VFR","latitude":37.694,"longitude":-97.215},"KOQN":{"rawOb":"METAR KOQN 260835Z AUTO 21004KT 10SM CLR 08/04 A3002 RMK AO2","observationTime":"2026-03-26T08:35:00.000Z","flightCategory":"VFR","latitude":39.9889,"longitude":-75.5803},"KC65":{"rawOb":"METAR KC65 260835Z AUTO 00000KT 10SM BKN060 BKN085 08/08 A2981 RMK A01","observationTime":"2026-03-26T08:35:00.000Z","flightCategory":"VFR","latitude":41.3636,"longitude":-86.2998},"KCAV":{"rawOb":"METAR KCAV 260835Z AUTO 15008KT 10SM CLR 11/10 A2967 RMK A01","observationTime":"2026-03-26T08:35:00.000Z","flightCategory":"VFR","latitude":42.743,"longitude":-93.7592},"KCCO":{"rawOb":"METAR KCCO 260835Z AUTO 00000KT 10SM CLR 11/10 A3018 RMK AO2 T01100100","observationTime":"2026-03-26T08:35:00.000Z","flightCategory":"VFR","latitude":33.3107,"longitude":-84.7713},"KCGE":{"rawOb":"METAR KCGE 260835Z AUTO 19009G16KT 10SM 13/09 A3007 RMK A01","observationTime":"2026-03-26T08:35:00.000Z","flightCategory":"VFR","latitude":38.5371,"longitude":-76.0309},"KCNC":{"rawOb":"METAR KCNC 260835Z AUTO 21008KT 10SM CLR 14/11 A2969 RMK AO2","observationTime":"2026-03-26T08:35:00.000Z","flightCategory":"VFR","latitude":41.0185,"longitude":-93.3608},"KBBG":{"rawOb":"METAR KBBG 260835Z AUTO 21007KT 10SM 20/14 A2994 RMK AO2","observationTime":"2026-03-26T08:35:00.000Z","flightCategory":"VFR","latitude":36.5259,"longitude":-93.1969},"KPBX":{"rawOb":"METAR KPBX 260835Z AUTO 18005KT 10SM BKN050 18/06 A3006 RMK AO2 T01760061","observationTime":"2026-03-26T08:35:00.000Z","flightCategory":"VFR","latitude":37.5587,"longitude":-82.5674},"K82C":{"rawOb":"METAR K82C 260835Z AUTO 00000KT 7SM CLR 06/06 A2967 RMK AO2 T00550055","observationTime":"2026-03-26T08:35:00.000Z","flightCategory":"VFR","latitude":43.8385,"longitude":-90.1345},"KBVN":{"rawOb":"METAR KBVN 260835Z AUTO 20005KT 10SM CLR 18/06 A2966 RMK AO2 T01770055","observationTime":"2026-03-26T08:35:00.000Z","flightCategory":"VFR","latitude":41.7302,"longitude":-98.0546},"KCCY":{"rawOb":"METAR KCCY 260835Z AUTO 14006KT 10SM CLR 11/08 A2968 RMK AO2","observationTime":"2026-03-26T08:35:00.000Z","flightCategory":"VFR","latitude":43.073,"longitude":-92.6132},"KFXY":{"rawOb":"METAR KFXY 260835Z AUTO 00000KT 10SM CLR 06/05 A2967 RMK AO2","observationTime":"2026-03-26T08:35:00.000Z","flightCategory":"VFR","latitude":43.2323,"longitude":-93.6237},"KI95":{"rawOb":"METAR KI95 260835Z AUTO 22012G17KT 10SM FEW050 SCT060 15/08 A2986 RMK A01","observationTime":"2026-03-26T08:35:00.000Z","flightCategory":"VFR","latitude":40.6142,"longitude":-83.6374},"KIBM":{"rawOb":"METAR KIBM 260835Z AUTO 05003KT 10SM CLR 16/00 A2982 RMK AO2 T01631003","observationTime":"2026-03-26T08:35:00.000Z","flightCategory":"VFR","latitude":41.1894,"longitude":-103.6708},"KMPZ":{"rawOb":"METAR KMPZ 260835Z AUTO 19008KT 10SM CLR 15/11 A2968 RMK AO2","observationTime":"2026-03-26T08:35:00.000Z","flightCategory":"VFR","latitude":40.9453,"longitude":-91.5122},"KPRO":{"rawOb":"METAR KPRO 260835Z AUTO 19006KT 10SM BKN190 10/07 A2966 RMK AO2 T00960073","observationTime":"2026-03-26T08:35:00.000Z","flightCategory":"VFR","latitude":41.8278,"longitude":-94.1637},"KRPJ":{"rawOb":"METAR KRPJ 260835Z AUTO 15006KT 10SM CLR 09/05 A2975 RMK AO2 T00880050 TSNO","observationTime":"2026-03-26T08:35:00.000Z","flightCategory":"VFR","latitude":41.8906,"longitude":-89.0817},"KRSV":{"rawOb":"METAR KRSV 260835Z AUTO 23020G29KT 10SM SCT080 OVC095 21/13 A2983 RMK AO2 PK WND 23029/24 LTG DSNT SW AND W","observationTime":"2026-03-26T08:35:00.000Z","flightCategory":"VFR","latitude":39.0136,"longitude":-87.6484},"KPWD":{"rawOb":"METAR KPWD 260835Z AUTO 36014KT 9SM -SN OVC013 M11/M14 A3014 RMK AO2","observationTime":"2026-03-26T08:35:00.000Z","flightCategory":"MVFR","latitude":48.7912,"longitude":-104.5253},"KPZZ":{"rawOb":"METAR KPZZ 260835Z AUTO 17007KT 10SM FEW022 23/20 A3009 RMK A01","observationTime":"2026-03-26T08:35:00.000Z","flightCategory":"VFR","latitude":28.4344,"longitude":-91.0344},"K1V6":{"rawOb":"METAR K1V6 260835Z AUTO 30014KT 10SM CLR 16/M03 A2991 RMK AO1","observationTime":"2026-03-26T08:35:00.000Z","flightCategory":"VFR","latitude":38.4256,"longitude":-105.1048},"KRAS":{"rawOb":"METAR KRAS 260835Z AUTO 15009KT 10SM CLR 22/20 A3005 RMK AO2 T02180198","observationTime":"2026-03-26T08:35:00.000Z","flightCategory":"VFR","latitude":27.8084,"longitude":-97.0853},"K33V":{"rawOb":"METAR K33V 260835Z AUTO 21009KT 10SM SCT090 SCT110 10/M03 A3010 RMK AO1","observationTime":"2026-03-26T08:35:00.000Z","flightCategory":"VFR","latitude":40.7454,"longitude":-106.2754},"KADS":{"rawOb":"METAR KADS 260835Z AUTO 18007KT 160V220 10SM CLR 22/17 A2996 RMK AO2","observationTime":"2026-03-26T08:35:00.000Z","flightCategory":"VFR","latitude":32.9634,"longitude":-96.8354},"KBMC":{"rawOb":"METAR KBMC 260835Z AUTO 00000KT 10SM CLR 13/04 A2992 RMK AO2","observationTime":"2026-03-26T08:35:00.000Z","flightCategory":"VFR","latitude":41.5463,"longitude":-112.06},"KRQB":{"rawOb":"METAR KRQB 260835Z AUTO 23001KT 10SM CLR 03/M00 A2974 RMK AO2","observationTime":"2026-03-26T08:35:00.000Z","flightCategory":"VFR","latitude":43.722,"longitude":-85.498},"KELA":{"rawOb":"METAR KELA 260835Z AUTO 17004KT 4SM BR CLR 17/17 A3004 RMK AO2 T01650165","observationTime":"2026-03-26T08:35:00.000Z","flightCategory":"MVFR","latitude":29.602,"longitude":-96.3239},"KS31":{"rawOb":"METAR KS31 260835Z AUTO VRB06KT 10SM CLR 05/02 A3036 RMK AO2 T00520021","observationTime":"2026-03-26T08:35:00.000Z","flightCategory":"VFR","latitude":48.4854,"longitude":-122.9369},"KIKG":{"rawOb":"METAR KIKG 260835Z AUTO 13006KT 10SM BKN024 21/19 A3002 RMK AO2 T02050186","observationTime":"2026-03-26T08:35:00.000Z","flightCategory":"MVFR","latitude":27.5464,"longitude":-98.0292},"KS34":{"rawOb":"METAR KS34 260835Z AUTO 28022G30KT 10SM SCT028 BKN038 OVC090 07/M01 A3008 RMK AO2","observationTime":"2026-03-26T08:35:00.000Z","flightCategory":"VFR","latitude":47.4718,"longitude":-114.9009},"KLLN":{"rawOb":"METAR KLLN 260835Z AUTO 22010KT 10SM SCT050 17/07 A2998 RMK AO2","observationTime":"2026-03-26T08:35:00.000Z","flightCategory":"VFR","latitude":33.556,"longitude":-102.3751},"KSLR":{"rawOb":"METAR KSLR 260835Z AUTO 17008KT 10SM CLR 20/17 A3001 RMK AO2 T02030170 PWINO","observationTime":"2026-03-26T08:35:00.000Z","flightCategory":"VFR","latitude":33.1615,"longitude":-95.6189},"KAEG":{"rawOb":"METAR KAEG 260835Z AUTO 30007KT 10SM CLR 14/M04 A3008 RMK AO2 T01441045","observationTime":"2026-03-26T08:35:00.000Z","flightCategory":"VFR","latitude":35.15,"longitude":-106.7929},"KDUB":{"rawOb":"METAR KDUB 260835Z AUTO 29009KT 10SM CLR 05/M06 A2995 RMK AO2","observationTime":"2026-03-26T08:35:00.000Z","flightCategory":"VFR","latitude":43.5485,"longitude":-109.6839},"K2I0":{"rawOb":"METAR K2I0 260835Z AUTO 20005KT 10SM CLR 19/11 A2996 RMK AO2 T01900106","observationTime":"2026-03-26T08:35:00.000Z","flightCategory":"VFR","latitude":37.3582,"longitude":-87.3977},"KAYS":{"rawOb":"METAR KAYS 260835Z AUTO 00000KT 1 1/4SM BR OVC002 15/15 A3017 RMK AO2 T01530146","observationTime":"2026-03-26T08:35:00.000Z","flightCategory":"LIFR","latitude":31.2466,"longitude":-82.4014},"KLZZ":{"rawOb":"METAR KLZZ 260835Z AUTO 19007KT 10SM OVC015 19/16 A3001 RMK AO2","observationTime":"2026-03-26T08:35:00.000Z","flightCategory":"MVFR","latitude":31.1059,"longitude":-98.1975},"KSMS":{"rawOb":"METAR KSMS 260835Z AUTO 22003KT 8SM CLR 14/13 A3018 RMK AO2 PWINO","observationTime":"2026-03-26T08:35:00.000Z","flightCategory":"VFR","latitude":34.0003,"longitude":-80.3582},"KY23":{"rawOb":"METAR KY23 260835Z AUTO 00000KT 10SM BKN110 07/03 A2972 RMK AO2 T00650028","observationTime":"2026-03-26T08:35:00.000Z","flightCategory":"VFR","latitude":45.311,"longitude":-91.638},"K48I":{"rawOb":"METAR K48I 260835Z AUTO VRB03KT 10SM CLR 14/02 A3000 RMK AO2 T01400024 $","observationTime":"2026-03-26T08:35:00.000Z","flightCategory":"VFR","latitude":38.684,"longitude":-80.649},"KCKP":{"rawOb":"METAR KCKP 260835Z AUTO 18004KT 9SM CLR 11/07 A2966 RMK AO2","observationTime":"2026-03-26T08:35:00.000Z","flightCategory":"VFR","latitude":42.7304,"longitude":-95.5538},"KLVL":{"rawOb":"METAR KLVL 260835Z AUTO 19004KT 10SM SCT047 12/09 A3016 RMK AO1 T01210090","observationTime":"2026-03-26T08:35:00.000Z","flightCategory":"VFR","latitude":36.7723,"longitude":-77.7925},"KIZA":{"rawOb":"METAR KIZA 260835Z AUTO 00000KT 1/4SM FG OVC002 12/12 A3000 RMK AO2","observationTime":"2026-03-26T08:35:00.000Z","flightCategory":"LIFR","latitude":34.6059,"longitude":-120.0761},"KJZI":{"rawOb":"METAR KJZI 260835Z AUTO 00000KT 8SM CLR 12/12 A3018 RMK AO2","observationTime":"2026-03-26T08:35:00.000Z","flightCategory":"VFR","latitude":32.7025,"longitude":-80.0058},"KPGV":{"rawOb":"METAR KPGV 260835Z AUTO 21005KT 10SM OVC060 13/10 A3018 RMK AO2","observationTime":"2026-03-26T08:35:00.000Z","flightCategory":"VFR","latitude":35.6374,"longitude":-77.3851},"KSPA":{"rawOb":"METAR KSPA 260835Z AUTO 00000KT 10SM CLR 10/06 A3018 RMK AO2","observationTime":"2026-03-26T08:35:00.000Z","flightCategory":"VFR","latitude":34.9106,"longitude":-81.9589},"KT82":{"rawOb":"METAR KT82 260835Z AUTO 18011G15KT 10SM OVC015 20/17 A3002 RMK AO2","observationTime":"2026-03-26T08:35:00.000Z","flightCategory":"MVFR","latitude":30.239,"longitude":-98.904},"KTIP":{"rawOb":"METAR KTIP 260835Z AUTO 18014G17KT 10SM SCT049 SCT065 OVC080 18/14 A2980 RMK AO2 LTG DSNT ALQS T01820142","observationTime":"2026-03-26T08:35:00.000Z","flightCategory":"VFR","latitude":40.291,"longitude":-88.146},"KTQK":{"rawOb":"METAR KTQK 260835Z AUTO 19011KT 10SM CLR 14/05 A2976 RMK AO2 T01370054","observationTime":"2026-03-26T08:35:00.000Z","flightCategory":"VFR","latitude":38.4782,"longitude":-100.8822},"KMKV":{"rawOb":"METAR KMKV 260835Z AUTO 00000KT 9SM CLR 14/14 A3010 RMK AO2 T01380136 $","observationTime":"2026-03-26T08:35:00.000Z","flightCategory":"VFR","latitude":31.0935,"longitude":-92.0723},"KTVY":{"rawOb":"METAR KTVY 260835Z AUTO 20006KT 10SM SCT120 13/00 A2993 RMK AO2","observationTime":"2026-03-26T08:35:00.000Z","flightCategory":"VFR","latitude":40.6127,"longitude":-112.3537},"KUES":{"rawOb":"METAR KUES 260835Z AUTO 00000KT 10SM CLR 09/06 A2974 RMK AO2","observationTime":"2026-03-26T08:35:00.000Z","flightCategory":"VFR","latitude":43.0425,"longitude":-88.2465},"KMNE":{"rawOb":"METAR KMNE 260835Z AUTO 00000KT 10SM CLR 18/15 A3005 RMK AO2","observationTime":"2026-03-26T08:35:00.000Z","flightCategory":"VFR","latitude":32.6433,"longitude":-93.2972},"KVDI":{"rawOb":"METAR KVDI 260835Z AUTO 12002KT 1 1/2SM BR OVC003 14/14 A3018 RMK AO2 VIS 3/4V5","observationTime":"2026-03-26T08:35:00.000Z","flightCategory":"LIFR","latitude":32.1933,"longitude":-82.3642},"KVGC":{"rawOb":"METAR KVGC 260835Z AUTO 15008KT 10SM -DZ SCT070 07/M01 A2986 RMK AO2","observationTime":"2026-03-26T08:35:00.000Z","flightCategory":"VFR","latitude":42.8444,"longitude":-75.5637},"KMTK":{"rawOb":"METAR KMTK 260835Z AUTO 11012G17KT 10SM BKN036 OVC042 22/20 A3008 RMK A01","observationTime":"2026-03-26T08:35:00.000Z","flightCategory":"VFR","latitude":28.6967,"longitude":-89.3958},"KX26":{"rawOb":"METAR KX26 260835Z AUTO 00000KT 10SM FEW034 OVC048 17/17 A3009 RMK AO2","observationTime":"2026-03-26T08:35:00.000Z","flightCategory":"VFR","latitude":27.813,"longitude":-80.497},"KAHQ":{"rawOb":"METAR KAHQ 260835Z AUTO 10003KT 10SM CLR 14/07 A2966 RMK AO2 T01350069","observationTime":"2026-03-26T08:35:00.000Z","flightCategory":"VFR","latitude":41.241,"longitude":-96.594},"KCDI":{"rawOb":"METAR KCDI 260835Z AUTO 20004KT 10SM BKN080 12/07 A2993 RMK AO2 T01190068","observationTime":"2026-03-26T08:35:00.000Z","flightCategory":"VFR","latitude":39.976,"longitude":-81.577},"KN03":{"rawOb":"METAR KN03 260835Z AUTO 00000KT 10SM BKN070 BKN090 OVC110 06/00 A2986 RMK AO2","observationTime":"2026-03-26T08:35:00.000Z","flightCategory":"VFR","latitude":42.5929,"longitude":-76.2174},"KFET":{"rawOb":"METAR KFET 260835Z AUTO 14007KT 10SM CLR 16/08 A2964 RMK AO2 T01600081","observationTime":"2026-03-26T08:35:00.000Z","flightCategory":"VFR","latitude":41.4489,"longitude":-96.5237},"KFOA":{"rawOb":"METAR KFOA 260835Z AUTO 20013KT 10SM SCT095 20/13 A2986 RMK AO2","observationTime":"2026-03-26T08:35:00.000Z","flightCategory":"VFR","latitude":38.6673,"longitude":-88.4527},"KGYY":{"rawOb":"METAR KGYY 260835Z AUTO 18004KT 10SM FEW050 FEW055 SCT070 12/10 A2977 RMK AO2","observationTime":"2026-03-26T08:35:00.000Z","flightCategory":"VFR","latitude":41.6121,"longitude":-87.4091},"KHHV":{"rawOb":"METAR KHHV 260835Z AUTO VRB06G12KT 10SM CLR 22/17 A3003 RMK A01","observationTime":"2026-03-26T08:35:00.000Z","flightCategory":"VFR","latitude":26.9392,"longitude":-94.6886},"KFZG":{"rawOb":"METAR KFZG 260835Z AUTO 00000KT 3/4SM OVC003 15/15 A3018 RMK AO2 T01500145","observationTime":"2026-03-26T08:35:00.000Z","flightCategory":"LIFR","latitude":31.684,"longitude":-83.2712},"KAIO":{"rawOb":"METAR KAIO 260835Z AUTO 00000KT 10SM CLR 10/08 A2967 RMK AO2","observationTime":"2026-03-26T08:35:00.000Z","flightCategory":"VFR","latitude":41.4059,"longitude":-95.0465},"KBCK":{"rawOb":"METAR KBCK 260835Z AUTO 00000KT 10SM CLR 05/04 A2968 RMK AO2 T00530043","observationTime":"2026-03-26T08:35:00.000Z","flightCategory":"VFR","latitude":44.2499,"longitude":-90.85},"KBUU":{"rawOb":"METAR KBUU 260835Z AUTO 00000KT 10SM CLR 06/04 A2974 RMK AO2 T00640041 PWINO","observationTime":"2026-03-26T08:35:00.000Z","flightCategory":"VFR","latitude":42.6908,"longitude":-88.308},"KCBE":{"rawOb":"METAR KCBE 260835Z AUTO 00000KT 10SM OVC070 09/01 A3002 RMK AO2 T00850007","observationTime":"2026-03-26T08:35:00.000Z","flightCategory":"VFR","latitude":39.6182,"longitude":-78.7598},"KHSD":{"rawOb":"METAR KHSD 260835Z AUTO 19012G17KT 10SM CLR 21/15 A2987 RMK A01","observationTime":"2026-03-26T08:35:00.000Z","flightCategory":"VFR","latitude":35.6018,"longitude":-97.7093},"KI75":{"rawOb":"METAR KI75 260835Z AUTO 20005KT 7SM CLR 14/09 A2971 RMK AO2 T01420090","observationTime":"2026-03-26T08:35:00.000Z","flightCategory":"VFR","latitude":41.0472,"longitude":-93.6876},"KI93":{"rawOb":"METAR KI93 260835Z AUTO 19009KT 10SM CLR 18/13 A2994 RMK AO2","observationTime":"2026-03-26T08:35:00.000Z","flightCategory":"VFR","latitude":37.7836,"longitude":-86.443},"K0D8":{"rawOb":"METAR K0D8 260835Z AUTO 02027G34KT 10SM CLR 09/04 A2977 RMK A01","observationTime":"2026-03-26T08:35:00.000Z","flightCategory":"VFR","latitude":44.989,"longitude":-99.954},"K1K8":{"rawOb":"METAR K1K8 260835Z AUTO 21010G20KT 10SM CLR 22/16 A2989 RMK AO2","observationTime":"2026-03-26T08:35:00.000Z","flightCategory":"VFR","latitude":36.543,"longitude":-95.012},"K1U7":{"rawOb":"METAR K1U7 260835Z AUTO VRB04KT 10SM CLR 02/00 A2998 RMK A01","observationTime":"2026-03-26T08:35:00.000Z","flightCategory":"VFR","latitude":42.252,"longitude":-111.337},"K27K":{"rawOb":"METAR K27K 260835Z AUTO 23006KT 10SM BKN120 BKN140 17/11 A2997 RMK AO2 T01710112","observationTime":"2026-03-26T08:35:00.000Z","flightCategory":"VFR","latitude":38.239,"longitude":-84.4336},"K2G2":{"rawOb":"METAR K2G2 260835Z AUTO 23008KT 10SM SCT033 BKN075 OVC110 15/04 A2990 RMK A01","observationTime":"2026-03-26T08:35:00.000Z","flightCategory":"VFR","latitude":40.359,"longitude":-80.7},"K3J1":{"rawOb":"METAR K3J1 260835Z AUTO 00000KT 4SM BR OVC002 11/11 A3017 RMK AO2","observationTime":"2026-03-26T08:35:00.000Z","flightCategory":"LIFR","latitude":32.4969,"longitude":-80.9947},"K3N8":{"rawOb":"METAR K3N8 260835Z AUTO 34012KT 7SM OVC005 M02/M02 A2989 RMK AO2 T10201020","observationTime":"2026-03-26T08:35:00.000Z","flightCategory":"IFR","latitude":47.26,"longitude":-95.928},"K49B":{"rawOb":"METAR K49B 260835Z AUTO 35008KT 10SM CLR 08/04 A2990 RMK AO2","observationTime":"2026-03-26T08:35:00.000Z","flightCategory":"VFR","latitude":44.4284,"longitude":-103.3799},"KMZJ":{"rawOb":"METAR KMZJ 260835Z AUTO 13005KT 10SM CLR 19/M03 A2994 RMK AO2","observationTime":"2026-03-26T08:35:00.000Z","flightCategory":"VFR","latitude":32.5147,"longitude":-111.3346},"KSUO":{"rawOb":"METAR KSUO 260835Z AUTO 35007G14KT 10SM CLR 12/01 A2975 RMK AO2","observationTime":"2026-03-26T08:35:00.000Z","flightCategory":"VFR","latitude":43.259,"longitude":-100.862},"KAPS":{"rawOb":"METAR KAPS 260835Z AUTO 00000KT 1/4SM FG OVC002 19/18 A3010 RMK AO2 T01880178","observationTime":"2026-03-26T08:35:00.000Z","flightCategory":"LIFR","latitude":30.086,"longitude":-90.584},"KC99":{"rawOb":"METAR KC99 260835Z AUTO 28011G19KT 250V310 10SM CLR 07/M04 A3025 RMK AO2","observationTime":"2026-03-26T08:35:00.000Z","flightCategory":"VFR","latitude":39.869,"longitude":-105.5534},"KETC":{"rawOb":"METAR KETC 260835Z AUTO 19003KT 7SM HZ OVC050 14/10 A3018 RMK AO2 T01350098","observationTime":"2026-03-26T08:35:00.000Z","flightCategory":"VFR","latitude":35.9363,"longitude":-77.5416},"KHHW":{"rawOb":"METAR KHHW 260835Z AUTO 19007KT 10SM CLR 18/15 A2997 RMK AO2","observationTime":"2026-03-26T08:35:00.000Z","flightCategory":"VFR","latitude":34.0308,"longitude":-95.5401},"KHQU":{"rawOb":"METAR KHQU 260835Z AUTO 00000KT 7SM CLR 11/10 A3024 RMK AO2","observationTime":"2026-03-26T08:35:00.000Z","flightCategory":"VFR","latitude":33.5279,"longitude":-82.518},"KGYF":{"rawOb":"METAR KGYF 260835Z AUTO 14014KT 10SM SCT024 SCT029 22/17 A3004 RMK AO2 PWINO T02220171","observationTime":"2026-03-26T08:35:00.000Z","flightCategory":"VFR","latitude":26.1292,"longitude":-94.8981},"KJES":{"rawOb":"METAR KJES 260835Z AUTO 00000KT 1/2SM FG OVC002 13/13 A3020 RMK AO2","observationTime":"2026-03-26T08:35:00.000Z","flightCategory":"LIFR","latitude":31.5521,"longitude":-81.8896},"KO05":{"rawOb":"METAR KO05 260835Z AUTO 28005KT 10SM FEW046 FEW050 05/02 A3015 RMK A01","observationTime":"2026-03-26T08:35:00.000Z","flightCategory":"VFR","latitude":40.2865,"longitude":-121.2427},"KRVF":{"rawOb":"METAR KRVF 260835Z AUTO 01021G28KT 10SM OVC090 04/M03 A2996 RMK AO2","observationTime":"2026-03-26T08:35:00.000Z","flightCategory":"VFR","latitude":45.534,"longitude":-112.303},"KSPK":{"rawOb":"METAR KSPK 260835Z AUTO 13004KT 10SM CLR 14/01 A2993 RMK AO2","observationTime":"2026-03-26T08:35:00.000Z","flightCategory":"VFR","latitude":40.1497,"longitude":-111.677},"KTMT":{"rawOb":"METAR KTMT 260835Z AUTO 00000KT 10SM CLR 01/M11 A3013 RMK AO2 T00131109","observationTime":"2026-03-26T08:35:00.000Z","flightCategory":"VFR","latitude":39.4643,"longitude":-117.1972},"KU52":{"rawOb":"METAR KU52 260835Z AUTO 15011KT 10SM -DZ FEW041 BKN050 BKN055 12/M04 A3005 RMK AO2","observationTime":"2026-03-26T08:35:00.000Z","flightCategory":"VFR","latitude":38.232,"longitude":-112.6725},"KOCW":{"rawOb":"METAR KOCW 260835Z AUTO 00000KT 10SM SCT050 BKN060 13/09 A3020 RMK AO2 T01250085","observationTime":"2026-03-26T08:35:00.000Z","flightCategory":"VFR","latitude":35.5703,"longitude":-77.05},"K2W6":{"rawOb":"METAR K2W6 260835Z AUTO 22010KT 180V250 10SM CLR 13/08 A3007 RMK AO2 T01270084 $","observationTime":"2026-03-26T08:35:00.000Z","flightCategory":"VFR","latitude":38.315,"longitude":-76.55},"KTNB":{"rawOb":"METAR KTNB 260835Z AUTO 00000KT 10SM SCT031 SCT039 SCT060 07/03 A3016 RMK AO2 T00700032","observationTime":"2026-03-26T08:35:00.000Z","flightCategory":"VFR","latitude":36.1988,"longitude":-81.6515},"KOAR":{"rawOb":"METAR KOAR 260835Z AUTO 23009KT 10SM CLR 10/08 A3009 RMK AO2","observationTime":"2026-03-26T08:35:00.000Z","flightCategory":"VFR","latitude":36.6815,"longitude":-121.7574},"K1H2":{"rawOb":"METAR K1H2 260835Z AUTO 18007KT 10SM OVC090 20/14 A2986 RMK AO2 T01950136","observationTime":"2026-03-26T08:35:00.000Z","flightCategory":"VFR","latitude":39.0712,"longitude":-88.5293},"K2P2":{"rawOb":"METAR K2P2 260835Z AUTO 00000KT 10SM SCT090 00/00 A2976 RMK AO2 T00001005","observationTime":"2026-03-26T08:35:00.000Z","flightCategory":"VFR","latitude":45.388,"longitude":-86.924},"KAFK":{"rawOb":"METAR KAFK 260835Z AUTO 19009KT 10SM CLR 16/09 A2968 RMK AO2 T01580085","observationTime":"2026-03-26T08:35:00.000Z","flightCategory":"VFR","latitude":40.6065,"longitude":-95.8635},"KAIG":{"rawOb":"METAR KAIG 260835Z AUTO 13006KT 10SM CLR 04/M01 A2972 RMK AO2 T00351014","observationTime":"2026-03-26T08:35:00.000Z","flightCategory":"VFR","latitude":45.1566,"longitude":-89.1115},"KDEH":{"rawOb":"METAR KDEH 260835Z AUTO 17005KT 9SM SCT016 SCT020 SCT025 11/08 A2967 RMK AO2","observationTime":"2026-03-26T08:35:00.000Z","flightCategory":"VFR","latitude":43.2755,"longitude":-91.7433},"KGBG":{"rawOb":"METAR KGBG 260835Z AUTO 15008KT 10SM CLR 16/12 A2973 RMK AO2 T01570121","observationTime":"2026-03-26T08:35:00.000Z","flightCategory":"VFR","latitude":40.9329,"longitude":-90.4334},"KIMS":{"rawOb":"METAR KIMS 260835Z AUTO 21005KT 10SM SCT095 SCT120 17/11 A2997 RMK AO2","observationTime":"2026-03-26T08:35:00.000Z","flightCategory":"VFR","latitude":38.7515,"longitude":-85.4689},"KAQO":{"rawOb":"METAR KAQO 260835Z AUTO 15005KT 10SM OVC017 20/17 A3002 RMK AO2","observationTime":"2026-03-26T08:35:00.000Z","flightCategory":"MVFR","latitude":30.7873,"longitude":-98.6608},"KOOA":{"rawOb":"METAR KOOA 260835Z AUTO 18006KT 10SM CLR 12/08 A2969 RMK AO2 T01170082","observationTime":"2026-03-26T08:35:00.000Z","flightCategory":"VFR","latitude":41.2273,"longitude":-92.4919},"KTAZ":{"rawOb":"METAR KTAZ 260835Z AUTO 19009KT 10SM CLR 17/13 A2980 RMK AO2","observationTime":"2026-03-26T08:35:00.000Z","flightCategory":"VFR","latitude":39.535,"longitude":-89.3294},"KASN":{"rawOb":"METAR KASN 260835Z AUTO 16003KT 10SM FEW043 15/13 A3013 RMK AO2","observationTime":"2026-03-26T08:35:00.000Z","flightCategory":"VFR","latitude":33.569,"longitude":-86.0519},"KAWG":{"rawOb":"METAR KAWG 260835Z AUTO 00000KT 10SM CLR 12/12 A2967 RMK AO2","observationTime":"2026-03-26T08:35:00.000Z","flightCategory":"VFR","latitude":41.2749,"longitude":-91.6745},"KAZE":{"rawOb":"METAR KAZE 260835Z AUTO 19003KT 1/4SM FG OVC002 14/14 A3018 RMK AO2 T01360136","observationTime":"2026-03-26T08:35:00.000Z","flightCategory":"LIFR","latitude":31.8792,"longitude":-82.6454},"KBBD":{"rawOb":"METAR KBBD 260835Z AUTO 15007KT 10SM CLR 17/14 A2998 RMK AO2","observationTime":"2026-03-26T08:35:00.000Z","flightCategory":"VFR","latitude":31.1766,"longitude":-99.3229},"KSLB":{"rawOb":"METAR KSLB 260835Z AUTO 20011KT 10SM CLR 13/07 A2968 RMK AO2","observationTime":"2026-03-26T08:35:00.000Z","flightCategory":"VFR","latitude":42.5972,"longitude":-95.2399},"KT20":{"rawOb":"METAR KT20 260835Z AUTO 18006KT BKN017 OVC023 22/19 A3003 RMK AO2 T02180185 PWINO","observationTime":"2026-03-26T08:35:00.000Z","flightCategory":"null","latitude":29.5301,"longitude":-97.463},"KT35":{"rawOb":"METAR KT35 260835Z AUTO 19011G20KT 10SM OVC021 21/17 A3003 RMK AO2 T02080168","observationTime":"2026-03-26T08:35:00.000Z","flightCategory":"MVFR","latitude":30.8789,"longitude":-96.9704},"KT74":{"rawOb":"METAR KT74 260835Z AUTO 18012KT 10SM OVC022 21/16 A3008 RMK AO2","observationTime":"2026-03-26T08:35:00.000Z","flightCategory":"MVFR","latitude":30.5704,"longitude":-97.4447},"KTKV":{"rawOb":"METAR KTKV 260835Z 10SM BKN120 00/M02 A2972 RMK AO2 T00041021 PWINO","observationTime":"2026-03-26T08:35:00.000Z","flightCategory":"VFR","latitude":45.469,"longitude":-89.805},"KZER":{"rawOb":"METAR KZER 260835Z AUTO 18007G10KT 10SM OVC070 06/00 A2996 RMK AO2","observationTime":"2026-03-26T08:35:00.000Z","flightCategory":"VFR","latitude":40.7072,"longitude":-76.371},"KCWA":{"rawOb":"METAR KCWA 260835Z AUTO 09003KT 10SM OVC120 08/05 A2971 RMK AO2","observationTime":"2026-03-26T08:35:00.000Z","flightCategory":"VFR","latitude":44.7795,"longitude":-89.671},"KCWV":{"rawOb":"METAR KCWV 260835Z AUTO 00000KT M1/4SM FG OVC001 11/11 A3018 RMK AO2","observationTime":"2026-03-26T08:35:00.000Z","flightCategory":"LIFR","latitude":32.193,"longitude":-81.873},"KCXU":{"rawOb":"METAR KCXU 260835Z AUTO 12002KT 7SM BR BKN006 14/14 A3016 RMK AO2","observationTime":"2026-03-26T08:35:00.000Z","flightCategory":"IFR","latitude":31.2142,"longitude":-84.2358},"KD25":{"rawOb":"METAR KD25 260835Z AUTO 13003KT 10SM DZ SCT049 SCT070 BKN110 02/M02 A2977 RMK AO2 T00221021","observationTime":"2026-03-26T08:35:00.000Z","flightCategory":"VFR","latitude":46.1204,"longitude":-89.88},"KDCY":{"rawOb":"METAR KDCY 260835Z AUTO 21011KT 10SM SCT080 SCT090 OVC110 20/12 A2988 RMK AO2 LTG DSNT N THRU E T01960115","observationTime":"2026-03-26T08:35:00.000Z","flightCategory":"VFR","latitude":38.6953,"longitude":-87.1314},"KDMW":{"rawOb":"METAR KDMW 260835Z AUTO 20008KT 10SM SCT080 BKN100 12/03 A3000 RMK AO2","observationTime":"2026-03-26T08:35:00.000Z","flightCategory":"VFR","latitude":39.61,"longitude":-77.007},"KDUC":{"rawOb":"METAR KDUC 260835Z AUTO 16008KT 10SM CLR 19/15 A2991 RMK AO2","observationTime":"2026-03-26T08:35:00.000Z","flightCategory":"VFR","latitude":34.4778,"longitude":-97.9616},"KDZB":{"rawOb":"METAR KDZB 260835Z AUTO 18009G16KT 7SM OVC015 21/17 A3001 RMK AO2 T02060168","observationTime":"2026-03-26T08:35:00.000Z","flightCategory":"MVFR","latitude":30.521,"longitude":-98.3574},"KDZJ":{"rawOb":"METAR KDZJ 260835Z AUTO 36003KT 10SM CLR 09/07 A3019 RMK AO2 T00920068","observationTime":"2026-03-26T08:35:00.000Z","flightCategory":"VFR","latitude":34.8552,"longitude":-84.0014},"KEOK":{"rawOb":"METAR KEOK 260835Z AUTO 19006KT 10SM FEW024 BKN029 OVC039 19/12 A2970 RMK A01","observationTime":"2026-03-26T08:35:00.000Z","flightCategory":"MVFR","latitude":40.4615,"longitude":-91.4274},"KESN":{"rawOb":"METAR KESN 260835Z AUTO 20011KT 10SM OVC110 12/08 A3005 RMK AO2 T01230076","observationTime":"2026-03-26T08:35:00.000Z","flightCategory":"VFR","latitude":38.804,"longitude":-76.069},"KF44":{"rawOb":"METAR KF44 260835Z AUTO 18006KT 10SM CLR 19/16 A3001 RMK AO2","observationTime":"2026-03-26T08:35:00.000Z","flightCategory":"VFR","latitude":32.165,"longitude":-95.829},"KPOV":{"rawOb":"METAR KPOV 260835Z AUTO 24004KT 10SM CLR 12/05 A2989 RMK AO2 T01230045","observationTime":"2026-03-26T08:35:00.000Z","flightCategory":"VFR","latitude":41.209,"longitude":-81.2479},"KO54":{"rawOb":"METAR KO54 260835Z AUTO 00000KT 10SM CLR 04/01 A3018 RMK A01","observationTime":"2026-03-26T08:35:00.000Z","flightCategory":"VFR","latitude":40.746,"longitude":-122.9224},"KO86":{"rawOb":"METAR KO86 260835Z AUTO 25006KT 10SM CLR 07/01 A3016 RMK A01","observationTime":"2026-03-26T08:35:00.000Z","flightCategory":"VFR","latitude":40.9845,"longitude":-122.6935},"KPZQ":{"rawOb":"METAR KPZQ 260835Z AUTO 27003KT 10SM CLR M02/M04 A2977 RMK AO2","observationTime":"2026-03-26T08:35:00.000Z","flightCategory":"VFR","latitude":45.4085,"longitude":-83.812},"KSOA":{"rawOb":"METAR KSOA 260835Z AUTO 16007KT 10SM CLR 20/16 A3003 RMK AO2","observationTime":"2026-03-26T08:35:00.000Z","flightCategory":"VFR","latitude":30.5853,"longitude":-100.6506},"KFMM":{"rawOb":"METAR KFMM 260835Z AUTO 26010KT 10SM CLR 16/M01 A2980 RMK AO2","observationTime":"2026-03-26T08:35:00.000Z","flightCategory":"VFR","latitude":40.3315,"longitude":-103.807},"KGGF":{"rawOb":"METAR KGGF 260835Z AUTO 29012KT 10SM CLR 19/00 A2973 RMK AO2","observationTime":"2026-03-26T08:35:00.000Z","flightCategory":"VFR","latitude":40.871,"longitude":-101.734},"KGLY":{"rawOb":"METAR KGLY 260835Z AUTO 22013G21KT 10SM CLR 22/16 A2981 RMK AO2","observationTime":"2026-03-26T08:35:00.000Z","flightCategory":"VFR","latitude":38.3572,"longitude":-93.6774},"K19S":{"rawOb":"METAR K19S 260835Z AUTO 15008KT 10SM CLR 14/06 A2978 RMK AO2 T01370064","observationTime":"2026-03-26T08:35:00.000Z","flightCategory":"VFR","latitude":37.496,"longitude":-100.834},"KAIB":{"rawOb":"METAR KAIB 260835Z AUTO 09015G18KT 10SM CLR 13/M01 A3008 RMK AO2 T01271014","observationTime":"2026-03-26T08:35:00.000Z","flightCategory":"VFR","latitude":38.239,"longitude":-108.5668},"KSAA":{"rawOb":"METAR KSAA 260835Z AUTO 33003KT 10SM BKN100 11/00 A3001 RMK AO2","observationTime":"2026-03-26T08:35:00.000Z","flightCategory":"VFR","latitude":41.447,"longitude":-106.815},"KEYF":{"rawOb":"METAR KEYF 260835Z AUTO 20004KT 10SM BKN055 13/12 A3019 RMK AO2 T01320115","observationTime":"2026-03-26T08:35:00.000Z","flightCategory":"VFR","latitude":34.6042,"longitude":-78.579},"KBVI":{"rawOb":"METAR KBVI 260835Z AUTO 25007KT 10SM SCT080 BKN120 16/05 A2991 RMK AO2 T01630045","observationTime":"2026-03-26T08:35:00.000Z","flightCategory":"VFR","latitude":40.7735,"longitude":-80.3825},"KCFS":{"rawOb":"METAR KCFS 260835Z AUTO 00000KT 10SM CLR 04/M00 A2978 RMK AO2","observationTime":"2026-03-26T08:35:00.000Z","flightCategory":"VFR","latitude":43.4624,"longitude":-83.4428},"KCXW":{"rawOb":"METAR KCXW 260835Z AUTO 20004KT 8SM FEW028 FEW041 BKN047 18/18 A2997 RMK A01","observationTime":"2026-03-26T08:35:00.000Z","flightCategory":"VFR","latitude":35.0217,"longitude":-92.5506},"KCYD":{"rawOb":"METAR KCYD 260835Z AUTO 16012KT 10SM CLR 24/19 A3009 RMK AO2","observationTime":"2026-03-26T08:35:00.000Z","flightCategory":"VFR","latitude":28.1694,"longitude":-89.2228},"KDKX":{"rawOb":"METAR KDKX 260835Z AUTO 24006KT 10SM FEW050 FEW075 16/09 A3011 RMK A01","observationTime":"2026-03-26T08:35:00.000Z","flightCategory":"VFR","latitude":35.9658,"longitude":-83.8717},"KDLL":{"rawOb":"METAR KDLL 260835Z AUTO 00000KT 10SM CLR 08/06 A2970 RMK AO2 T00780058","observationTime":"2026-03-26T08:35:00.000Z","flightCategory":"VFR","latitude":43.5236,"longitude":-89.7736},"KDLZ":{"rawOb":"METAR KDLZ 260835Z AUTO 21006KT 10SM FEW065 FEW120 14/09 A2990 RMK AO2","observationTime":"2026-03-26T08:35:00.000Z","flightCategory":"VFR","latitude":40.281,"longitude":-83.114},"KHYW":{"rawOb":"METAR KHYW 260835Z AUTO 00000KT 10SM CLR 09/09 A3018 RMK AO2","observationTime":"2026-03-26T08:35:00.000Z","flightCategory":"VFR","latitude":33.8255,"longitude":-79.1259},"KHZD":{"rawOb":"METAR KHZD 260835Z AUTO 19009KT 10SM FEW050 19/13 A2998 RMK A01","observationTime":"2026-03-26T08:35:00.000Z","flightCategory":"VFR","latitude":36.0889,"longitude":-88.4654},"KHZL":{"rawOb":"METAR KHZL 260835Z AUTO 17003KT 10SM OVC070 08/00 A2997 RMK AO2","observationTime":"2026-03-26T08:35:00.000Z","flightCategory":"VFR","latitude":40.9845,"longitude":-75.9901},"KHZX":{"rawOb":"METAR KHZX 260835Z AUTO 31005KT 10SM -DZ SCT050 BKN075 OVC090 04/01 A2978 RMK AO2","observationTime":"2026-03-26T08:35:00.000Z","flightCategory":"VFR","latitude":46.6189,"longitude":-93.3128},"KI16":{"rawOb":"METAR KI16 260835Z AUTO 10SM SCT049 OVC065 12/08 A3013 RMK AO2 T01160079","observationTime":"2026-03-26T08:35:00.000Z","flightCategory":"VFR","latitude":37.5998,"longitude":-81.5589},"KIKT":{"rawOb":"METAR KIKT 260835Z AUTO 12009KT 5SM HZ BKN018 22/18 A3011 RMK A01","observationTime":"2026-03-26T08:35:00.000Z","flightCategory":"MVFR","latitude":28.5208,"longitude":-88.2889},"KJCA":{"rawOb":"METAR KJCA 260835Z AUTO 00000KT 10SM CLR 09/08 A3019 RMK AO2 T00950081","observationTime":"2026-03-26T08:35:00.000Z","flightCategory":"VFR","latitude":34.1739,"longitude":-83.5583},"KJWN":{"rawOb":"METAR KJWN 260835Z AUTO 20005KT 6SM HZ SCT060 17/12 A3002 RMK AO2","observationTime":"2026-03-26T08:35:00.000Z","flightCategory":"VFR","latitude":36.1852,"longitude":-86.8833},"KK70":{"rawOb":"METAR KK70 260835Z AUTO 10SM FEW030 FEW038 23/18 A3005 RMK AO2","observationTime":"2026-03-26T08:35:00.000Z","flightCategory":"VFR","latitude":25.322,"longitude":-80.277},"KLMS":{"rawOb":"METAR KLMS 260835Z AUTO 21004KT 10SM OVC065 18/16 A3012 RMK AO2","observationTime":"2026-03-26T08:35:00.000Z","flightCategory":"VFR","latitude":33.15,"longitude":-89.063},"KLNL":{"rawOb":"METAR KLNL 260835Z AUTO 31007KT 10SM UP SCT048 SCT060 OVC070 02/M02 A2978 RMK AO2 T00161020","observationTime":"2026-03-26T08:35:00.000Z","flightCategory":"VFR","latitude":46.1514,"longitude":-89.2108},"KLQK":{"rawOb":"METAR KLQK 260835Z AUTO 22003KT 10SM OVC026 12/08 A3018 RMK AO2 T01240082","observationTime":"2026-03-26T08:35:00.000Z","flightCategory":"MVFR","latitude":34.8069,"longitude":-82.7047},"KLSB":{"rawOb":"METAR KLSB 260835Z AUTO 29010G15KT 10SM CLR 13/M07 A3007 RMK AO2","observationTime":"2026-03-26T08:35:00.000Z","flightCategory":"VFR","latitude":32.334,"longitude":-108.6955},"KM01":{"rawOb":"METAR KM01 260835Z AUTO 21007KT 10SM CLR 20/13 A2997 RMK AO2 T02030128 $","observationTime":"2026-03-26T08:35:00.000Z","flightCategory":"VFR","latitude":35.2004,"longitude":-90.0548},"KM08":{"rawOb":"METAR KM08 260835Z AUTO VRB04KT 10SM CLR 19/12 A3001 RMK A01","observationTime":"2026-03-26T08:35:00.000Z","flightCategory":"VFR","latitude":35.2155,"longitude":-89.0449},"KM91":{"rawOb":"METAR KM91 260835Z AUTO 18007KT 10SM SCT055 18/13 A3000 RMK A01","observationTime":"2026-03-26T08:35:00.000Z","flightCategory":"VFR","latitude":36.5363,"longitude":-86.919},"KMKQ":{"rawOb":"METAR KMKQ 260835Z AUTO 14008KT 10SM FEW042 FEW047 22/19 A3009 RMK A01","observationTime":"2026-03-26T08:35:00.000Z","flightCategory":"VFR","latitude":27.5197,"longitude":-90.0981},"KMMI":{"rawOb":"METAR KMMI 260835Z AUTO 00000KT 10SM FEW049 OVC060 12/08 A3016 RMK A01","observationTime":"2026-03-26T08:35:00.000Z","flightCategory":"VFR","latitude":35.3952,"longitude":-84.5612},"KMOR":{"rawOb":"METAR KMOR 260835Z AUTO 25006KT 10SM SCT036 BKN055 OVC120 16/08 A3011 RMK A01","observationTime":"2026-03-26T08:35:00.000Z","flightCategory":"VFR","latitude":36.1746,"longitude":-83.3853},"K14Y":{"rawOb":"METAR K14Y 260835Z AUTO 33006KT 7SM -RA SCT047 BKN055 OVC085 07/06 A2983 RMK AO2","observationTime":"2026-03-26T08:35:00.000Z","flightCategory":"VFR","latitude":45.9017,"longitude":-94.8727},"K24A":{"rawOb":"METAR K24A 260835Z AUTO 00000KT 10SM OVC040 11/05 A3021 RMK AO2 T01050046","observationTime":"2026-03-26T08:35:00.000Z","flightCategory":"VFR","latitude":35.3156,"longitude":-83.2071},"K3F3":{"rawOb":"METAR K3F3 260835Z AUTO 17010KT 10SM CLR 19/18 A3010 RMK AO2 T01870179","observationTime":"2026-03-26T08:35:00.000Z","flightCategory":"VFR","latitude":32.0718,"longitude":-93.764},"K4A9":{"rawOb":"METAR K4A9 260835Z AUTO 17003KT 10SM CLR 15/11 A3013 RMK AO2 T01460107","observationTime":"2026-03-26T08:35:00.000Z","flightCategory":"VFR","latitude":34.4759,"longitude":-85.717},"KVOA":{"rawOb":"METAR KVOA 260835Z AUTO VRB03KT 3SM HZ CLR 21/18 A3011 RMK A01","observationTime":"2026-03-26T08:35:00.000Z","flightCategory":"MVFR","latitude":29.2289,"longitude":-87.7808},"KX21":{"rawOb":"METAR KX21 260835Z AUTO 00000KT 10SM SCT028 SCT035 BKN040 19/19 A3009 RMK AO2","observationTime":"2026-03-26T08:35:00.000Z","flightCategory":"VFR","latitude":28.6195,"longitude":-80.835},"KY49":{"rawOb":"METAR KY49 260835Z AUTO 30007KT 10SM SCT055 OVC065 04/00 A2981 RMK AO2 T00390000","observationTime":"2026-03-26T08:35:00.000Z","flightCategory":"VFR","latitude":47.1599,"longitude":-94.6433},"KY63":{"rawOb":"METAR KY63 260835Z AUTO 34010G21KT 3SM RA SCT004 BKN031 OVC060 04/03 A2985 RMK AO2 P0005 T00430034","observationTime":"2026-03-26T08:35:00.000Z","flightCategory":"MVFR","latitude":45.9891,"longitude":-95.9946},"PAAD":{"rawOb":"METAR PAAD 260835Z AUTO 23012KT 10SM CLR M24/M27 A3041 RMK AO2 T12371268 FZRANO","observationTime":"2026-03-26T08:35:00.000Z","flightCategory":"VFR","latitude":70.136,"longitude":-146.29},"KMZH":{"rawOb":"METAR KMZH 260835Z AUTO 21006KT 10SM UP SCT048 BKN055 OVC085 02/01 A2974 RMK AO2","observationTime":"2026-03-26T08:35:00.000Z","flightCategory":"VFR","latitude":46.4163,"longitude":-92.8049},"KO69":{"rawOb":"METAR KO69 260835Z AUTO 00000KT 10SM FEW003 07/07 A3008 RMK A01","observationTime":"2026-03-26T08:35:00.000Z","flightCategory":"VFR","latitude":38.2601,"longitude":-122.607},"KOWI":{"rawOb":"METAR KOWI 260835Z AUTO 20013G21KT CLR 21/17 A2976 RMK AO2 PWINO","observationTime":"2026-03-26T08:35:00.000Z","flightCategory":"null","latitude":38.5409,"longitude":-95.2542},"KOWP":{"rawOb":"METAR KOWP 260835Z AUTO 19008KT 10SM CLR 23/14 A2991 RMK AO2 T02250140","observationTime":"2026-03-26T08:35:00.000Z","flightCategory":"VFR","latitude":36.1721,"longitude":-96.1536},"KOWX":{"rawOb":"METAR KOWX 260835Z AUTO 20004KT 10SM CLR 12/07 A2988 RMK AO2","observationTime":"2026-03-26T08:35:00.000Z","flightCategory":"VFR","latitude":41.0341,"longitude":-83.9862},"KOZW":{"rawOb":"METAR KOZW 260835Z AUTO 25005KT 10SM CLR 12/04 A2979 RMK AO2","observationTime":"2026-03-26T08:35:00.000Z","flightCategory":"VFR","latitude":42.6327,"longitude":-83.9854},"KPCM":{"rawOb":"METAR KPCM 260835Z AUTO 04004KT 9SM A3011 RMK AO2 PNO $","observationTime":"2026-03-26T08:35:00.000Z","flightCategory":"VFR","latitude":28.0013,"longitude":-82.1593},"KPCW":{"rawOb":"METAR KPCW 260835Z AUTO 23010KT 10SM CLR 13/06 A2983 RMK AO2","observationTime":"2026-03-26T08:35:00.000Z","flightCategory":"VFR","latitude":41.5188,"longitude":-82.8692},"KPEA":{"rawOb":"METAR KPEA 260835Z AUTO 18003KT 10SM CLR 14/09 A2969 RMK AO2 T01390094","observationTime":"2026-03-26T08:35:00.000Z","flightCategory":"VFR","latitude":41.3989,"longitude":-92.9431},"KPNT":{"rawOb":"METAR KPNT 260835Z 10SM SCT080 14/12 A2977 RMK AO2 T01430115 PWINO","observationTime":"2026-03-26T08:35:00.000Z","flightCategory":"VFR","latitude":40.9233,"longitude":-88.6213},"KPPQ":{"rawOb":"METAR KPPQ 260835Z AUTO 22010KT 10SM CLR 21/13 A2977 RMK AO2 T02130129","observationTime":"2026-03-26T08:35:00.000Z","flightCategory":"VFR","latitude":39.6391,"longitude":-90.7818},"KPTT":{"rawOb":"METAR KPTT 260835Z AUTO 18014KT 10SM CLR 20/15 A2980 RMK AO2 T02010145","observationTime":"2026-03-26T08:35:00.000Z","flightCategory":"VFR","latitude":37.7069,"longitude":-98.7453},"KPVE":{"rawOb":"METAR KPVE 260835Z AUTO 19006KT 10SM CLR 18/13 A3003 RMK A01","observationTime":"2026-03-26T08:35:00.000Z","flightCategory":"VFR","latitude":35.6592,"longitude":-88.1929},"KRBO":{"rawOb":"METAR KRBO 260835Z AUTO 17011KT 10SM SCT017 SCT026 22/19 A3003 RMK AO2 T02160190 PWINO","observationTime":"2026-03-26T08:35:00.000Z","flightCategory":"VFR","latitude":27.7781,"longitude":-97.6878},"KREG":{"rawOb":"METAR KREG 260835Z AUTO 00000KT M1/4SM FG OVC010 17/17 A3009 RMK AO2 T01730171","observationTime":"2026-03-26T08:35:00.000Z","flightCategory":"LIFR","latitude":30.1756,"longitude":-90.9397},"KRKW":{"rawOb":"METAR KRKW 260835Z AUTO 21008G14KT 10SM CLR 13/09 A3013 RMK A01","observationTime":"2026-03-26T08:35:00.000Z","flightCategory":"VFR","latitude":35.922,"longitude":-84.689},"KRNC":{"rawOb":"METAR KRNC 260835Z AUTO 21003KT 10SM OVC050 15/11 A3008 RMK A01","observationTime":"2026-03-26T08:35:00.000Z","flightCategory":"VFR","latitude":35.6991,"longitude":-85.8402},"KRQO":{"rawOb":"METAR KRQO 260835Z AUTO 19013KT 10SM CLR 19/15 A2988 RMK AO2","observationTime":"2026-03-26T08:35:00.000Z","flightCategory":"VFR","latitude":35.4709,"longitude":-98.0061},"KRZR":{"rawOb":"METAR KRZR 260835Z AUTO 21005KT 10SM SCT060 13/10 A3012 RMK A01","observationTime":"2026-03-26T08:35:00.000Z","flightCategory":"VFR","latitude":35.207,"longitude":-84.8004},"KLHB":{"rawOb":"METAR KLHB 260835Z AUTO 16006KT 10SM OVC019 20/19 A3003 RMK AO2","observationTime":"2026-03-26T08:35:00.000Z","flightCategory":"MVFR","latitude":30.8693,"longitude":-96.6207},"KCKC":{"rawOb":"METAR KCKC 260835Z AUTO 10004KT 10SM BKN004 OVC010 M05/M05 A2972 RMK AO2","observationTime":"2026-03-26T08:35:00.000Z","flightCategory":"LIFR","latitude":47.8366,"longitude":-90.3864},"KMJQ":{"rawOb":"METAR KMJQ 260835Z AUTO 35005KT 10SM CLR 11/05 A2969 RMK AO2","observationTime":"2026-03-26T08:35:00.000Z","flightCategory":"VFR","latitude":43.6496,"longitude":-94.9885},"KNOW":{"rawOb":"METAR KNOW 260835Z AUTO 23006KT 10SM CLR 04/01 A3039 RMK AO2 T00440011","observationTime":"2026-03-26T08:35:00.000Z","flightCategory":"VFR","latitude":48.1394,"longitude":-123.4033},"KOGS":{"rawOb":"METAR KOGS 260835Z AUTO 00000KT 10SM FEW040 SCT047 BKN060 02/02 A2974 RMK AO2","observationTime":"2026-03-26T08:35:00.000Z","flightCategory":"VFR","latitude":44.68,"longitude":-75.4642},"KOIN":{"rawOb":"METAR KOIN 260835Z AUTO 20007KT 10SM CLR 13/05 A2970 RMK AO2","observationTime":"2026-03-26T08:35:00.000Z","flightCategory":"VFR","latitude":39.8298,"longitude":-100.5377},"KEOE":{"rawOb":"METAR KEOE 260835Z AUTO 21004KT 10SM CLR 13/10 A3022 RMK AO2","observationTime":"2026-03-26T08:35:00.000Z","flightCategory":"VFR","latitude":34.3062,"longitude":-81.6413},"KEVM":{"rawOb":"METAR KEVM 260835Z AUTO 00000KT 10SM SCT010 BKN041 02/00 A2975 RMK AO2 T00150000","observationTime":"2026-03-26T08:35:00.000Z","flightCategory":"VFR","latitude":47.4274,"longitude":-92.4972},"KEVU":{"rawOb":"METAR KEVU 260835Z AUTO 18008KT 10SM CLR 16/10 A2970 RMK AO2 T01640100","observationTime":"2026-03-26T08:35:00.000Z","flightCategory":"VFR","latitude":40.3524,"longitude":-94.9137},"KEZF":{"rawOb":"METAR KEZF 260835Z AUTO 20006KT 10SM SCT100 11/03 A3004 RMK AO2 T01140025","observationTime":"2026-03-26T08:35:00.000Z","flightCategory":"VFR","latitude":38.2685,"longitude":-77.448},"KF70":{"rawOb":"METAR KF70 260835Z AUTO 02005KT 10SM CLR 13/08 A2998 RMK AO2","observationTime":"2026-03-26T08:35:00.000Z","flightCategory":"VFR","latitude":33.577,"longitude":-117.126},"KCTY":{"rawOb":"METAR KCTY 260835Z AUTO 05004KT 10SM OVC007 18/18 A3013 RMK AO2","observationTime":"2026-03-26T08:35:00.000Z","flightCategory":"IFR","latitude":29.6334,"longitude":-83.1055},"KFBL":{"rawOb":"METAR KFBL 260835Z AUTO 00000KT 10SM SCT085 11/06 A2970 RMK AO2","observationTime":"2026-03-26T08:35:00.000Z","flightCategory":"VFR","latitude":44.3298,"longitude":-93.3119},"KFFA":{"rawOb":"METAR KFFA 260835Z AUTO 00000KT 10SM OVC055 13/11 A3018 RMK AO2 T01280105","observationTime":"2026-03-26T08:35:00.000Z","flightCategory":"VFR","latitude":36.0165,"longitude":-75.6739},"KE11":{"rawOb":"METAR KE11 260835Z AUTO 17007KT 10SM CLR 18/10 A2997 RMK AO2 T01840097","observationTime":"2026-03-26T08:35:00.000Z","flightCategory":"VFR","latitude":32.3281,"longitude":-102.5283},"KFKA":{"rawOb":"METAR KFKA 260835Z AUTO 00000KT 8SM FEW070 SCT100 BKN120 09/07 A2968 RMK AO2","observationTime":"2026-03-26T08:35:00.000Z","flightCategory":"VFR","latitude":43.677,"longitude":-92.174},"K0W3":{"rawOb":"METAR K0W3 260835Z AUTO 20006KT 10SM OVC100 09/09 A3001 RMK AO2 T00900090","observationTime":"2026-03-26T08:35:00.000Z","flightCategory":"VFR","latitude":39.566,"longitude":-76.202},"K1A6":{"rawOb":"METAR K1A6 260835Z AUTO 00000KT 10SM CLR 17/08 A3011 RMK AO2 T01650084","observationTime":"2026-03-26T08:35:00.000Z","flightCategory":"VFR","latitude":36.6087,"longitude":-83.7369},"KFOZ":{"rawOb":"METAR KFOZ 260835Z AUTO 30005KT 10SM OVC034 02/M02 A2976 RMK AO2 T00191017","observationTime":"2026-03-26T08:35:00.000Z","flightCategory":"VFR","latitude":47.7832,"longitude":-93.6533},"K20V":{"rawOb":"METAR K20V 260835Z AUTO 00000KT 10SM CLR 03/M02 A3009 RMK AO2","observationTime":"2026-03-26T08:35:00.000Z","flightCategory":"VFR","latitude":40.0563,"longitude":-106.3744},"KBDH":{"rawOb":"METAR KBDH 260835Z AUTO 01013G18KT 5SM -RA BR FEW042 FEW050 OVC070 10/08 A2978 RMK AO2","observationTime":"2026-03-26T08:35:00.000Z","flightCategory":"MVFR","latitude":45.1111,"longitude":-95.1258},"KBGE":{"rawOb":"METAR KBGE 260835Z AUTO 04003KT 14/ A3016 RMK AO2 PWINO T0145////","observationTime":"2026-03-26T08:35:00.000Z","flightCategory":"null","latitude":30.9709,"longitude":-84.6344},"K2V5":{"rawOb":"METAR K2V5 260835Z AUTO 26007KT 10SM CLR 16/00 A2975 RMK AO2","observationTime":"2026-03-26T08:35:00.000Z","flightCategory":"VFR","latitude":40.1,"longitude":-102.241},"KBKS":{"rawOb":"METAR KBKS 260835Z AUTO 14006KT 10SM FEW022 SCT029 21/20 A3000 RMK AO2 FEW V SCT T02120196 $","observationTime":"2026-03-26T08:35:00.000Z","flightCategory":"VFR","latitude":27.2064,"longitude":-98.1216},"K3AU":{"rawOb":"METAR K3AU 260835Z AUTO 20013G17KT 10SM CLR 21/13 A2982 RMK AO2","observationTime":"2026-03-26T08:35:00.000Z","flightCategory":"VFR","latitude":37.6729,"longitude":-97.0792},"KBWP":{"rawOb":"METAR KBWP 260835Z AUTO 35009G14KT 4SM BR OVC005 01/01 A2989 RMK AO2","observationTime":"2026-03-26T08:35:00.000Z","flightCategory":"IFR","latitude":46.2444,"longitude":-96.6046},"K4S1":{"rawOb":"METAR K4S1 260835Z AUTO 04010G14KT 10SM CLR 06/02 A3041 RMK AO2","observationTime":"2026-03-26T08:35:00.000Z","flightCategory":"VFR","latitude":42.4161,"longitude":-124.4258},"K4V0":{"rawOb":"METAR K4V0 260835Z AUTO 13003KT 10SM CLR 12/03 A2992 RMK AO2 T01200032","observationTime":"2026-03-26T08:35:00.000Z","flightCategory":"VFR","latitude":40.0956,"longitude":-108.7619},"K4V9":{"rawOb":"METAR K4V9 260835Z AUTO 21017G23KT 10SM CLR 21/06 A2960 RMK AO2","observationTime":"2026-03-26T08:35:00.000Z","flightCategory":"VFR","latitude":42.1109,"longitude":-98.041},"K5R8":{"rawOb":"METAR K5R8 260835Z AUTO 00000KT 3/4SM BR OVC002 15/14 A3009 RMK AO2 T01470135","observationTime":"2026-03-26T08:35:00.000Z","flightCategory":"LIFR","latitude":30.4368,"longitude":-93.4696},"KBYY":{"rawOb":"METAR KBYY 260835Z AUTO 15004KT 10SM CLR 19/19 A3002 RMK AO2 T01870187","observationTime":"2026-03-26T08:35:00.000Z","flightCategory":"VFR","latitude":28.9717,"longitude":-95.8584},"K6P9":{"rawOb":"METAR K6P9 260835Z AUTO 19009KT 10SM CLR 19/14 A2996 RMK AO2 T01880143","observationTime":"2026-03-26T08:35:00.000Z","flightCategory":"VFR","latitude":32.4293,"longitude":-98.5959},"KC09":{"rawOb":"METAR KC09 260835Z AUTO 00000KT 10SM CLR 12/08 A2976 RMK AO2 T01180075","observationTime":"2026-03-26T08:35:00.000Z","flightCategory":"VFR","latitude":41.4317,"longitude":-88.4152},"K74V":{"rawOb":"METAR K74V 260835Z AUTO 25009KT 10SM CLR 12/M00 A2990 RMK AO2","observationTime":"2026-03-26T08:35:00.000Z","flightCategory":"VFR","latitude":40.2799,"longitude":-110.0498},"K7BM":{"rawOb":"METAR K7BM 260835Z AUTO 28012G19KT 10SM CLR 13/M04 A3025 RMK AO2","observationTime":"2026-03-26T08:35:00.000Z","flightCategory":"VFR","latitude":38.799,"longitude":-106.219},"KADT":{"rawOb":"METAR KADT 260835Z AUTO 25004KT 10SM CLR 15/03 A2978 RMK AO2 T01500031","observationTime":"2026-03-26T08:35:00.000Z","flightCategory":"VFR","latitude":39.8401,"longitude":-101.0448},"KPOY":{"rawOb":"METAR KPOY 260835Z AUTO 32027G32KT 10SM CLR 02/M03 A2988 RMK AO2","observationTime":"2026-03-26T08:35:00.000Z","flightCategory":"VFR","latitude":44.8641,"longitude":-108.79},"KCBF":{"rawOb":"METAR KCBF 260835Z AUTO 15008KT 10SM CLR 15/09 A2966 RMK AO2","observationTime":"2026-03-26T08:35:00.000Z","flightCategory":"VFR","latitude":41.2611,"longitude":-95.7604},"KPVB":{"rawOb":"METAR KPVB 260835Z AUTO 11007KT 7SM CLR 11/08 A2970 RMK AO1 T01090075","observationTime":"2026-03-26T08:35:00.000Z","flightCategory":"VFR","latitude":42.6909,"longitude":-90.4413},"KCDH":{"rawOb":"METAR KCDH 260835Z AUTO 20005KT 10SM OVC050 19/16 A3002 RMK AO2","observationTime":"2026-03-26T08:35:00.000Z","flightCategory":"VFR","latitude":33.619,"longitude":-92.765},"KRZL":{"rawOb":"METAR KRZL 260835Z AUTO 19015G24KT 10SM BKN080 18/13 A2981 RMK AO2","observationTime":"2026-03-26T08:35:00.000Z","flightCategory":"VFR","latitude":40.9488,"longitude":-87.1851},"KRZN":{"rawOb":"METAR KRZN 260835Z AUTO 05004KT 10SM RA SCT011 SCT017 SCT023 04/00 A2976 RMK AO2 T00420001","observationTime":"2026-03-26T08:35:00.000Z","flightCategory":"VFR","latitude":45.8229,"longitude":-92.3706},"KCGC":{"rawOb":"METAR KCGC 260835Z AUTO 08005KT 3SM OVC002 17/17 A3012 RMK AO2","observationTime":"2026-03-26T08:35:00.000Z","flightCategory":"LIFR","latitude":28.866,"longitude":-82.5741},"KSJS":{"rawOb":"METAR KSJS 260835Z AUTO 22006KT 10SM CLR 18/05 A3005 RMK AO2 T01770053","observationTime":"2026-03-26T08:35:00.000Z","flightCategory":"VFR","latitude":37.7489,"longitude":-82.6413},"KCJR":{"rawOb":"METAR KCJR 260835Z AUTO 19005KT 10SM CLR 12/00 A3005 RMK AO2 T01240001","observationTime":"2026-03-26T08:35:00.000Z","flightCategory":"VFR","latitude":38.5261,"longitude":-77.8574},"KSUT":{"rawOb":"METAR KSUT 260835Z AUTO 26001KT 10SM CLR 13/12 A3018 RMK AO2","observationTime":"2026-03-26T08:35:00.000Z","flightCategory":"VFR","latitude":33.9292,"longitude":-78.0722},"KCLW":{"rawOb":"METAR KCLW 260835Z AUTO 08004KT 19/17 A3009 RMK AO2","observationTime":"2026-03-26T08:35:00.000Z","flightCategory":"null","latitude":27.9741,"longitude":-82.7563},"KSVH":{"rawOb":"METAR KSVH 260835Z AUTO 00000KT 10SM BKN065 BKN080 12/07 A3017 RMK AO2 T01220070","observationTime":"2026-03-26T08:35:00.000Z","flightCategory":"VFR","latitude":35.7635,"longitude":-80.9473},"KCMD":{"rawOb":"METAR KCMD 260835Z AUTO 19006KT 10SM CLR 16/13 A3012 RMK AO2","observationTime":"2026-03-26T08:35:00.000Z","flightCategory":"VFR","latitude":34.2722,"longitude":-86.8583},"KSVR":{"rawOb":"METAR KSVR 260835Z AUTO 28004KT 10SM FEW055 BKN110 17/02 A2994 RMK AO2","observationTime":"2026-03-26T08:35:00.000Z","flightCategory":"VFR","latitude":40.6196,"longitude":-111.9902},"KCQF":{"rawOb":"METAR KCQF 260835Z AUTO 00000KT 10SM OVC005 12/12 A3012 RMK AO2","observationTime":"2026-03-26T08:35:00.000Z","flightCategory":"IFR","latitude":30.4618,"longitude":-87.8749},"KTBR":{"rawOb":"METAR KTBR 260835Z AUTO 31002KT 10SM CLR 10/10 A3017 RMK AO2","observationTime":"2026-03-26T08:35:00.000Z","flightCategory":"VFR","latitude":32.48,"longitude":-81.738},"KTDF":{"rawOb":"METAR KTDF 260835Z AUTO 23005KT 10SM SCT042 12/09 A3018 RMK AO2","observationTime":"2026-03-26T08:35:00.000Z","flightCategory":"VFR","latitude":36.2841,"longitude":-78.9884},"KTIF":{"rawOb":"METAR KTIF 260835Z AUTO 00000KT 10SM CLR 20/00 A2971 RMK AO2 T01950000","observationTime":"2026-03-26T08:35:00.000Z","flightCategory":"VFR","latitude":41.9646,"longitude":-100.5687},"KCTJ":{"rawOb":"METAR KCTJ 260835Z AUTO 00000KT 10SM CLR 10/08 A3021 RMK AO2 T00970083","observationTime":"2026-03-26T08:35:00.000Z","flightCategory":"VFR","latitude":33.6313,"longitude":-85.1538},"KCVX":{"rawOb":"METAR KCVX 260835Z AUTO 11005KT 5SM BR OVC100 M00/M01 A2973 RMK AO2","observationTime":"2026-03-26T08:35:00.000Z","flightCategory":"MVFR","latitude":45.304,"longitude":-85.2689},"KJNX":{"rawOb":"METAR KJNX 260835Z AUTO 00000KT 10SM FEW038 SCT043 BKN060 14/11 A3017 RMK AO2","observationTime":"2026-03-26T08:35:00.000Z","flightCategory":"VFR","latitude":35.5369,"longitude":-78.3934},"KVLL":{"rawOb":"METAR KVLL 260835Z AUTO 24005KT 10SM CLR 11/01 A2979 RMK AO2","observationTime":"2026-03-26T08:35:00.000Z","flightCategory":"VFR","latitude":42.543,"longitude":-83.178},"KLKP":{"rawOb":"METAR KLKP 260835Z AUTO VRB02KT 10SM SCT039 BKN048 OVC065 02/01 A2981 RMK AO2","observationTime":"2026-03-26T08:35:00.000Z","flightCategory":"VFR","latitude":44.265,"longitude":-73.963},"KVNC":{"rawOb":"METAR KVNC 260835Z AUTO 00000KT 8SM CLR 18/18 A3006 RMK AO2 T01770177 $","observationTime":"2026-03-26T08:35:00.000Z","flightCategory":"VFR","latitude":27.0728,"longitude":-82.44},"KLQR":{"rawOb":"METAR KLQR 260835Z AUTO 18017G21KT 10SM CLR 21/14 A2975 RMK AO2","observationTime":"2026-03-26T08:35:00.000Z","flightCategory":"VFR","latitude":38.2084,"longitude":-99.0868},"KLUX":{"rawOb":"METAR KLUX 260835Z AUTO 23006KT 10SM SCT070 OVC080 12/09 A3018 RMK AO2","observationTime":"2026-03-26T08:35:00.000Z","flightCategory":"VFR","latitude":34.508,"longitude":-81.949},"KVTI":{"rawOb":"METAR KVTI 260835Z AUTO 00000KT 10SM CLR 08/08 A2968 RMK AO2 T00830075","observationTime":"2026-03-26T08:35:00.000Z","flightCategory":"VFR","latitude":42.2176,"longitude":-92.0249},"KVTP":{"rawOb":"METAR KVTP 260835Z AUTO 27013G20KT 10SM CLR 10/M04 A3037 RMK AO2","observationTime":"2026-03-26T08:35:00.000Z","flightCategory":"VFR","latitude":37.512,"longitude":-105.171},"KVVV":{"rawOb":"METAR KVVV 260835Z AUTO 35015KT 7SM RA SCT026 BKN065 OVC095 06/06 A2983 RMK AO2","observationTime":"2026-03-26T08:35:00.000Z","flightCategory":"VFR","latitude":45.2993,"longitude":-96.4256},"KMHP":{"rawOb":"METAR KMHP 260835Z AUTO 00000KT 10SM SCT007 12/12 A3019 RMK AO2 T01180115","observationTime":"2026-03-26T08:35:00.000Z","flightCategory":"VFR","latitude":32.374,"longitude":-82.079},"KMJD":{"rawOb":"METAR KMJD 260835Z AUTO 00000KT 4SM BR SCT002 BKN011 18/18 A3009 RMK AO2","observationTime":"2026-03-26T08:35:00.000Z","flightCategory":"MVFR","latitude":30.494,"longitude":-89.6535},"KMLJ":{"rawOb":"METAR KMLJ 260835Z AUTO 00000KT 8SM FEW070 10/10 A3018 RMK AO2","observationTime":"2026-03-26T08:35:00.000Z","flightCategory":"VFR","latitude":33.153,"longitude":-83.242},"KW99":{"rawOb":"METAR KW99 260835Z AUTO 00000KT 10SM CLR 07/04 A2999 RMK AO2 T00670037","observationTime":"2026-03-26T08:35:00.000Z","flightCategory":"VFR","latitude":38.9947,"longitude":-79.1421},"KPTS":{"rawOb":"METAR KPTS 260835Z AUTO 20014G21KT 10SM CLR 21/16 A2986 RMK AO2","observationTime":"2026-03-26T08:35:00.000Z","flightCategory":"VFR","latitude":37.4512,"longitude":-94.7322},"KRCR":{"rawOb":"METAR KRCR 260835Z AUTO 19005KT 10SM BKN065 BKN075 OVC085 14/09 A2982 RMK AO2","observationTime":"2026-03-26T08:35:00.000Z","flightCategory":"VFR","latitude":41.0651,"longitude":-86.1864},"K0F2":{"rawOb":"METAR K0F2 260835Z AUTO 17008KT 10SM 20/15 A2993 RMK AO2 T01980147","observationTime":"2026-03-26T08:35:00.000Z","flightCategory":"VFR","latitude":33.6011,"longitude":-97.7735},"K0S9":{"rawOb":"METAR K0S9 260835Z AUTO 00000KT 10SM FEW036 FEW041 SCT050 01/01 A3038 RMK AO2","observationTime":"2026-03-26T08:35:00.000Z","flightCategory":"VFR","latitude":48.0554,"longitude":-122.8115},"K0VG":{"rawOb":"METAR K0VG 260835Z AUTO 23004KT 10SM BKN055 BKN065 BKN120 15/09 A3012 RMK AO2","observationTime":"2026-03-26T08:35:00.000Z","flightCategory":"VFR","latitude":36.6576,"longitude":-83.2147},"K15M":{"rawOb":"METAR K15M 260835Z AUTO 18004KT 10SM CLR 18/16 A3006 RMK AO2 T01820158","observationTime":"2026-03-26T08:35:00.000Z","flightCategory":"VFR","latitude":34.7745,"longitude":-88.1676},"K1F0":{"rawOb":"METAR K1F0 260835Z AUTO 17004KT 10SM CLR 18/15 A2993 RMK AO2 T01770151","observationTime":"2026-03-26T08:35:00.000Z","flightCategory":"VFR","latitude":34.1508,"longitude":-97.1242},"KBVS":{"rawOb":"METAR KBVS 260835Z 17007KT 10SM FEW027 BKN075 OVC100 04/04 A3039 RMK A01 DPT IS UNRELIABLE","observationTime":"2026-03-26T08:35:00.000Z","flightCategory":"VFR","latitude":48.4696,"longitude":-122.4189},"K24J":{"rawOb":"METAR K24J 260835Z AUTO 00000KT 7SM OVC004 18/18 A3015 RMK A01","observationTime":"2026-03-26T08:35:00.000Z","flightCategory":"LIFR","latitude":30.299,"longitude":-83.0225},"KBXM":{"rawOb":"METAR KBXM 260835Z AUTO 19007KT 10SM BKN013 BKN022 OVC090 03/03 A3004 RMK AO2","observationTime":"2026-03-26T08:35:00.000Z","flightCategory":"MVFR","latitude":43.8848,"longitude":-69.9354},"KC75":{"rawOb":"METAR KC75 260835Z AUTO 00000KT 10SM CLR 16/10 A2974 RMK AO2 T01560098","observationTime":"2026-03-26T08:35:00.000Z","flightCategory":"VFR","latitude":41.0231,"longitude":-89.3886},"KCDN":{"rawOb":"METAR KCDN 260835Z AUTO 00000KT 10SM BKN028 BKN035 OVC080 15/12 A3019 RMK AO2","observationTime":"2026-03-26T08:35:00.000Z","flightCategory":"MVFR","latitude":34.2815,"longitude":-80.5636},"KCGS":{"rawOb":"METAR KCGS 260835Z AUTO 21005KT 10SM BKN100 12/04 A3004 RMK AO2 T01190035","observationTime":"2026-03-26T08:35:00.000Z","flightCategory":"VFR","latitude":38.9806,"longitude":-76.9251},"KCHK":{"rawOb":"METAR KCHK 260835Z AUTO 17006KT 10SM CLR 20/14 A2991 RMK AO2","observationTime":"2026-03-26T08:35:00.000Z","flightCategory":"VFR","latitude":35.0927,"longitude":-97.9709},"KCVC":{"rawOb":"METAR KCVC 260835Z AUTO 00000KT 10SM OVC070 12/11 A3017 RMK AO2","observationTime":"2026-03-26T08:35:00.000Z","flightCategory":"VFR","latitude":33.6312,"longitude":-83.8482},"KRGA":{"rawOb":"METAR KRGA 260835Z AUTO 22010KT 10SM OVC120 17/08 A3003 RMK AO2","observationTime":"2026-03-26T08:35:00.000Z","flightCategory":"VFR","latitude":37.6305,"longitude":-84.329},"K41U":{"rawOb":"METAR K41U 260835Z AUTO 16008KT 10SM CLR 13/M02 A3000 RMK AO1 T01311019","observationTime":"2026-03-26T08:35:00.000Z","flightCategory":"VFR","latitude":39.3323,"longitude":-111.6141},"KSSI":{"rawOb":"METAR KSSI 260835Z AUTO 34004KT 1/4SM FG OVC001 15/15 A3014 RMK AO2","observationTime":"2026-03-26T08:35:00.000Z","flightCategory":"LIFR","latitude":31.1527,"longitude":-81.3905},"KKY8":{"rawOb":"METAR KKY8 260835Z AUTO 18012KT 10SM CLR 19/12 A2993 RMK A01","observationTime":"2026-03-26T08:35:00.000Z","flightCategory":"VFR","latitude":37.953,"longitude":-86.8592},"KLHZ":{"rawOb":"METAR KLHZ 260835Z AUTO 20003KT 10SM CLR 11/09 A3018 RMK AO2","observationTime":"2026-03-26T08:35:00.000Z","flightCategory":"VFR","latitude":36.0229,"longitude":-78.3341},"KLVN":{"rawOb":"METAR KLVN 260835Z AUTO 01006KT 10SM SCT070 SCT075 BKN100 12/06 A2972 RMK AO2","observationTime":"2026-03-26T08:35:00.000Z","flightCategory":"VFR","latitude":44.6252,"longitude":-93.2273},"KLYV":{"rawOb":"METAR KLYV 260835Z AUTO 02006KT 10SM CLR 11/05 A2965 RMK AO2","observationTime":"2026-03-26T08:35:00.000Z","flightCategory":"VFR","latitude":43.6217,"longitude":-96.2139},"KPOB":{"rawOb":"SPECI KPOB 260835Z AUTO 23004KT 10SM OVC049 15/11 A3018 RMK AO2 SLP222 $","observationTime":"2026-03-26T08:35:00.000Z","flightCategory":"VFR","latitude":35.175,"longitude":-79.008},"KROS":{"rawOb":"METAR KROS 260835Z AUTO 36006KT 10SM OVC110 06/02 A2977 RMK AO2 T00600016","observationTime":"2026-03-26T08:35:00.000Z","flightCategory":"VFR","latitude":45.6962,"longitude":-92.9543},"KCFE":{"rawOb":"METAR KCFE 260835Z AUTO 36011G16KT 10SM FEW050 OVC095 12/07 A2976 RMK AO2","observationTime":"2026-03-26T08:35:00.000Z","flightCategory":"VFR","latitude":45.1601,"longitude":-93.8461},"KHDC":{"rawOb":"METAR KHDC 260835Z AUTO 14004KT 10SM OVC011 20/20 A3011 RMK AO2 T01980196","observationTime":"2026-03-26T08:35:00.000Z","flightCategory":"MVFR","latitude":30.5237,"longitude":-90.4176},"KHOB":{"rawOb":"METAR KHOB 260835Z AUTO 19008KT 10SM CLR 17/09 A2998 RMK AO2","observationTime":"2026-03-26T08:35:00.000Z","flightCategory":"VFR","latitude":32.6797,"longitude":-103.2222},"KHSB":{"rawOb":"METAR KHSB 260835Z AUTO 22006KT 10SM CLR 19/11 A2991 RMK AO2 T01910110","observationTime":"2026-03-26T08:35:00.000Z","flightCategory":"VFR","latitude":37.8128,"longitude":-88.5449},"KHYX":{"rawOb":"METAR KHYX 260835Z AUTO 05003KT 10SM FEW100 05/M01 A2977 RMK AO2","observationTime":"2026-03-26T08:35:00.000Z","flightCategory":"VFR","latitude":43.4319,"longitude":-83.8648},"KHZE":{"rawOb":"METAR KHZE 260835Z AUTO 01015KT 10SM OVC007 M03/M05 A3006 RMK AO2","observationTime":"2026-03-26T08:35:00.000Z","flightCategory":"IFR","latitude":47.288,"longitude":-101.577},"KIFA":{"rawOb":"METAR KIFA 260835Z AUTO 00000KT 10SM CLR 09/04 A2970 RMK AO2 T00880038","observationTime":"2026-03-26T08:35:00.000Z","flightCategory":"VFR","latitude":42.4691,"longitude":-93.2651},"KINF":{"rawOb":"METAR KINF 260835Z AUTO 00000KT 1SM BR OVC003 17/17 A3012 RMK AO2","observationTime":"2026-03-26T08:35:00.000Z","flightCategory":"LIFR","latitude":28.8062,"longitude":-82.319},"KCOQ":{"rawOb":"METAR KCOQ 260835Z AUTO 00000KT 10SM SCT070 BKN090 BKN110 01/M01 A2973 RMK AO2 TSNO","observationTime":"2026-03-26T08:35:00.000Z","flightCategory":"VFR","latitude":46.6986,"longitude":-92.5034},"KIRS":{"rawOb":"METAR KIRS 260835Z AUTO 20006KT 10SM CLR 10/05 A2982 RMK AO2","observationTime":"2026-03-26T08:35:00.000Z","flightCategory":"VFR","latitude":41.8154,"longitude":-85.4376},"KISQ":{"rawOb":"METAR KISQ 260835Z AUTO 00000KT 4SM BR OVC004 01/01 A2976 RMK AO2 T00100007","observationTime":"2026-03-26T08:35:00.000Z","flightCategory":"LIFR","latitude":45.9729,"longitude":-86.1728},"KCQM":{"rawOb":"METAR KCQM 260835Z AUTO 00000KT 10SM BKN042 OVC047 01/M01 A2974 RMK AO2","observationTime":"2026-03-26T08:35:00.000Z","flightCategory":"VFR","latitude":47.8199,"longitude":-92.6817},"KIXA":{"rawOb":"METAR KIXA 260835Z AUTO 18004KT 10SM OVC050 12/11 A3017 RMK AO2","observationTime":"2026-03-26T08:35:00.000Z","flightCategory":"VFR","latitude":36.331,"longitude":-77.6333},"KIYA":{"rawOb":"METAR KIYA 260835Z AUTO 00000KT 1/2SM FG VV001 15/15 A3007 RMK AO2 T01550155","observationTime":"2026-03-26T08:35:00.000Z","flightCategory":"LIFR","latitude":29.976,"longitude":-92.0826},"KJFX":{"rawOb":"METAR KJFX 260835Z AUTO 00000KT 7SM FEW065 12/12 A3012 RMK AO2","observationTime":"2026-03-26T08:35:00.000Z","flightCategory":"VFR","latitude":33.9008,"longitude":-87.3092},"KGNC":{"rawOb":"METAR KGNC 260835Z AUTO 22004KT 10SM CLR 17/09 A3001 RMK AO2 T01660093","observationTime":"2026-03-26T08:35:00.000Z","flightCategory":"VFR","latitude":32.678,"longitude":-102.65},"KX59":{"rawOb":"METAR KX59 260835Z AUTO 00000KT 8SM CLR 18/18 A3008 RMK AO2 T01820182 $","observationTime":"2026-03-26T08:35:00.000Z","flightCategory":"VFR","latitude":27.9624,"longitude":-80.561},"KY70":{"rawOb":"METAR KY70 260835Z AUTO 21004KT 10SM CLR 09/03 A2976 RMK AO2","observationTime":"2026-03-26T08:35:00.000Z","flightCategory":"VFR","latitude":42.9397,"longitude":-85.0653},"KPPA":{"rawOb":"METAR KPPA 260835Z AUTO 19015G20KT 10SM CLR 20/09 A2988 RMK AO2 T02000092","observationTime":"2026-03-26T08:35:00.000Z","flightCategory":"VFR","latitude":35.6139,"longitude":-100.9972},"K1B9":{"rawOb":"METAR K1B9 260835Z AUTO 18005KT 10SM FEW085 OVC110 06/05 A3002 RMK AO2 T00570053 $","observationTime":"2026-03-26T08:35:00.000Z","flightCategory":"VFR","latitude":42,"longitude":-71.197},"K1R7":{"rawOb":"METAR K1R7 260835Z AUTO 00000KT 6SM BKN011 OVC024 A3012 RMK A01 TSNO","observationTime":"2026-03-26T08:35:00.000Z","flightCategory":"MVFR","latitude":31.6057,"longitude":-90.4072},"K1S3":{"rawOb":"METAR K1S3 260835Z AUTO 11006KT 9SM FEW055 OVC075 02/M01 A3004 RMK AO2 T00161011","observationTime":"2026-03-26T08:35:00.000Z","flightCategory":"VFR","latitude":46.2695,"longitude":-106.6196},"K3LF":{"rawOb":"METAR K3LF 260835Z AUTO 17010KT 10SM CLR 16/12 A2982 RMK AO2 T01600118","observationTime":"2026-03-26T08:35:00.000Z","flightCategory":"VFR","latitude":39.1605,"longitude":-89.6742},"K3T5":{"rawOb":"METAR K3T5 260835Z AUTO 10SM BKN012 BKN017 OVC024 20/20 A3003 RMK AO2 CIG 010V015 T02040202 $","observationTime":"2026-03-26T08:35:00.000Z","flightCategory":"MVFR","latitude":29.9064,"longitude":-96.9478},"K3U3":{"rawOb":"METAR K3U3 260835Z AUTO 00000KT 10SM BKN075 OVC095 01/M02 A3003 RMK AO2 T00101020 $","observationTime":"2026-03-26T08:35:00.000Z","flightCategory":"VFR","latitude":46.1516,"longitude":-112.8683},"K4F2":{"rawOb":"METAR K4F2 260835Z AUTO 16004KT 10SM CLR 18/16 A3005 RMK AO2 T01770161","observationTime":"2026-03-26T08:35:00.000Z","flightCategory":"VFR","latitude":32.18,"longitude":-94.2976},"KRWV":{"rawOb":"METAR KRWV 260835Z AUTO 17007KT 10SM OVC019 20/17 A3005 RMK AO2 PWINO","observationTime":"2026-03-26T08:35:00.000Z","flightCategory":"MVFR","latitude":30.5161,"longitude":-96.7051},"K7L2":{"rawOb":"METAR K7L2 260835Z AUTO 01016KT 10SM SCT009 SCT070 SCT120 01/01 A2996 RMK AO2","observationTime":"2026-03-26T08:35:00.000Z","flightCategory":"VFR","latitude":46.219,"longitude":-100.2449},"K9V9":{"rawOb":"METAR K9V9 260835Z AUTO 02014G22KT 10SM CLR 15/04 A2972 RMK AO2 T01500035","observationTime":"2026-03-26T08:35:00.000Z","flightCategory":"VFR","latitude":43.7653,"longitude":-99.3163},"KASJ":{"rawOb":"METAR KASJ 260835Z AUTO 19003KT 10SM OVC049 13/09 A3018 RMK AO2 T01300087","observationTime":"2026-03-26T08:35:00.000Z","flightCategory":"VFR","latitude":36.2941,"longitude":-77.1724},"KBIJ":{"rawOb":"METAR KBIJ 260835Z AUTO 00000KT 4SM BR CLR 11/11 A3017 RMK AO2","observationTime":"2026-03-26T08:35:00.000Z","flightCategory":"MVFR","latitude":31.4,"longitude":-84.8939},"KBKN":{"rawOb":"METAR KBKN 260835Z AUTO 18009KT 10SM CLR 19/16 A2984 RMK AO2","observationTime":"2026-03-26T08:35:00.000Z","flightCategory":"VFR","latitude":36.7431,"longitude":-97.3479},"KBRY":{"rawOb":"METAR KBRY 260835Z AUTO 20006KT 10SM SCT140 BKN180 18/12 A2997 RMK AO2 T01810117","observationTime":"2026-03-26T08:35:00.000Z","flightCategory":"VFR","latitude":37.8079,"longitude":-85.5011},"KBXK":{"rawOb":"METAR KBXK 260835Z AUTO 00000KT 10SM CLR 20/M04 A2986 RMK AO2","observationTime":"2026-03-26T08:35:00.000Z","flightCategory":"VFR","latitude":33.4178,"longitude":-112.6884},"KC24":{"rawOb":"METAR KC24 260835Z AUTO 00000KT 10SM CLR 03/M03 A3028 RMK AO2 T00341026","observationTime":"2026-03-26T08:35:00.000Z","flightCategory":"VFR","latitude":37.822,"longitude":-106.9303},"KRCE":{"rawOb":"METAR KRCE 260835Z AUTO 19012KT 10SM CLR 20/15 A2988 RMK AO2","observationTime":"2026-03-26T08:35:00.000Z","flightCategory":"VFR","latitude":35.4971,"longitude":-97.8255},"KPSN":{"rawOb":"METAR KPSN 260835Z AUTO 17006KT 10SM CLR 19/17 A3003 RMK AO2","observationTime":"2026-03-26T08:35:00.000Z","flightCategory":"VFR","latitude":31.7784,"longitude":-95.7048},"KS52":{"rawOb":"METAR KS52 260835Z AUTO 35005KT 10SM OVC095 M02/M06 A3023 RMK AO2 T10211057","observationTime":"2026-03-26T08:35:00.000Z","flightCategory":"VFR","latitude":48.4282,"longitude":-120.1505},"KRSN":{"rawOb":"METAR KRSN 260835Z AUTO 20004KT 10SM CLR 18/15 A3005 RMK AO2 T01760148 $","observationTime":"2026-03-26T08:35:00.000Z","flightCategory":"VFR","latitude":32.5159,"longitude":-92.5899},"KRVL":{"rawOb":"METAR KRVL 260835Z AUTO 00000KT 10SM OVC075 08/01 A2993 RMK AO2","observationTime":"2026-03-26T08:35:00.000Z","flightCategory":"VFR","latitude":40.6768,"longitude":-77.6251},"KSAR":{"rawOb":"METAR KSAR 260835Z AUTO 18009KT 10SM CLR 19/14 A2987 RMK AO2 T01930135","observationTime":"2026-03-26T08:35:00.000Z","flightCategory":"VFR","latitude":38.1463,"longitude":-89.7025},"KU14":{"rawOb":"METAR KU14 260835Z AUTO 18008KT 10SM OVC110 20/M01 A2998 RMK AO2","observationTime":"2026-03-26T08:35:00.000Z","flightCategory":"VFR","latitude":39.7381,"longitude":-111.8726},"KPRS":{"rawOb":"METAR KPRS 260835Z AUTO 36006KT 10SM CLR 24/07 A2997 RMK AO2 T02380072","observationTime":"2026-03-26T08:35:00.000Z","flightCategory":"VFR","latitude":29.6346,"longitude":-104.3585},"KCAD":{"rawOb":"METAR KCAD 260835Z AUTO 36001KT 10SM CLR M01/M03 A2974 RMK AO2","observationTime":"2026-03-26T08:35:00.000Z","flightCategory":"VFR","latitude":44.2785,"longitude":-85.4207},"KCCA":{"rawOb":"METAR KCCA 260835Z AUTO 00000KT 7SM CLR 12/12 A2998 RMK AO2 TSNO","observationTime":"2026-03-26T08:35:00.000Z","flightCategory":"VFR","latitude":35.5946,"longitude":-92.4455},"KCKI":{"rawOb":"METAR KCKI 260835Z AUTO 00000KT 10SM CLR 10/08 A3019 RMK AO2","observationTime":"2026-03-26T08:35:00.000Z","flightCategory":"VFR","latitude":33.7186,"longitude":-79.8567},"KCKZ":{"rawOb":"METAR KCKZ 260835Z AUTO VRB04KT 10SM OVC085 08/04 A3001 RMK AO2","observationTime":"2026-03-26T08:35:00.000Z","flightCategory":"VFR","latitude":40.3864,"longitude":-75.2953},"KCPT":{"rawOb":"METAR KCPT 260835Z AUTO 17011KT 10SM CLR 19/18 A2993 RMK AO2 T01930177 $","observationTime":"2026-03-26T08:35:00.000Z","flightCategory":"VFR","latitude":32.3526,"longitude":-97.435},"KCQW":{"rawOb":"METAR KCQW 260835Z AUTO 26006KT 10SM 14/12 A3017 RMK AO2","observationTime":"2026-03-26T08:35:00.000Z","flightCategory":"VFR","latitude":34.7128,"longitude":-79.9622},"KD57":{"rawOb":"METAR KD57 260835Z AUTO 01012G17KT 4SM BR OVC008 M01/M03 A2999 RMK AO2","observationTime":"2026-03-26T08:35:00.000Z","flightCategory":"IFR","latitude":46.814,"longitude":-101.864},"KDYT":{"rawOb":"METAR KDYT 260835Z AUTO 05006KT 8SM BKN006 BKN020 OVC075 00/00 A2976 RMK AO2","observationTime":"2026-03-26T08:35:00.000Z","flightCategory":"IFR","latitude":46.7231,"longitude":-92.0438},"KECS":{"rawOb":"METAR KECS 260835Z AUTO 00000KT 10SM CLR 09/00 A2982 RMK AO2","observationTime":"2026-03-26T08:35:00.000Z","flightCategory":"VFR","latitude":43.8845,"longitude":-104.312},"KEFT":{"rawOb":"METAR KEFT 260835Z AUTO 19005KT 10SM CLR 13/07 A2972 RMK AO2 T01280065","observationTime":"2026-03-26T08:35:00.000Z","flightCategory":"VFR","latitude":42.6196,"longitude":-89.5931},"KEGV":{"rawOb":"METAR KEGV 260835Z AUTO 02003KT 10SM CLR 03/M03 A2973 RMK AO2 T00251035","observationTime":"2026-03-26T08:35:00.000Z","flightCategory":"VFR","latitude":45.9309,"longitude":-89.267},"KELK":{"rawOb":"METAR KELK 260835Z AUTO 19016KT 7SM CLR 20/14 A2984 RMK AO2 T01990139 $","observationTime":"2026-03-26T08:35:00.000Z","flightCategory":"VFR","latitude":35.4261,"longitude":-99.3926},"KF05":{"rawOb":"METAR KF05 260835Z AUTO 19006KT 10SM CLR 22/13 A2989 RMK AO2 T02180130","observationTime":"2026-03-26T08:35:00.000Z","flightCategory":"VFR","latitude":34.2283,"longitude":-99.2834},"KIIB":{"rawOb":"METAR KIIB 260835Z AUTO 07004KT 10SM CLR 09/07 A2969 RMK AO2 T00930066","observationTime":"2026-03-26T08:35:00.000Z","flightCategory":"VFR","latitude":42.4544,"longitude":-91.9504},"KIJX":{"rawOb":"METAR KIJX 260835Z AUTO 18006KT 10SM CLR 18/11 A2977 RMK AO2 T01760106","observationTime":"2026-03-26T08:35:00.000Z","flightCategory":"VFR","latitude":39.774,"longitude":-90.2419},"KHAI":{"rawOb":"METAR KHAI 260835Z AUTO 20008KT 10SM CLR 09/05 A2980 RMK AO2","observationTime":"2026-03-26T08:35:00.000Z","flightCategory":"VFR","latitude":41.9591,"longitude":-85.5933},"KOLG":{"rawOb":"METAR KOLG 260835Z AUTO 17009KT 10SM BKN046 OVC050 A2975 RMK AO1 P0001","observationTime":"2026-03-26T08:35:00.000Z","flightCategory":"VFR","latitude":46.3153,"longitude":-91.8183},"KPQN":{"rawOb":"METAR KPQN 260835Z AUTO 04013KT 10SM BKN180 12/07 A2967 RMK AO2 T01200067","observationTime":"2026-03-26T08:35:00.000Z","flightCategory":"VFR","latitude":43.9854,"longitude":-96.2977},"KPWC":{"rawOb":"METAR KPWC 260835Z AUTO 28005KT 9SM -RA FEW023 OVC060 08/04 A2980 RMK AO2 RAB0814 P0000 T00780045","observationTime":"2026-03-26T08:35:00.000Z","flightCategory":"VFR","latitude":46.7266,"longitude":-94.3849},"KRRT":{"rawOb":"METAR KRRT 260835Z AUTO 36008KT 2 1/2SM UP BKN006 OVC010 M02/M03 A2989 RMK AO2","observationTime":"2026-03-26T08:35:00.000Z","flightCategory":"IFR","latitude":48.9318,"longitude":-95.3405},"KJSY":{"rawOb":"METAR KJSY 260835Z AUTO 34006KT 10SM BKN048 01/M06 A3021 RMK AO2 T00071065","observationTime":"2026-03-26T08:35:00.000Z","flightCategory":"VFR","latitude":45.3556,"longitude":-117.2541},"KK88":{"rawOb":"METAR KK88 260835Z AUTO 20010KT 10SM CLR 21/17 A2982 RMK AO2","observationTime":"2026-03-26T08:35:00.000Z","flightCategory":"VFR","latitude":37.8692,"longitude":-95.384},"KDBN":{"rawOb":"METAR KDBN 260835Z AUTO 00000KT 3/4SM BR CLR 09/09 A3019 RMK AO2 T00870087","observationTime":"2026-03-26T08:35:00.000Z","flightCategory":"LIFR","latitude":32.5632,"longitude":-82.9855},"KM21":{"rawOb":"METAR KM21 260835Z AUTO 20008KT 10SM CLR 19/13 A2997 RMK AO2 T01910125","observationTime":"2026-03-26T08:35:00.000Z","flightCategory":"VFR","latitude":37.2291,"longitude":-87.1542},"KTKC":{"rawOb":"METAR KTKC 260835Z AUTO 33013KT 10SM FEW042 SCT065 OVC110 11/08 A2976 RMK AO2","observationTime":"2026-03-26T08:35:00.000Z","flightCategory":"VFR","latitude":44.25,"longitude":-95.612},"KSYN":{"rawOb":"METAR KSYN 260835Z AUTO 00000KT 10SM BKN090 OVC110 08/06 A2973 RMK AO2 T00810055","observationTime":"2026-03-26T08:35:00.000Z","flightCategory":"VFR","latitude":44.474,"longitude":-93.014},"KJSO":{"rawOb":"METAR KJSO 260835Z AUTO 18007KT 10SM CLR 18/18 A3001 RMK AO2 T01840184 $","observationTime":"2026-03-26T08:35:00.000Z","flightCategory":"VFR","latitude":31.869,"longitude":-95.2145},"KJVW":{"rawOb":"METAR KJVW 260835Z AUTO 17007KT 10SM BKN010 BKN060 18/18 A3010 RMK AO2","observationTime":"2026-03-26T08:35:00.000Z","flightCategory":"MVFR","latitude":32.307,"longitude":-90.412},"KJWG":{"rawOb":"METAR KJWG 260835Z AUTO 18014KT 10SM CLR 21/15 A2989 RMK AO2 T02070146","observationTime":"2026-03-26T08:35:00.000Z","flightCategory":"VFR","latitude":35.863,"longitude":-98.423},"KLHM":{"rawOb":"METAR KLHM 260835Z AUTO 25003KT 10SM CLR 13/12 A3001 RMK AO1","observationTime":"2026-03-26T08:35:00.000Z","flightCategory":"VFR","latitude":38.9149,"longitude":-121.3516},"KLNA":{"rawOb":"METAR KLNA 260835Z AUTO 00000KT 10SM SCT033 20/15 A3009 RMK AO2 T02030152","observationTime":"2026-03-26T08:35:00.000Z","flightCategory":"VFR","latitude":26.5925,"longitude":-80.0848},"KLWA":{"rawOb":"METAR KLWA 260835Z AUTO 19005KT 10SM CLR 14/07 A2976 RMK AO2","observationTime":"2026-03-26T08:35:00.000Z","flightCategory":"VFR","latitude":42.3476,"longitude":-86.2578},"KLXL":{"rawOb":"METAR KLXL 260835Z AUTO 00000KT 7SM -RA BKN070 BKN080 07/06 A2980 RMK AO2 P0001","observationTime":"2026-03-26T08:35:00.000Z","flightCategory":"VFR","latitude":45.9509,"longitude":-94.3441},"KLXN":{"rawOb":"METAR KLXN 260835Z AUTO 06003KT 10SM CLR 10/M01 A2971 RMK AO2 T00991012","observationTime":"2026-03-26T08:35:00.000Z","flightCategory":"VFR","latitude":40.7915,"longitude":-99.775},"KMAN":{"rawOb":"METAR KMAN 260835Z AUTO 31014G22KT 10SM SCT085 08/00 A3015 RMK A01","observationTime":"2026-03-26T08:35:00.000Z","flightCategory":"VFR","latitude":43.582,"longitude":-116.5211},"KMDD":{"rawOb":"METAR KMDD 260835Z AUTO 16007KT 10SM 20/10 A2995 RMK AO2 T02030101","observationTime":"2026-03-26T08:35:00.000Z","flightCategory":"VFR","latitude":32.0359,"longitude":-102.0995},"KMDZ":{"rawOb":"METAR KMDZ 260835Z AUTO 00000KT 10SM BKN120 05/03 A2971 RMK AO2 T00490025 PWINO","observationTime":"2026-03-26T08:35:00.000Z","flightCategory":"VFR","latitude":45.1013,"longitude":-90.3064},"KMEZ":{"rawOb":"METAR KMEZ 260835Z AUTO VRB03KT 10SM CLR 21/14 A2998 RMK AO2 T02140137","observationTime":"2026-03-26T08:35:00.000Z","flightCategory":"VFR","latitude":34.5414,"longitude":-94.1918},"KMGR":{"rawOb":"METAR KMGR 260835Z AUTO 13004KT 5SM BR OVC004 16/16 A3017 RMK AO2 T01560156 $","observationTime":"2026-03-26T08:35:00.000Z","flightCategory":"LIFR","latitude":31.0835,"longitude":-83.8035},"KMKJ":{"rawOb":"METAR KMKJ 260835Z AUTO 25009KT 10SM SCT044 BKN050 BKN065 09/00 A3015 RMK AO2 T00900002","observationTime":"2026-03-26T08:35:00.000Z","flightCategory":"VFR","latitude":36.8944,"longitude":-81.3449},"KMKS":{"rawOb":"METAR KMKS 260835Z AUTO 00000KT 10SM OVC060 11/10 A3018 RMK AO2","observationTime":"2026-03-26T08:35:00.000Z","flightCategory":"VFR","latitude":33.1874,"longitude":-80.0363},"KMRN":{"rawOb":"METAR KMRN 260835Z AUTO 00000KT 10SM SCT050 SCT070 OVC085 11/07 A3020 RMK AO2 T01120071","observationTime":"2026-03-26T08:35:00.000Z","flightCategory":"VFR","latitude":35.8192,"longitude":-81.6097},"KMWC":{"rawOb":"METAR KMWC 260835Z AUTO 00000KT 10SM CLR 07/05 A2974 RMK AO2","observationTime":"2026-03-26T08:35:00.000Z","flightCategory":"VFR","latitude":43.1095,"longitude":-88.0343},"KOKM":{"rawOb":"METAR KOKM 260835Z AUTO 19009G16KT 10SM CLR 22/15 A2990 RMK AO2 T02160150","observationTime":"2026-03-26T08:35:00.000Z","flightCategory":"VFR","latitude":35.6713,"longitude":-95.9514},"KN79":{"rawOb":"METAR KN79 260835Z AUTO VRB03KT 10SM OVC070 11/M00 A2993 RMK AO2 T01061003","observationTime":"2026-03-26T08:35:00.000Z","flightCategory":"VFR","latitude":40.8371,"longitude":-76.546},"KNQA":{"rawOb":"METAR KNQA 260835Z AUTO VRB04KT 10SM CLR 19/12 A2998 RMK A01","observationTime":"2026-03-26T08:35:00.000Z","flightCategory":"VFR","latitude":35.3619,"longitude":-89.8612},"KMOP":{"rawOb":"METAR KMOP 260835Z AUTO 00000KT 10SM CLR 06/00 A2976 RMK AO2 T00550001","observationTime":"2026-03-26T08:35:00.000Z","flightCategory":"VFR","latitude":43.6229,"longitude":-84.743},"K8A3":{"rawOb":"METAR K8A3 260835Z AUTO 22009KT 10SM CLR 17/10 A3006 RMK A01","observationTime":"2026-03-26T08:35:00.000Z","flightCategory":"VFR","latitude":36.4164,"longitude":-85.3061},"KDRM":{"rawOb":"METAR KDRM 260835Z AUTO 00000KT 5SM BR SCT085 BKN110 M02/M02 A2973 RMK AO2 T10171019","observationTime":"2026-03-26T08:35:00.000Z","flightCategory":"MVFR","latitude":46.009,"longitude":-83.743},"KDXX":{"rawOb":"METAR KDXX 260835Z AUTO 02009KT 7SM -RA SCT060 SCT080 08/06 A2979 RMK AO2","observationTime":"2026-03-26T08:35:00.000Z","flightCategory":"VFR","latitude":44.9839,"longitude":-96.1789},"KMGN":{"rawOb":"METAR KMGN 260835Z AUTO 07003KT 5SM BR BKN110 M01/M01 A2974 RMK AO2 T10091012","observationTime":"2026-03-26T08:35:00.000Z","flightCategory":"MVFR","latitude":45.4241,"longitude":-84.913},"K16J":{"rawOb":"METAR K16J 260835Z AUTO 33002KT 8SM BKN070 12/12 A3016 RMK AO2","observationTime":"2026-03-26T08:35:00.000Z","flightCategory":"VFR","latitude":31.7435,"longitude":-84.417},"K06D":{"rawOb":"METAR K06D 260835Z AUTO 35019KT 7SM -SN BKN006 OVC010 M11/M12 A3004 RMK AO2","observationTime":"2026-03-26T08:35:00.000Z","flightCategory":"IFR","latitude":48.8821,"longitude":-99.6217},"K2G4":{"rawOb":"METAR K2G4 260835Z AUTO 26015G26KT 10SM BKN040 BKN050 OVC055 13/M01 A2998 RMK AO2","observationTime":"2026-03-26T08:35:00.000Z","flightCategory":"VFR","latitude":39.5827,"longitude":-79.3418},"K2G9":{"rawOb":"METAR K2G9 260835Z AUTO 22005KT 10SM SCT048 09/00 A2995 RMK AO2","observationTime":"2026-03-26T08:35:00.000Z","flightCategory":"VFR","latitude":40.0401,"longitude":-79.0158},"K3K7":{"rawOb":"METAR K3K7 260835Z AUTO 20011KT 10SM CLR 16/04 A2974 RMK AO2","observationTime":"2026-03-26T08:35:00.000Z","flightCategory":"VFR","latitude":38.4566,"longitude":-101.3527},"K2M8":{"rawOb":"METAR K2M8 260835Z AUTO 22006KT 10SM CLR 22/13 A2998 RMK AO2 T02150130 $","observationTime":"2026-03-26T08:35:00.000Z","flightCategory":"VFR","latitude":35.276,"longitude":-89.931},"K4V1":{"rawOb":"METAR K4V1 260835Z AUTO 26013KT 10SM CLR 18/M03 A2998 RMK AO2","observationTime":"2026-03-26T08:35:00.000Z","flightCategory":"VFR","latitude":37.6941,"longitude":-104.7881},"K5C1":{"rawOb":"METAR K5C1 260835Z AUTO 18007G15KT 10SM OVC011 18/18 A3003 RMK AO1","observationTime":"2026-03-26T08:35:00.000Z","flightCategory":"MVFR","latitude":29.7267,"longitude":-98.6964},"K35A":{"rawOb":"METAR K35A 260835Z AUTO 00000KT 10SM OVC085 12/09 A3022 RMK A02 T01190087","observationTime":"2026-03-26T08:35:00.000Z","flightCategory":"VFR","latitude":34.6849,"longitude":-81.6421},"KAGZ":{"rawOb":"METAR KAGZ 260835Z AUTO 31006KT 10SM CLR 18/07 A2959 RMK AO2 PRESRR","observationTime":"2026-03-26T08:35:00.000Z","flightCategory":"VFR","latitude":43.064,"longitude":-98.295},"K42J":{"rawOb":"METAR K42J 260835Z AUTO 00000KT 1 1/2SM BR OVC003 17/17 A3013 RMK A01","observationTime":"2026-03-26T08:35:00.000Z","flightCategory":"LIFR","latitude":29.844,"longitude":-82.05},"K4M3":{"rawOb":"METAR K4M3 260835Z AUTO 21010KT 10SM FEW045 FEW050 19/14 A2996 RMK A01","observationTime":"2026-03-26T08:35:00.000Z","flightCategory":"VFR","latitude":34.804,"longitude":-91.707},"K4M9":{"rawOb":"METAR K4M9 260835Z AUTO 21008KT 10SM CLR 18/16 A2994 RMK A01","observationTime":"2026-03-26T08:35:00.000Z","flightCategory":"VFR","latitude":36.404,"longitude":-90.647},"KANY":{"rawOb":"METAR KANY 260835Z AUTO 17016G24KT 10SM CLR 21/16 A2981 RMK AO2","observationTime":"2026-03-26T08:35:00.000Z","flightCategory":"VFR","latitude":37.154,"longitude":-98.078},"K4O4":{"rawOb":"METAR K4O4 260835Z AUTO 16008KT 9SM FEW028 BKN032 BKN046 19/17 A2999 RMK AO2","observationTime":"2026-03-26T08:35:00.000Z","flightCategory":"VFR","latitude":33.9134,"longitude":-94.8546},"KSME":{"rawOb":"METAR KSME 260835Z AUTO 19005KT 10SM FEW027 SCT080 BKN110 17/11 A3003 RMK AO2","observationTime":"2026-03-26T08:35:00.000Z","flightCategory":"VFR","latitude":37.0529,"longitude":-84.6141},"KSUN":{"rawOb":"METAR KSUN 260835Z AUTO 34004KT 10SM SCT080 A2997 RMK AO2","observationTime":"2026-03-26T08:35:00.000Z","flightCategory":"VFR","latitude":43.4969,"longitude":-114.2923},"KTEX":{"rawOb":"METAR KTEX 260835Z AUTO 15006KT 10SM CLR 09/M02 A3029 RMK AO2","observationTime":"2026-03-26T08:35:00.000Z","flightCategory":"VFR","latitude":37.954,"longitude":-107.909},"KTME":{"rawOb":"METAR KTME 260835Z AUTO 19007KT 4SM BR OVC003 20/20 A3006 RMK AO2","observationTime":"2026-03-26T08:35:00.000Z","flightCategory":"LIFR","latitude":29.806,"longitude":-95.903},"KTOB":{"rawOb":"METAR KTOB 260835Z AUTO 36007KT 10SM OVC100 09/08 A2970 RMK AO2 T00940079","observationTime":"2026-03-26T08:35:00.000Z","flightCategory":"VFR","latitude":44.0202,"longitude":-92.8295},"KTYL":{"rawOb":"METAR KTYL 260835Z AUTO 19009G14KT 10SM CLR 10/M07 A3017 RMK AO2","observationTime":"2026-03-26T08:35:00.000Z","flightCategory":"VFR","latitude":34.4577,"longitude":-110.1118},"KAXA":{"rawOb":"METAR KAXA 260835Z AUTO 17007KT 10SM CLR 10/08 A2965 RMK A01","observationTime":"2026-03-26T08:35:00.000Z","flightCategory":"VFR","latitude":43.0796,"longitude":-94.2724},"K0R0":{"rawOb":"METAR K0R0 260835Z AUTO VRB05KT 5SM BR BKN016 20/19 A3014 RMK AO2","observationTime":"2026-03-26T08:35:00.000Z","flightCategory":"MVFR","latitude":31.2969,"longitude":-89.816},"K10U":{"rawOb":"METAR K10U 260835Z AUTO 00000KT 10SM BKN065 OVC075 06/M03 A3010 RMK AO2","observationTime":"2026-03-26T08:35:00.000Z","flightCategory":"VFR","latitude":41.953,"longitude":-116.182},"K18A":{"rawOb":"METAR K18A 260835Z AUTO 00000KT 10SM OVC016 12/09 A3019 RMK AO2 T01220088","observationTime":"2026-03-26T08:35:00.000Z","flightCategory":"MVFR","latitude":34.3418,"longitude":-83.1316},"K1A9":{"rawOb":"METAR K1A9 260835Z AUTO 00000KT 10SM CLR 13/13 A3014 RMK AO2 T01330130","observationTime":"2026-03-26T08:35:00.000Z","flightCategory":"VFR","latitude":32.4374,"longitude":-86.5098},"K22N":{"rawOb":"METAR K22N 260835Z AUTO 00000KT 10SM OVC080 06/01 A3000 RMK AO2","observationTime":"2026-03-26T08:35:00.000Z","flightCategory":"VFR","latitude":40.8115,"longitude":-75.7648},"K2A0":{"rawOb":"METAR K2A0 260835Z AUTO 22003KT 10SM CLR 14/10 A3012 RMK A01","observationTime":"2026-03-26T08:35:00.000Z","flightCategory":"VFR","latitude":35.4817,"longitude":-84.9322},"K2M2":{"rawOb":"METAR K2M2 260835Z AUTO VRB04KT 10SM FEW029 OVC055 16/12 A3006 RMK A01","observationTime":"2026-03-26T08:35:00.000Z","flightCategory":"VFR","latitude":35.2372,"longitude":-87.2611},"K2R9":{"rawOb":"METAR K2R9 260835Z AUTO 17006KT 10SM OVC014 21/18 A3002 RMK AO2","observationTime":"2026-03-26T08:35:00.000Z","flightCategory":"MVFR","latitude":28.8267,"longitude":-97.8676},"K33N":{"rawOb":"METAR K33N 260835Z AUTO 21011KT 10SM 13/07 A3003 RMK A01","observationTime":"2026-03-26T08:35:00.000Z","flightCategory":"VFR","latitude":39.218,"longitude":-75.597},"K3S8":{"rawOb":"METAR K3S8 260835Z AUTO 33007KT 10SM CLR 05/M02 A3041 RMK AO2","observationTime":"2026-03-26T08:35:00.000Z","flightCategory":"VFR","latitude":42.51,"longitude":-123.388},"K3W7":{"rawOb":"METAR K3W7 260835Z AUTO 22007KT 10SM CLR 03/M06 A3020 RMK AO2","observationTime":"2026-03-26T08:35:00.000Z","flightCategory":"VFR","latitude":47.9219,"longitude":-119.0771},"K42A":{"rawOb":"METAR K42A 260835Z AUTO 22009KT 10SM CLR A2994 RMK AO2","observationTime":"2026-03-26T08:35:00.000Z","flightCategory":"VFR","latitude":36.0713,"longitude":-91.8287},"K48A":{"rawOb":"METAR K48A 260835Z AUTO 00000KT 1/2SM FG OVC003 10/09 A3018 RMK AO2 T00960092","observationTime":"2026-03-26T08:35:00.000Z","flightCategory":"LIFR","latitude":32.3993,"longitude":-83.2785},"K4R5":{"rawOb":"METAR K4R5 260835Z AUTO 04004KT 10SM OVC005 00/M01 A2978 RMK AO2 T10021015","observationTime":"2026-03-26T08:35:00.000Z","flightCategory":"IFR","latitude":46.7887,"longitude":-90.7559},"K5H4":{"rawOb":"METAR K5H4 260835Z AUTO 01016KT 10SM OVC007 M07/M07 A3005 RMK AO2","observationTime":"2026-03-26T08:35:00.000Z","flightCategory":"IFR","latitude":47.7906,"longitude":-99.9346},"K63S":{"rawOb":"METAR K63S 260835Z AUTO 30003KT 10SM CLR 05/M13 A3014 RMK A01","observationTime":"2026-03-26T08:35:00.000Z","flightCategory":"VFR","latitude":48.544,"longitude":-117.884},"K6E5":{"rawOb":"METAR K6E5 260835Z AUTO 04018KT 10SM FEW050 SCT055 11/09 A2969 RMK AO2","observationTime":"2026-03-26T08:35:00.000Z","flightCategory":"VFR","latitude":44.4324,"longitude":-97.5598},"K8D4":{"rawOb":"METAR K8D4 260835Z AUTO 11002KT 10SM CLR 05/01 A2975 RMK AO2","observationTime":"2026-03-26T08:35:00.000Z","flightCategory":"VFR","latitude":43.1295,"longitude":-85.6779},"K9MN":{"rawOb":"METAR K9MN 260835Z AUTO 00000KT 10SM SCT090 OVC110 10/05 A2972 RMK AO1 T01020049","observationTime":"2026-03-26T08:35:00.000Z","flightCategory":"VFR","latitude":44.0198,"longitude":-92.4829},"K9S2":{"rawOb":"METAR K9S2 260835Z AUTO 36016KT 10SM FEW005 FEW009 BKN013 M12/M13 A3009 RMK AO2","observationTime":"2026-03-26T08:35:00.000Z","flightCategory":"MVFR","latitude":48.808,"longitude":-105.436},"K9S9":{"rawOb":"METAR K9S9 260835Z AUTO 21006KT 10SM 02/M03 A3038 RMK AO2","observationTime":"2026-03-26T08:35:00.000Z","flightCategory":"VFR","latitude":45.4551,"longitude":-119.6859},"KA39":{"rawOb":"METAR KA39 260835Z AUTO 13010KT 10SM CLR 21/M05 A2991 RMK AO2","observationTime":"2026-03-26T08:35:00.000Z","flightCategory":"VFR","latitude":32.9875,"longitude":-111.9216},"KAAA":{"rawOb":"METAR KAAA 260835Z AUTO 17005KT 10SM CLR 16/10 A2977 RMK AO2 T01570097","observationTime":"2026-03-26T08:35:00.000Z","flightCategory":"VFR","latitude":40.1584,"longitude":-89.3389},"KAJR":{"rawOb":"METAR KAJR 260835Z AUTO 05004KT 7SM SCT016 10/07 A3019 RMK AO2 T01000069","observationTime":"2026-03-26T08:35:00.000Z","flightCategory":"VFR","latitude":34.5006,"longitude":-83.5519},"KARV":{"rawOb":"METAR KARV 260835Z AUTO 36009KT 10SM SCT120 03/M01 A2973 RMK AO2 T00271015","observationTime":"2026-03-26T08:35:00.000Z","flightCategory":"VFR","latitude":45.9264,"longitude":-89.7307},"KATP":{"rawOb":"METAR KATP 260835Z AUTO 12008KT 7SM BKN040 A3010 RMK A01","observationTime":"2026-03-26T08:35:00.000Z","flightCategory":"VFR","latitude":27.1956,"longitude":-90.0269},"KAUH":{"rawOb":"METAR KAUH 260835Z AUTO 22010KT 10SM CLR 17/05 A2967 RMK AO2 T01660045","observationTime":"2026-03-26T08:35:00.000Z","flightCategory":"VFR","latitude":40.8966,"longitude":-97.9973},"KAVK":{"rawOb":"METAR KAVK 260835Z AUTO 18011KT 10SM CLR 18/16 A2980 RMK A01","observationTime":"2026-03-26T08:35:00.000Z","flightCategory":"VFR","latitude":36.7765,"longitude":-98.6724},"KS21":{"rawOb":"METAR KS21 260835Z AUTO 23004KT 10SM CLR M02/M06 A3032 RMK AO2","observationTime":"2026-03-26T08:35:00.000Z","flightCategory":"VFR","latitude":43.8801,"longitude":-121.4536},"KS33":{"rawOb":"METAR KS33 260835Z AUTO 09005KT 10SM CLR M02/M05 A3036 RMK AO2","observationTime":"2026-03-26T08:35:00.000Z","flightCategory":"VFR","latitude":44.6653,"longitude":-121.1565},"KSBS":{"rawOb":"METAR KSBS 260835Z AUTO 11007KT 10SM BKN110 12/M01 A3000 RMK AO1 T01201010","observationTime":"2026-03-26T08:35:00.000Z","flightCategory":"VFR","latitude":40.5153,"longitude":-106.8677},"KSBX":{"rawOb":"METAR KSBX 260835Z AUTO 03006KT 10SM OVC010 M06/M06 A3007 RMK AO2","observationTime":"2026-03-26T08:35:00.000Z","flightCategory":"MVFR","latitude":48.541,"longitude":-111.871},"KSCX":{"rawOb":"METAR KSCX 260835Z AUTO 20007KT 10SM SCT046 BKN050 15/09 A3008 RMK A01","observationTime":"2026-03-26T08:35:00.000Z","flightCategory":"VFR","latitude":36.4553,"longitude":-84.584},"KCFO":{"rawOb":"METAR KCFO 260835Z AUTO 21011KT 10SM CLR 19/M04 A2988 RMK AO2 T01871041","observationTime":"2026-03-26T08:35:00.000Z","flightCategory":"VFR","latitude":39.7948,"longitude":-104.5405},"KCKM":{"rawOb":"METAR KCKM 260835Z AUTO 15003KT 10SM A3003 RMK A01","observationTime":"2026-03-26T08:35:00.000Z","flightCategory":"VFR","latitude":34.2945,"longitude":-90.5146},"KCPC":{"rawOb":"METAR KCPC 260835Z AUTO 00000KT 10SM CLR 11/09 A3019 RMK AO2 T01070091","observationTime":"2026-03-26T08:35:00.000Z","flightCategory":"VFR","latitude":34.2753,"longitude":-78.7146},"KCPW":{"rawOb":"METAR KCPW 260835Z AUTO 26010KT 10SM CLR 06/M05 A3048 RMK AO2 PWINO","observationTime":"2026-03-26T08:35:00.000Z","flightCategory":"VFR","latitude":37.464,"longitude":-106.804},"KCRX":{"rawOb":"METAR KCRX 260835Z AUTO 16007KT 16/14 A3004 RMK AO2","observationTime":"2026-03-26T08:35:00.000Z","flightCategory":"null","latitude":34.9209,"longitude":-88.6071},"KCUH":{"rawOb":"METAR KCUH 260835Z AUTO 18006KT 10SM CLR 20/14 A2987 RMK AO2 T01960142","observationTime":"2026-03-26T08:35:00.000Z","flightCategory":"VFR","latitude":35.949,"longitude":-96.768},"KM02":{"rawOb":"METAR KM02 260835Z AUTO 21009KT 10SM 17/12 A3002 RMK A01","observationTime":"2026-03-26T08:35:00.000Z","flightCategory":"VFR","latitude":36.1289,"longitude":-87.4283},"KMAO":{"rawOb":"METAR KMAO 260835Z AUTO 17003KT 10SM CLR 11/11 A3017 RMK AO2","observationTime":"2026-03-26T08:35:00.000Z","flightCategory":"VFR","latitude":34.1852,"longitude":-79.3341},"KMBT":{"rawOb":"METAR KMBT 260835Z AUTO 20007KT 10SM FEW033 SCT040 OVC050 18/11 A3005 RMK A01","observationTime":"2026-03-26T08:35:00.000Z","flightCategory":"VFR","latitude":35.8767,"longitude":-86.3793},"KMNV":{"rawOb":"METAR KMNV 260835Z AUTO 23005KT 10SM BKN055 BKN065 12/09 A3013 RMK A01","observationTime":"2026-03-26T08:35:00.000Z","flightCategory":"VFR","latitude":35.5429,"longitude":-84.3808},"KMOX":{"rawOb":"METAR KMOX 260835Z AUTO 32007KT 6SM -RA BR FEW043 SCT050 BKN060 07/07 A2982 RMK AO2","observationTime":"2026-03-26T08:35:00.000Z","flightCategory":"VFR","latitude":45.5677,"longitude":-95.9659},"KMPR":{"rawOb":"METAR KMPR 260835Z AUTO 17011KT 10SM CLR 19/14 A2977 RMK AO2 T01860145","observationTime":"2026-03-26T08:35:00.000Z","flightCategory":"VFR","latitude":38.3491,"longitude":-97.6883},"KGMJ":{"rawOb":"METAR KGMJ 260835Z AUTO 20012KT 10SM CLR 21/15 A2989 RMK AO2","observationTime":"2026-03-26T08:35:00.000Z","flightCategory":"VFR","latitude":36.607,"longitude":-94.7369},"KGOO":{"rawOb":"METAR KGOO 260835Z AUTO 00000KT 10SM CLR 14/03 A3009 RMK A01","observationTime":"2026-03-26T08:35:00.000Z","flightCategory":"VFR","latitude":39.224,"longitude":-121.003},"KGZL":{"rawOb":"METAR KGZL 260835Z AUTO 20006KT 10SM CLR 21/16 A2991 RMK AO2","observationTime":"2026-03-26T08:35:00.000Z","flightCategory":"VFR","latitude":35.2913,"longitude":-95.0956},"KGZS":{"rawOb":"METAR KGZS 260835Z AUTO 00000KT 10SM FEW034 SCT040 BKN047 14/13 A3007 RMK A01","observationTime":"2026-03-26T08:35:00.000Z","flightCategory":"VFR","latitude":35.1532,"longitude":-87.0543},"KHCD":{"rawOb":"METAR KHCD 260835Z AUTO 02014G20KT 10SM -RA OVC100 11/06 A2975 RMK AO2 T01130060","observationTime":"2026-03-26T08:35:00.000Z","flightCategory":"VFR","latitude":44.8597,"longitude":-94.3855},"KHDE":{"rawOb":"METAR KHDE 260835Z AUTO 22008KT 10SM CLR 17/04 A2969 RMK AO2 T01700040","observationTime":"2026-03-26T08:35:00.000Z","flightCategory":"VFR","latitude":40.4496,"longitude":-99.3363},"KHOE":{"rawOb":"METAR KHOE 260835Z AUTO 00000KT 1 1/2SM BR OVC002 15/15 A3017 RMK AO2 T01560150","observationTime":"2026-03-26T08:35:00.000Z","flightCategory":"LIFR","latitude":31.0561,"longitude":-82.7726},"KHQZ":{"rawOb":"METAR KHQZ 260835Z AUTO 16008KT 10SM CLR 19/15 A2999 RMK AO1 T01870153","observationTime":"2026-03-26T08:35:00.000Z","flightCategory":"VFR","latitude":32.7514,"longitude":-96.5291},"KHRF":{"rawOb":"METAR KHRF 260835Z AUTO 21004KT 10SM FEW044 BKN055 OVC070 05/00 A3010 RMK AO2","observationTime":"2026-03-26T08:35:00.000Z","flightCategory":"VFR","latitude":46.2576,"longitude":-114.1274},"KD39":{"rawOb":"METAR KD39 260835Z AUTO 30004KT 10SM -RA SCT070 BKN090 BKN110 08/08 A2982 RMK AO2 P0001 T00750075","observationTime":"2026-03-26T08:35:00.000Z","flightCategory":"VFR","latitude":45.7056,"longitude":-94.9309},"KD73":{"rawOb":"METAR KD73 260835Z AUTO 10SM SCT009 OVC070 10/10 A3019 RMK AO2 T01030097","observationTime":"2026-03-26T08:35:00.000Z","flightCategory":"VFR","latitude":33.7826,"longitude":-83.6948},"KD95":{"rawOb":"METAR KD95 260835Z AUTO 00000KT 10SM CLR 12/02 A2979 RMK AO2","observationTime":"2026-03-26T08:35:00.000Z","flightCategory":"VFR","latitude":43.0675,"longitude":-83.2702},"KRLD":{"rawOb":"METAR KRLD 260835Z AUTO 00000KT 10SM CLR 05/M02 A3034 RMK AO2 T00511021","observationTime":"2026-03-26T08:35:00.000Z","flightCategory":"VFR","latitude":46.3086,"longitude":-119.3058},"KS12":{"rawOb":"METAR KS12 260835Z AUTO 00000KT 10SM CLR 02/01 A3045 RMK AO2","observationTime":"2026-03-26T08:35:00.000Z","flightCategory":"VFR","latitude":44.6394,"longitude":-123.0585},"KTTF":{"rawOb":"METAR KTTF 260835Z AUTO 25006KT 10SM CLR 11/04 A2983 RMK AO2","observationTime":"2026-03-26T08:35:00.000Z","flightCategory":"VFR","latitude":41.9371,"longitude":-83.4332},"KTZR":{"rawOb":"METAR KTZR 260835Z AUTO 23009KT 10SM SCT080 SCT120 15/09 A2992 RMK AO2 T01500091","observationTime":"2026-03-26T08:35:00.000Z","flightCategory":"VFR","latitude":39.8988,"longitude":-83.1357},"KVCV":{"rawOb":"METAR KVCV 260835Z AUTO 20007G13KT 10SM CLR 18/01 A3003 RMK AO2","observationTime":"2026-03-26T08:35:00.000Z","flightCategory":"VFR","latitude":34.5933,"longitude":-117.3893},"KGLX":{"rawOb":"METAR KGLX 260835Z AUTO 08008G15KT 9SM SCT019 BKN026 BKN030 23/19 A3010 RMK A01","observationTime":"2026-03-26T08:35:00.000Z","flightCategory":"MVFR","latitude":28.2347,"longitude":-88.9843},"KVKS":{"rawOb":"METAR KVKS 260835Z AUTO 17005KT 10SM SCT050 18/17 A3007 RMK A01","observationTime":"2026-03-26T08:35:00.000Z","flightCategory":"VFR","latitude":32.2359,"longitude":-90.9269},"KLUV":{"rawOb":"METAR KLUV 260835Z AUTO 19008KT 10SM BKN100 OVC120 17/11 A2997 RMK AO2","observationTime":"2026-03-26T08:35:00.000Z","flightCategory":"VFR","latitude":32.7481,"longitude":-101.9127},"TJPS":{"rawOb":"METAR TJPS 260835Z AUTO 00000KT 10SM CLR 22/21 A2994 RMK AO2","observationTime":"2026-03-26T08:35:00.000Z","flightCategory":"VFR","latitude":18.011,"longitude":-66.567},"KGNG":{"rawOb":"METAR KGNG 260835Z AUTO 26018G26KT 10SM 08/05 A3001 RMK AO2","observationTime":"2026-03-26T08:35:00.000Z","flightCategory":"VFR","latitude":42.9155,"longitude":-114.7655},"KI40":{"rawOb":"METAR KI40 260835Z AUTO 17004KT 10SM BKN060 BKN075 14/06 A2993 RMK AO2","observationTime":"2026-03-26T08:35:00.000Z","flightCategory":"VFR","latitude":40.3101,"longitude":-81.8544},"KCPP":{"rawOb":"METAR KCPP 260835Z AUTO 00000KT 6SM BR BKN007 OVC070 12/11 A3019 RMK AO2","observationTime":"2026-03-26T08:35:00.000Z","flightCategory":"IFR","latitude":33.5991,"longitude":-83.1401},"KCSQ":{"rawOb":"METAR KCSQ 260835Z AUTO 14003KT 10SM CLR 12/09 A2970 RMK AO2","observationTime":"2026-03-26T08:35:00.000Z","flightCategory":"VFR","latitude":41.0189,"longitude":-94.361},"KCTZ":{"rawOb":"METAR KCTZ 260835Z AUTO 00000KT 10SM BKN048 OVC060 14/13 A3019 RMK AO2 T01360127","observationTime":"2026-03-26T08:35:00.000Z","flightCategory":"VFR","latitude":34.9752,"longitude":-78.3628},"KCZL":{"rawOb":"METAR KCZL 260835Z AUTO 00000KT 8SM CLR 11/11 A3016 RMK AO2","observationTime":"2026-03-26T08:35:00.000Z","flightCategory":"VFR","latitude":34.45,"longitude":-84.936},"KDED":{"rawOb":"METAR KDED 260835Z AUTO 00000KT 7SM CLR 17/17 A3012 RMK AO2 T01740166","observationTime":"2026-03-26T08:35:00.000Z","flightCategory":"VFR","latitude":29.075,"longitude":-81.286},"KDKR":{"rawOb":"METAR KDKR 260835Z AUTO 15005KT 10SM FEW013 18/19 A3004 RMK AO2","observationTime":"2026-03-26T08:35:00.000Z","flightCategory":"VFR","latitude":31.3097,"longitude":-95.4039},"KDUX":{"rawOb":"METAR KDUX 260835Z AUTO 21013KT 10SM CLR 20/05 A2988 RMK AO2","observationTime":"2026-03-26T08:35:00.000Z","flightCategory":"VFR","latitude":35.8608,"longitude":-102.0095},"KIDP":{"rawOb":"METAR KIDP 260835Z AUTO 18011KT 10SM CLR 20/16 A2985 RMK AO2","observationTime":"2026-03-26T08:35:00.000Z","flightCategory":"VFR","latitude":37.1566,"longitude":-95.7792},"KIER":{"rawOb":"METAR KIER 260835Z AUTO 00000KT 10SM BKN007 16/16 A3007 RMK AO2 T01640164 PNO","observationTime":"2026-03-26T08:35:00.000Z","flightCategory":"IFR","latitude":31.736,"longitude":-93.1003},"KK83":{"rawOb":"METAR KK83 260835Z AUTO 20010KT 10SM CLR 16/10 A2972 RMK AO2 T01600097","observationTime":"2026-03-26T08:35:00.000Z","flightCategory":"VFR","latitude":39.9053,"longitude":-95.7747},"KLAM":{"rawOb":"METAR KLAM 260835Z AUTO 27008KT 10SM CLR 19/M04 A3012 RMK AO2 T01851044 $","observationTime":"2026-03-26T08:35:00.000Z","flightCategory":"VFR","latitude":35.8789,"longitude":-106.2621},"KLGC":{"rawOb":"METAR KLGC 260835Z AUTO 00000KT 10SM CLR 11/09 A3017 RMK AO2","observationTime":"2026-03-26T08:35:00.000Z","flightCategory":"VFR","latitude":33.0093,"longitude":-85.0717},"K4BM":{"rawOb":"METAR K4BM 260835Z AUTO 17018G30KT 10SM CLR 10/M05 A3033 RMK AO2","observationTime":"2026-03-26T08:35:00.000Z","flightCategory":"VFR","latitude":39.05,"longitude":-105.514},"KLWB":{"rawOb":"METAR KLWB 260835Z AUTO 22002KT 10SM FEW070 07/01 A3008 RMK AO2","observationTime":"2026-03-26T08:35:00.000Z","flightCategory":"VFR","latitude":37.8633,"longitude":-80.3923},"KMGC":{"rawOb":"METAR KMGC 260835Z AUTO 14005KT 10SM CLR 10/06 A2980 RMK AO2","observationTime":"2026-03-26T08:35:00.000Z","flightCategory":"VFR","latitude":41.7048,"longitude":-86.8183},"KMXO":{"rawOb":"METAR KMXO 260835Z AUTO 00000KT 6SM BR CLR 07/07 A2966 RMK AO2","observationTime":"2026-03-26T08:35:00.000Z","flightCategory":"VFR","latitude":42.2203,"longitude":-91.1604},"KDNA":{"rawOb":"METAR KDNA 260835Z AUTO 00000KT 10SM CLR 18/M14 A3002 RMK AO2","observationTime":"2026-03-26T08:35:00.000Z","flightCategory":"VFR","latitude":31.875,"longitude":-106.6938},"KMYP":{"rawOb":"METAR KMYP 260835Z AUTO 28028KT 10SM CLR 05/M05 A3048 RMK AO2","observationTime":"2026-03-26T08:35:00.000Z","flightCategory":"VFR","latitude":38.4972,"longitude":-106.32},"KOBE":{"rawOb":"METAR KOBE 260835Z AUTO 00000KT 10SM BKN034 18/18 A3008 RMK AO2","observationTime":"2026-03-26T08:35:00.000Z","flightCategory":"VFR","latitude":27.2663,"longitude":-80.8487},"KOUN":{"rawOb":"METAR KOUN 260835Z AUTO 17011KT 10SM CLR 20/15 A2988 RMK AO2 T02040148","observationTime":"2026-03-26T08:35:00.000Z","flightCategory":"VFR","latitude":35.2436,"longitude":-97.4713},"KE38":{"rawOb":"METAR KE38 260835Z AUTO 25006KT 10SM CLR 19/05 A3010 RMK AO2 T01880046","observationTime":"2026-03-26T08:35:00.000Z","flightCategory":"VFR","latitude":30.3851,"longitude":-103.6803},"KEBG":{"rawOb":"METAR KEBG 260835Z AUTO 14006KT 10SM FEW018 20/18 A3000 RMK AO2","observationTime":"2026-03-26T08:35:00.000Z","flightCategory":"VFR","latitude":26.4433,"longitude":-98.1255},"KECU":{"rawOb":"METAR KECU 260835Z AUTO 14015G20KT 10SM BKN009 BKN013 18/16 A3006 RMK AO2","observationTime":"2026-03-26T08:35:00.000Z","flightCategory":"IFR","latitude":29.948,"longitude":-100.1736},"KFKR":{"rawOb":"METAR KFKR 260835Z AUTO 21014KT 9SM FEW006 BKN050 OVC065 16/16 A2986 RMK AO2 LTG DSNT S AND SW","observationTime":"2026-03-26T08:35:00.000Z","flightCategory":"VFR","latitude":40.2748,"longitude":-86.5644},"KHPT":{"rawOb":"METAR KHPT 260835Z AUTO 16003KT 10SM CLR 07/05 A2968 RMK AO2","observationTime":"2026-03-26T08:35:00.000Z","flightCategory":"VFR","latitude":42.7175,"longitude":-93.2244},"KICL":{"rawOb":"METAR KICL 260835Z AUTO 00000KT 10SM CLR 09/07 A2971 RMK AO2","observationTime":"2026-03-26T08:35:00.000Z","flightCategory":"VFR","latitude":40.7242,"longitude":-95.0222},"KLCG":{"rawOb":"METAR KLCG 260835Z AUTO 00000KT 10SM CLR 17/08 A2960 RMK AO2 T01710084","observationTime":"2026-03-26T08:35:00.000Z","flightCategory":"VFR","latitude":42.2423,"longitude":-96.983},"KRTS":{"rawOb":"METAR KRTS 260835Z AUTO 31007KT 10SM CLR 07/01 A3015 RMK AO2","observationTime":"2026-03-26T08:35:00.000Z","flightCategory":"VFR","latitude":39.6658,"longitude":-119.8731},"KTNU":{"rawOb":"METAR KTNU 260835Z AUTO 18007KT 10SM CLR 13/10 A2968 RMK A01","observationTime":"2026-03-26T08:35:00.000Z","flightCategory":"VFR","latitude":41.6701,"longitude":-93.019},"KXLL":{"rawOb":"METAR KXLL 260835Z AUTO 00000KT 10SM OVC080 08/02 A3001 RMK AO2 TSNO","observationTime":"2026-03-26T08:35:00.000Z","flightCategory":"VFR","latitude":40.5704,"longitude":-75.4894},"KY31":{"rawOb":"METAR KY31 260835Z AUTO 00000KT 10SM CLR 00/M02 A2975 RMK AO2 T10031016","observationTime":"2026-03-26T08:35:00.000Z","flightCategory":"VFR","latitude":44.2434,"longitude":-84.18},"KANW":{"rawOb":"METAR KANW 260835Z AUTO 35017KT 10SM SCT120 15/01 A2972 RMK AO2 T01530007","observationTime":"2026-03-26T08:35:00.000Z","flightCategory":"VFR","latitude":42.5748,"longitude":-99.9984},"KBNW":{"rawOb":"METAR KBNW 260835Z AUTO 18006KT 10SM CLR 13/10 A2967 RMK AO2","observationTime":"2026-03-26T08:35:00.000Z","flightCategory":"VFR","latitude":42.0486,"longitude":-93.8486},"KCKN":{"rawOb":"METAR KCKN 260835Z 34020G25KT 10SM M04/M05 A2994 RMK AO2","observationTime":"2026-03-26T08:35:00.000Z","flightCategory":"VFR","latitude":47.8404,"longitude":-96.6201},"KDNS":{"rawOb":"METAR KDNS 260835Z AUTO 17007KT 150V210 10SM CLR 15/10 A2968 RMK AO2","observationTime":"2026-03-26T08:35:00.000Z","flightCategory":"VFR","latitude":41.9842,"longitude":-95.38},"KFDK":{"rawOb":"METAR KFDK 260835Z AUTO 21003KT 10SM CLR 09/03 A3003 RMK AO2 T00910031","observationTime":"2026-03-26T08:35:00.000Z","flightCategory":"VFR","latitude":39.4177,"longitude":-77.3696},"KGRN":{"rawOb":"METAR KGRN 260835Z AUTO 05009G20KT 10SM SCT110 11/00 A2984 RMK AO2 T01100003","observationTime":"2026-03-26T08:35:00.000Z","flightCategory":"VFR","latitude":42.8039,"longitude":-102.181},"KSEF":{"rawOb":"METAR KSEF 260835Z AUTO 00000KT 10SM CLR 18/17 A3010 RMK AO2 T01820171","observationTime":"2026-03-26T08:35:00.000Z","flightCategory":"VFR","latitude":27.4553,"longitude":-81.3415},"KSEM":{"rawOb":"METAR KSEM 260835Z AUTO 00000KT 10SM SCT045 16/16 A3013 RMK AO2","observationTime":"2026-03-26T08:35:00.000Z","flightCategory":"VFR","latitude":32.3367,"longitude":-86.9836},"KOCQ":{"rawOb":"METAR KOCQ 260835Z AUTO 04003KT 10SM 03/M01 A2975 RMK AO1 T00261012","observationTime":"2026-03-26T08:35:00.000Z","flightCategory":"VFR","latitude":44.8749,"longitude":-87.9084},"KSDA":{"rawOb":"METAR KSDA 260835Z AUTO 03004KT 10SM CLR 10/07 A2966 RMK AO2","observationTime":"2026-03-26T08:35:00.000Z","flightCategory":"VFR","latitude":40.7533,"longitude":-95.4112},"KSHL":{"rawOb":"METAR KSHL 260835Z AUTO 10005KT 10SM CLR 10/06 A2962 RMK AO2","observationTime":"2026-03-26T08:35:00.000Z","flightCategory":"VFR","latitude":43.2082,"longitude":-95.8354},"KUBE":{"rawOb":"METAR KUBE 260835Z AUTO 34011KT 10SM -RA OVC110 11/05 A2972 RMK AO2","observationTime":"2026-03-26T08:35:00.000Z","flightCategory":"VFR","latitude":45.5046,"longitude":-91.978},"KCIN":{"rawOb":"METAR KCIN 260835Z AUTO 21009KT 10SM CLR 14/10 A2968 RMK AO2","observationTime":"2026-03-26T08:35:00.000Z","flightCategory":"VFR","latitude":42.0444,"longitude":-94.7888},"KCSB":{"rawOb":"METAR KCSB 260835Z AUTO 30005KT 10SM CLR 19/05 A2969 RMK AO2","observationTime":"2026-03-26T08:35:00.000Z","flightCategory":"VFR","latitude":40.307,"longitude":-100.162},"KTOC":{"rawOb":"METAR KTOC 260835Z AUTO 30003KT 10SM SCT070 12/08 A3020 RMK AO2","observationTime":"2026-03-26T08:35:00.000Z","flightCategory":"VFR","latitude":34.588,"longitude":-83.2974},"KIKK":{"rawOb":"METAR KIKK 260835Z AUTO 19011G17KT 10SM BKN075 17/13 A2979 RMK AO2 T01720125","observationTime":"2026-03-26T08:35:00.000Z","flightCategory":"VFR","latitude":41.0687,"longitude":-87.8537},"KM30":{"rawOb":"METAR KM30 260835Z AUTO 00000KT 10SM CLR 20/11 A2995 RMK AO2 T01950114","observationTime":"2026-03-26T08:35:00.000Z","flightCategory":"VFR","latitude":37.1824,"longitude":-88.7487},"KOEO":{"rawOb":"METAR KOEO 260835Z AUTO 29004KT 10SM CLR 08/04 A2976 RMK AO2 T00770042 PWINO","observationTime":"2026-03-26T08:35:00.000Z","flightCategory":"VFR","latitude":45.3108,"longitude":-92.6948},"KTYQ":{"rawOb":"METAR KTYQ 260835Z AUTO 24011G16KT 10SM -RA OVC100 16/13 A2989 RMK AO2 LTG DSNT S T01600132","observationTime":"2026-03-26T08:35:00.000Z","flightCategory":"VFR","latitude":40.0345,"longitude":-86.2488},"KPMH":{"rawOb":"METAR KPMH 260835Z AUTO 17006KT 10SM OVC095 13/08 A2996 RMK AO2","observationTime":"2026-03-26T08:35:00.000Z","flightCategory":"VFR","latitude":38.8387,"longitude":-82.8494},"KU69":{"rawOb":"METAR KU69 260835Z AUTO 27012G18KT 10SM CLR 19/M02 A2994 RMK A01","observationTime":"2026-03-26T08:35:00.000Z","flightCategory":"VFR","latitude":40.198,"longitude":-110.3873},"KULS":{"rawOb":"METAR KULS 260835Z AUTO 18008KT 10SM CLR 16/05 A2976 RMK AO2","observationTime":"2026-03-26T08:35:00.000Z","flightCategory":"VFR","latitude":37.6037,"longitude":-101.377},"KEXX":{"rawOb":"METAR KEXX 260835Z AUTO 00000KT 10SM SCT037 SCT070 BKN085 11/07 A3016 RMK AO2 T01050066","observationTime":"2026-03-26T08:35:00.000Z","flightCategory":"VFR","latitude":35.7805,"longitude":-80.3084},"KF45":{"rawOb":"METAR KF45 260835Z AUTO 00000KT 7SM CLR 16/16 A3008 RMK AO2","observationTime":"2026-03-26T08:35:00.000Z","flightCategory":"VFR","latitude":26.8419,"longitude":-80.224},"KUSE":{"rawOb":"METAR KUSE 260835Z AUTO 22007KT 10SM FEW037 09/04 A2984 RMK AO2","observationTime":"2026-03-26T08:35:00.000Z","flightCategory":"VFR","latitude":41.6118,"longitude":-84.1275},"KFSW":{"rawOb":"METAR KFSW 260835Z AUTO 16010KT 10SM CLR 18/12 A2967 RMK AO2 PRESFR","observationTime":"2026-03-26T08:35:00.000Z","flightCategory":"VFR","latitude":40.6615,"longitude":-91.3267},"KGLW":{"rawOb":"METAR KGLW 260835Z AUTO 20006KT 10SM CLR 17/11 A3002 RMK AO2 T01660113","observationTime":"2026-03-26T08:35:00.000Z","flightCategory":"VFR","latitude":37.0337,"longitude":-85.9523},"KGNB":{"rawOb":"METAR KGNB 260835Z AUTO 09003KT 10SM CLR 04/M03 A3017 RMK AO2 T00431026","observationTime":"2026-03-26T08:35:00.000Z","flightCategory":"VFR","latitude":40.0904,"longitude":-105.9113},"KGPC":{"rawOb":"METAR KGPC 260835Z AUTO 18009KT 5SM TSRA SCT018 BKN048 OVC070 15/ A2993 RMK AO2 LTG DSNT SE THRU NW P0018 T0151////","observationTime":"2026-03-26T08:35:00.000Z","flightCategory":"MVFR","latitude":39.635,"longitude":-86.816},"KGVT":{"rawOb":"METAR KGVT 260835Z AUTO 18010KT 10SM CLR 20/18 A2999 RMK AO2","observationTime":"2026-03-26T08:35:00.000Z","flightCategory":"VFR","latitude":33.0669,"longitude":-96.0614},"KGYB":{"rawOb":"METAR KGYB 260835Z AUTO 19005KT 10SM BKN015 OVC022 21/18 A3007 RMK AO2 T02050178","observationTime":"2026-03-26T08:35:00.000Z","flightCategory":"MVFR","latitude":30.1714,"longitude":-96.9785},"KHHF":{"rawOb":"METAR KHHF 260835Z AUTO 19020G27KT 10SM CLR 22/10 A2980 RMK AO2 PK WND 19028/50","observationTime":"2026-03-26T08:35:00.000Z","flightCategory":"VFR","latitude":35.8929,"longitude":-100.4046},"KVMR":{"rawOb":"METAR KVMR 260835Z AUTO 10009KT 10SM CLR 16/08 A2958 RMK AO2","observationTime":"2026-03-26T08:35:00.000Z","flightCategory":"VFR","latitude":42.765,"longitude":-96.93},"KHQG":{"rawOb":"METAR KHQG 260835Z AUTO 20018KT 10SM CLR 20/06 A2977 RMK AO2","observationTime":"2026-03-26T08:35:00.000Z","flightCategory":"VFR","latitude":37.1647,"longitude":-101.3714},"KHVS":{"rawOb":"METAR KHVS 260835Z AUTO 00000KT 10SM FEW038 SCT055 OVC080 13/12 A3017 RMK AO2","observationTime":"2026-03-26T08:35:00.000Z","flightCategory":"VFR","latitude":34.4065,"longitude":-80.1198},"KI35":{"rawOb":"METAR KI35 260835Z AUTO 00000KT 10SM CLR 15/09 A3011 RMK AO2 T01500085","observationTime":"2026-03-26T08:35:00.000Z","flightCategory":"VFR","latitude":36.8577,"longitude":-83.3586},"KCWF":{"rawOb":"METAR KCWF 260835Z AUTO 00000KT M1/4SM FG OVC001 15/15 A3009 RMK AO2 T01520151","observationTime":"2026-03-26T08:35:00.000Z","flightCategory":"LIFR","latitude":30.2216,"longitude":-93.1467},"KPUJ":{"rawOb":"METAR KPUJ 260835Z AUTO 17004KT 4SM BR SCT060 11/10 A3015 RMK AO2","observationTime":"2026-03-26T08:35:00.000Z","flightCategory":"MVFR","latitude":33.9085,"longitude":-84.9369},"KRDK":{"rawOb":"METAR KRDK 260835Z AUTO 17003KT 10SM CLR 11/08 A2968 RMK AO2","observationTime":"2026-03-26T08:35:00.000Z","flightCategory":"VFR","latitude":41.0107,"longitude":-95.2622},"KRHP":{"rawOb":"METAR KRHP 260835Z AUTO 00000KT 10SM BKN045 08/06 A3021 RMK AO2 T00800056","observationTime":"2026-03-26T08:35:00.000Z","flightCategory":"VFR","latitude":35.1939,"longitude":-83.8618},"KRYV":{"rawOb":"METAR KRYV 260835Z AUTO 00000KT 10SM CLR 05/05 A2972 RMK AO2 T00530053","observationTime":"2026-03-26T08:35:00.000Z","flightCategory":"VFR","latitude":43.1702,"longitude":-88.725},"KRYW":{"rawOb":"METAR KRYW 260835Z AUTO 19006G15KT 10SM OVC014 19/17 A3006 RMK AO2 T01940170","observationTime":"2026-03-26T08:35:00.000Z","flightCategory":"MVFR","latitude":30.498,"longitude":-97.969},"KSCD":{"rawOb":"METAR KSCD 260835Z AUTO 00000KT 10SM CLR 14/13 A3016 RMK AO2 T01430132","observationTime":"2026-03-26T08:35:00.000Z","flightCategory":"VFR","latitude":33.1732,"longitude":-86.2933},"KSNL":{"rawOb":"METAR KSNL 260835Z AUTO 20011KT 10SM CLR 21/14 A2990 RMK AO2 T02110135","observationTime":"2026-03-26T08:35:00.000Z","flightCategory":"VFR","latitude":35.3611,"longitude":-96.9445},"KJHN":{"rawOb":"METAR KJHN 260835Z AUTO 20011KT 10SM CLR 17/04 A2976 RMK AO2","observationTime":"2026-03-26T08:35:00.000Z","flightCategory":"VFR","latitude":37.5782,"longitude":-101.7305},"K04V":{"rawOb":"METAR K04V 260835Z AUTO 30010KT 10SM CLR 09/M02 A3019 RMK AO2","observationTime":"2026-03-26T08:35:00.000Z","flightCategory":"VFR","latitude":38.099,"longitude":-106.17},"K06C":{"rawOb":"METAR K06C 260835Z AUTO 21004KT 10SM CLR 14/08 A2975 RMK AO2 T01390075","observationTime":"2026-03-26T08:35:00.000Z","flightCategory":"VFR","latitude":41.9924,"longitude":-88.1091},"K0R4":{"rawOb":"METAR K0R4 260835Z AUTO 00000KT 10SM CLR 15/10 A3013 RMK AO2 T01530098","observationTime":"2026-03-26T08:35:00.000Z","flightCategory":"VFR","latitude":31.5637,"longitude":-91.5098},"KE77":{"rawOb":"METAR KE77 260835Z AUTO 00000G10KT 10SM CLR 20/M05 A3007 RMK AO2","observationTime":"2026-03-26T08:35:00.000Z","flightCategory":"VFR","latitude":32.634,"longitude":-110.6467},"K36K":{"rawOb":"METAR K36K 260835Z AUTO 15005KT 10SM CLR 15/04 A2980 RMK AO2","observationTime":"2026-03-26T08:35:00.000Z","flightCategory":"VFR","latitude":37.9707,"longitude":-101.2554},"K3D2":{"rawOb":"METAR K3D2 260835Z AUTO 09005KT 10SM CLR 01/M01 A2974 RMK AO2 T00081011","observationTime":"2026-03-26T08:35:00.000Z","flightCategory":"VFR","latitude":45.1348,"longitude":-87.1881},"K3K3":{"rawOb":"METAR K3K3 260835Z AUTO VRB02KT 10SM CLR 19/03 A2975 RMK AO2","observationTime":"2026-03-26T08:35:00.000Z","flightCategory":"VFR","latitude":37.9988,"longitude":-101.7502},"KETN":{"rawOb":"METAR KETN 260835Z AUTO 16006KT 10SM CLR 17/13 A2996 RMK AO2 T01740131","observationTime":"2026-03-26T08:35:00.000Z","flightCategory":"VFR","latitude":32.4164,"longitude":-98.8113},"K49A":{"rawOb":"METAR K49A 260835Z AUTO 36003KT 10SM FEW036 BKN046 09/09 A3018 RMK AO2","observationTime":"2026-03-26T08:35:00.000Z","flightCategory":"VFR","latitude":34.6301,"longitude":-84.5271},"K4A6":{"rawOb":"METAR K4A6 260835Z AUTO 00000KT 9SM CLR 12/12 A3013 RMK AO2","observationTime":"2026-03-26T08:35:00.000Z","flightCategory":"VFR","latitude":34.688,"longitude":-86.006},"KEZZ":{"rawOb":"METAR KEZZ 260835Z AUTO 22012KT 10SM CLR 20/15 A2978 RMK AO2","observationTime":"2026-03-26T08:35:00.000Z","flightCategory":"VFR","latitude":39.729,"longitude":-94.2785},"K57C":{"rawOb":"METAR K57C 260835Z AUTO 00000KT 10SM CLR 12/06 A2973 RMK AO2 T01170060","observationTime":"2026-03-26T08:35:00.000Z","flightCategory":"VFR","latitude":42.7972,"longitude":-88.3655},"K5SM":{"rawOb":"METAR K5SM 260835Z AUTO 10SM CLR 07/M05 A3030 RMK AO2","observationTime":"2026-03-26T08:35:00.000Z","flightCategory":"VFR","latitude":39.426,"longitude":-107.38},"K6I2":{"rawOb":"METAR K6I2 260835Z AUTO 18013KT 10SM CLR 17/10 A3001 RMK AO2","observationTime":"2026-03-26T08:35:00.000Z","flightCategory":"VFR","latitude":37.6352,"longitude":-85.2418},"K7W6":{"rawOb":"METAR K7W6 260835Z AUTO 21003KT 10SM BKN055 14/11 A3019 RMK AO2 T01350109","observationTime":"2026-03-26T08:35:00.000Z","flightCategory":"VFR","latitude":35.5594,"longitude":-75.955},"KARM":{"rawOb":"METAR KARM 260835Z AUTO 15006KT 10SM CLR 19/18 A3006 RMK AO2 T01870182 TSNO","observationTime":"2026-03-26T08:35:00.000Z","flightCategory":"VFR","latitude":29.2515,"longitude":-96.1508},"KATA":{"rawOb":"METAR KATA 260835Z AUTO 19003KT 10SM CLR 18/16 A3004 RMK AO2 T01840159 $","observationTime":"2026-03-26T08:35:00.000Z","flightCategory":"VFR","latitude":33.1017,"longitude":-94.1937},"KBIE":{"rawOb":"METAR KBIE 260835Z AUTO 19005KT 10SM CLR 15/08 A2969 RMK AO2 T01490084","observationTime":"2026-03-26T08:35:00.000Z","flightCategory":"VFR","latitude":40.3005,"longitude":-96.7517},"KDVK":{"rawOb":"METAR KDVK 260835Z AUTO 22007KT 10SM CLR 16/10 A3003 RMK AO2","observationTime":"2026-03-26T08:35:00.000Z","flightCategory":"VFR","latitude":37.5764,"longitude":-84.7641},"KBPG":{"rawOb":"METAR KBPG 260835Z AUTO 20006KT 10SM CLR 19/10 A2995 RMK AO2 T01950096","observationTime":"2026-03-26T08:35:00.000Z","flightCategory":"VFR","latitude":32.2097,"longitude":-101.5247},"KBQK":{"rawOb":"METAR KBQK 260835Z AUTO 00000KT 1/4SM FG OVC003 14/14 A3016 RMK AO2 P0001 T01360136","observationTime":"2026-03-26T08:35:00.000Z","flightCategory":"LIFR","latitude":31.2567,"longitude":-81.4754},"KMZZ":{"rawOb":"METAR KMZZ 260835Z AUTO 22010KT 10SM BKN070 OVC095 15/11 A2987 RMK AO2 T01450107","observationTime":"2026-03-26T08:35:00.000Z","flightCategory":"VFR","latitude":40.4863,"longitude":-85.6859},"KC08":{"rawOb":"METAR KC08 260835Z AUTO 30007KT 10SM FEW038 SCT047 10/M05 A3014 RMK AO2","observationTime":"2026-03-26T08:35:00.000Z","flightCategory":"VFR","latitude":38.0138,"longitude":-105.3731},"KC35":{"rawOb":"METAR KC35 260835Z AUTO 00000KT 10SM 06/05 A2969 RMK AO2 T00640046 PWINO","observationTime":"2026-03-26T08:35:00.000Z","flightCategory":"VFR","latitude":43.5261,"longitude":-89.9809},"KC83":{"rawOb":"METAR KC83 260835Z AUTO 24021G26KT 10SM CLR 15/07 A3001 RMK AO2","observationTime":"2026-03-26T08:35:00.000Z","flightCategory":"VFR","latitude":37.8276,"longitude":-121.6244},"KCDA":{"rawOb":"METAR KCDA 260835Z AUTO 00000KT 10SM BKN013 OVC019 01/00 A2991 RMK AO2 T00130000","observationTime":"2026-03-26T08:35:00.000Z","flightCategory":"MVFR","latitude":44.5677,"longitude":-72.0191},"KCEY":{"rawOb":"METAR KCEY 260835Z AUTO 18006KT 10SM CLR 19/13 A2998 RMK AO2","observationTime":"2026-03-26T08:35:00.000Z","flightCategory":"VFR","latitude":36.664,"longitude":-88.372},"KMMU":{"rawOb":"METAR KMMU 260835Z AUTO 00000KT 10SM OVC090 07/02 A3000 RMK AO2","observationTime":"2026-03-26T08:35:00.000Z","flightCategory":"VFR","latitude":40.7989,"longitude":-74.4164},"K6S0":{"rawOb":"METAR K6S0 260835Z AUTO 03011KT 10SM SCT050 OVC060 03/M02 A3002 RMK A01","observationTime":"2026-03-26T08:35:00.000Z","flightCategory":"VFR","latitude":45.8063,"longitude":-109.9736},"K8V7":{"rawOb":"METAR K8V7 260835Z AUTO 25012KT 10SM CLR 16/M01 A2983 RMK AO2","observationTime":"2026-03-26T08:35:00.000Z","flightCategory":"VFR","latitude":37.4547,"longitude":-102.6192},"KDWA":{"rawOb":"METAR KDWA 260835Z AUTO 00000KT 7SM 13/10 A3002 RMK AO2","observationTime":"2026-03-26T08:35:00.000Z","flightCategory":"VFR","latitude":38.5803,"longitude":-121.8543},"KNUQ":{"rawOb":"METAR KNUQ 260835Z AUTO 08006KT 8SM CLR 12/09 A3008 RMK AO2","observationTime":"2026-03-26T08:35:00.000Z","flightCategory":"VFR","latitude":37.4059,"longitude":-122.0491},"KFGX":{"rawOb":"METAR KFGX 260835Z AUTO 22007KT 10SM SCT120 15/09 A3000 RMK AO2 T01460088","observationTime":"2026-03-26T08:35:00.000Z","flightCategory":"VFR","latitude":38.5383,"longitude":-83.7467},"KBNL":{"rawOb":"METAR KBNL 260835Z AUTO 00000KT 10SM 11/11 A3020 RMK AO2","observationTime":"2026-03-26T08:35:00.000Z","flightCategory":"VFR","latitude":33.2601,"longitude":-81.387},"KNY0":{"rawOb":"METAR KNY0 260835Z AUTO 24003KT 10SM SCT047 SCT055 BKN070 05/M01 A2989 RMK AO2 T00451010","observationTime":"2026-03-26T08:35:00.000Z","flightCategory":"VFR","latitude":42.999,"longitude":-74.3293},"KCIR":{"rawOb":"METAR KCIR 260835Z AUTO 20008KT 10SM CLR 20/13 A2994 RMK AO2 T01990126","observationTime":"2026-03-26T08:35:00.000Z","flightCategory":"VFR","latitude":37.0639,"longitude":-89.2232},"KJAS":{"rawOb":"METAR KJAS 260835Z AUTO 20004KT 10SM OVC016 19/19 A3007 RMK AO2","observationTime":"2026-03-26T08:35:00.000Z","flightCategory":"MVFR","latitude":30.8904,"longitude":-94.0332},"KJKA":{"rawOb":"METAR KJKA 260835Z AUTO 00000KT 3SM BR OVC010 14/14 A3011 RMK AO2","observationTime":"2026-03-26T08:35:00.000Z","flightCategory":"MVFR","latitude":30.291,"longitude":-87.661},"KJSV":{"rawOb":"METAR KJSV 260835Z AUTO 14003KT 1 1/4SM -RA HZ CLR 20/17 A2993 RMK AO2 VIS 1/2V5","observationTime":"2026-03-26T08:35:00.000Z","flightCategory":"IFR","latitude":35.4381,"longitude":-94.8012},"KJYR":{"rawOb":"METAR KJYR 260835Z AUTO 20008KT 10SM 14/06 A2966 RMK AO2","observationTime":"2026-03-26T08:35:00.000Z","flightCategory":"VFR","latitude":40.8942,"longitude":-97.6258},"KLCQ":{"rawOb":"METAR KLCQ 260835Z AUTO 02003KT 5SM BR OVC005 16/16 A3015 RMK AO2","observationTime":"2026-03-26T08:35:00.000Z","flightCategory":"IFR","latitude":30.1838,"longitude":-82.5684},"KLKR":{"rawOb":"METAR KLKR 260835Z AUTO 00000KT 10SM BKN016 OVC038 14/10 A3019 RMK AO2","observationTime":"2026-03-26T08:35:00.000Z","flightCategory":"MVFR","latitude":34.7266,"longitude":-80.8532},"KLOT":{"rawOb":"METAR KLOT 260835Z AUTO 16006KT 10SM FEW050 FEW075 12/08 A2977 RMK AO2","observationTime":"2026-03-26T08:35:00.000Z","flightCategory":"VFR","latitude":41.6031,"longitude":-88.1017},"KM25":{"rawOb":"METAR KM25 260835Z AUTO 20009KT 10SM CLR 19/12 A2995 RMK AO2 T01900123","observationTime":"2026-03-26T08:35:00.000Z","flightCategory":"VFR","latitude":36.764,"longitude":-88.5829},"KMCZ":{"rawOb":"METAR KMCZ 260835Z AUTO 00000KT 10SM SCT050 BKN060 12/09 A3019 RMK AO2 T01190093","observationTime":"2026-03-26T08:35:00.000Z","flightCategory":"VFR","latitude":35.862,"longitude":-77.178},"KMDQ":{"rawOb":"METAR KMDQ 260835Z AUTO 14005KT 10SM CLR 16/11 A3010 RMK A02 T01630110","observationTime":"2026-03-26T08:35:00.000Z","flightCategory":"VFR","latitude":34.866,"longitude":-86.559},"KCVB":{"rawOb":"METAR KCVB 260835Z AUTO 15008KT 10SM OVC012 21/18 A3002 RMK AO2","observationTime":"2026-03-26T08:35:00.000Z","flightCategory":"MVFR","latitude":29.343,"longitude":-98.8497},"KDVO":{"rawOb":"METAR KDVO 260835Z AUTO 00000KT 10SM CLR 09/07 A3006 RMK AO2","observationTime":"2026-03-26T08:35:00.000Z","flightCategory":"VFR","latitude":38.1417,"longitude":-122.5547},"KGCD":{"rawOb":"METAR KGCD 260835Z AUTO 33011G20KT 10SM BKN041 OVC047 02/M06 A3027 RMK AO2 T00211057","observationTime":"2026-03-26T08:35:00.000Z","flightCategory":"VFR","latitude":44.4029,"longitude":-118.9672},"KHRX":{"rawOb":"METAR KHRX 260835Z AUTO 22012KT 10SM CLR 19/07 A2995 RMK AO2 T01920070 TSNO","observationTime":"2026-03-26T08:35:00.000Z","flightCategory":"VFR","latitude":34.8628,"longitude":-102.32},"KL35":{"rawOb":"METAR KL35 260835Z AUTO 26006KT 10SM CLR 07/M06 A3020 RMK AO2","observationTime":"2026-03-26T08:35:00.000Z","flightCategory":"VFR","latitude":34.2626,"longitude":-116.8551},"KPVF":{"rawOb":"METAR KPVF 260835Z AUTO 00000KT 10SM CLR 15/02 A3009 RMK AO1","observationTime":"2026-03-26T08:35:00.000Z","flightCategory":"VFR","latitude":38.7222,"longitude":-120.757},"KOLZ":{"rawOb":"METAR KOLZ 260835Z AUTO 11005KT 10SM CLR 10/08 A2968 RMK A01","observationTime":"2026-03-26T08:35:00.000Z","flightCategory":"VFR","latitude":42.6831,"longitude":-91.976},"KPKV":{"rawOb":"METAR KPKV 260835Z AUTO 16006KT 10SM CLR 19/19 A3002 RMK AO2 T01910191","observationTime":"2026-03-26T08:35:00.000Z","flightCategory":"VFR","latitude":28.6499,"longitude":-96.6799},"KPPO":{"rawOb":"METAR KPPO 260835Z AUTO 07003KT 10SM SCT055 BKN075 08/08 A2981 RMK AO2","observationTime":"2026-03-26T08:35:00.000Z","flightCategory":"VFR","latitude":41.5705,"longitude":-86.7333},"KHNR":{"rawOb":"METAR KHNR 260835Z AUTO 00000KT 10SM CLR 11/08 A2966 RMK A01","observationTime":"2026-03-26T08:35:00.000Z","flightCategory":"VFR","latitude":41.5842,"longitude":-95.3358},"KMHR":{"rawOb":"METAR KMHR 260835Z AUTO 15006KT 10SM CLR 12/12 A3000 RMK AO2","observationTime":"2026-03-26T08:35:00.000Z","flightCategory":"VFR","latitude":38.56,"longitude":-121.284},"KTRK":{"rawOb":"METAR KTRK 260835Z AUTO 00000KT 10SM CLR 02/M02 A3019 RMK AO2","observationTime":"2026-03-26T08:35:00.000Z","flightCategory":"VFR","latitude":39.3154,"longitude":-120.1371},"KIWA":{"rawOb":"METAR KIWA 260835Z AUTO 11010KT 10SM CLR 21/M01 A2989 RMK AO2 T02101009","observationTime":"2026-03-26T08:35:00.000Z","flightCategory":"VFR","latitude":33.3008,"longitude":-111.6437},"KDUA":{"rawOb":"METAR KDUA 260835Z AUTO 18010KT 10SM CLR 19/17 A2997 RMK AO2","observationTime":"2026-03-26T08:35:00.000Z","flightCategory":"VFR","latitude":33.9427,"longitude":-96.3967},"KOQU":{"rawOb":"METAR KOQU 260835Z AUTO VRB03KT 10SM SCT046 BKN095 OVC120 06/05 A3004 RMK AO2","observationTime":"2026-03-26T08:35:00.000Z","flightCategory":"VFR","latitude":41.5995,"longitude":-71.4111},"KHVC":{"rawOb":"METAR KHVC 260835Z AUTO 20004KT 10SM CLR 17/12 A2998 RMK AO2","observationTime":"2026-03-26T08:35:00.000Z","flightCategory":"VFR","latitude":36.8603,"longitude":-87.4478},"K40U":{"rawOb":"METAR K40U 260835Z AUTO 00000KT 10SM CLR 06/M04 A2999 RMK AO2 T00611038","observationTime":"2026-03-26T08:35:00.000Z","flightCategory":"VFR","latitude":40.986,"longitude":-109.678},"KS39":{"rawOb":"METAR KS39 260835Z AUTO 31003KT 10SM CLR M04/M06 A3032 RMK AO2","observationTime":"2026-03-26T08:35:00.000Z","flightCategory":"VFR","latitude":44.2858,"longitude":-120.9008},"KIKW":{"rawOb":"METAR KIKW 260835Z AUTO 06002KT 10SM CLR 03/M01 A2977 RMK AO2","observationTime":"2026-03-26T08:35:00.000Z","flightCategory":"VFR","latitude":43.6643,"longitude":-84.2613},"KHTH":{"rawOb":"METAR KHTH 260835Z AUTO 20004KT 10SM CLR 12/M08 A3008 RMK A01","observationTime":"2026-03-26T08:35:00.000Z","flightCategory":"VFR","latitude":38.5448,"longitude":-118.6314},"KSVE":{"rawOb":"METAR KSVE 260835Z AUTO 00000KT 10SM CLR 08/03 A3013 RMK A01 P000","observationTime":"2026-03-26T08:35:00.000Z","flightCategory":"VFR","latitude":40.376,"longitude":-120.5742},"KFHB":{"rawOb":"METAR KFHB 260835Z AUTO 00000KT M1/4SM FG VV000 16/15 A3016 RMK AO2","observationTime":"2026-03-26T08:35:00.000Z","flightCategory":"LIFR","latitude":30.6131,"longitude":-81.4623},"KFIN":{"rawOb":"METAR KFIN 260835Z AUTO 00000KT 1/2SM FG SCT002 OVC010 17/17 A3012 RMK AO2 T01700167","observationTime":"2026-03-26T08:35:00.000Z","flightCategory":"LIFR","latitude":29.467,"longitude":-81.207},"KFPY":{"rawOb":"METAR KFPY 260835Z AUTO 00000KT 10SM OVC007 17/16 A3015 RMK AO2 T01730160","observationTime":"2026-03-26T08:35:00.000Z","flightCategory":"IFR","latitude":30.0719,"longitude":-83.5731},"KGAO":{"rawOb":"METAR KGAO 260835Z AUTO 14003KT 10SM OVC011 22/19 A3010 RMK AO2 T02170190","observationTime":"2026-03-26T08:35:00.000Z","flightCategory":"MVFR","latitude":29.4352,"longitude":-90.2599},"KGGE":{"rawOb":"METAR KGGE 260835Z AUTO 00000KT 10SM CLR 09/09 A3019 RMK AO2","observationTime":"2026-03-26T08:35:00.000Z","flightCategory":"VFR","latitude":33.3138,"longitude":-79.3187},"KGKT":{"rawOb":"METAR KGKT 260835Z AUTO 00000KT 10SM FEW055 SCT080 BKN110 14/10 A3012 RMK A01","observationTime":"2026-03-26T08:35:00.000Z","flightCategory":"VFR","latitude":35.8568,"longitude":-83.5333},"KHMP":{"rawOb":"METAR KHMP 260835Z AUTO 00000KT 5SM BR CLR 09/09 A3021 RMK AO2 T00940091","observationTime":"2026-03-26T08:35:00.000Z","flightCategory":"MVFR","latitude":33.3916,"longitude":-84.3312},"KENL":{"rawOb":"METAR KENL 260835Z AUTO 20013KT 10SM CLR 21/14 A2985 RMK AO2 T02050135","observationTime":"2026-03-26T08:35:00.000Z","flightCategory":"VFR","latitude":38.5095,"longitude":-89.09},"KETB":{"rawOb":"METAR KETB 260835Z AUTO 00000KT 10SM CLR 09/07 A2972 RMK AO2","observationTime":"2026-03-26T08:35:00.000Z","flightCategory":"VFR","latitude":43.4225,"longitude":-88.1326},"KEZS":{"rawOb":"METAR KEZS 260835Z AUTO 03004KT 10SM CLR 04/00 A2974 RMK AO2 T00351004","observationTime":"2026-03-26T08:35:00.000Z","flightCategory":"VFR","latitude":44.7871,"longitude":-88.564},"KFEP":{"rawOb":"METAR KFEP 260835Z AUTO 07004KT 10SM CLR 07/06 A2974 RMK AO2 T00720055","observationTime":"2026-03-26T08:35:00.000Z","flightCategory":"VFR","latitude":42.2475,"longitude":-89.581},"KFFL":{"rawOb":"METAR KFFL 260835Z AUTO 21006KT 10SM FEW037 FEW044 14/12 A2968 RMK A01","observationTime":"2026-03-26T08:35:00.000Z","flightCategory":"VFR","latitude":41.0521,"longitude":-91.9834},"KF46":{"rawOb":"METAR KF46 260835Z AUTO 17008KT 10SM CLR 20/16 A2999 RMK AO2 T01950157","observationTime":"2026-03-26T08:35:00.000Z","flightCategory":"VFR","latitude":32.9322,"longitude":-96.4349},"KFCH":{"rawOb":"METAR KFCH 260835Z AUTO 00000KT 10SM CLR 16/14 A3001 RMK A01","observationTime":"2026-03-26T08:35:00.000Z","flightCategory":"VFR","latitude":36.7338,"longitude":-119.8204},"KU68":{"rawOb":"METAR KU68 260835Z AUTO 19004KT 10SM CLR 07/M02 RMK AO2","observationTime":"2026-03-26T08:35:00.000Z","flightCategory":"VFR","latitude":44.9113,"longitude":-108.4469},"KFFX":{"rawOb":"METAR KFFX 260835Z AUTO 10002KT 10SM CLR 04/01 A2974 RMK AO2","observationTime":"2026-03-26T08:35:00.000Z","flightCategory":"VFR","latitude":43.4417,"longitude":-85.9936},"KMQB":{"rawOb":"METAR KMQB 260835Z AUTO 20008KT 10SM CLR 19/12 A2975 RMK AO2 T01850122","observationTime":"2026-03-26T08:35:00.000Z","flightCategory":"VFR","latitude":40.5176,"longitude":-90.6481},"KPMV":{"rawOb":"METAR KPMV 260835Z AUTO 17013G16KT 10SM CLR 17/08 A2967 RMK AO2 T01730076","observationTime":"2026-03-26T08:35:00.000Z","flightCategory":"VFR","latitude":40.9446,"longitude":-95.9124},"KAXV":{"rawOb":"METAR KAXV 260835Z AUTO 20006KT 10SM SCT090 13/07 A2988 RMK AO2","observationTime":"2026-03-26T08:35:00.000Z","flightCategory":"VFR","latitude":40.4959,"longitude":-84.2929},"KAXX":{"rawOb":"METAR KAXX 260835Z AUTO 00000KT 10SM CLR 00/M05 A3023 RMK AO2 T10031053","observationTime":"2026-03-26T08:35:00.000Z","flightCategory":"VFR","latitude":36.422,"longitude":-105.29},"KBDN":{"rawOb":"METAR KBDN 260835Z AUTO 23003KT 10SM CLR M02/M06 A3031 RMK AO2","observationTime":"2026-03-26T08:35:00.000Z","flightCategory":"VFR","latitude":44.1006,"longitude":-121.1984},"KBFA":{"rawOb":"METAR KBFA 260835Z AUTO 00000KT 1 3/4SM BR CLR M02/M02 A2973 RMK AO2","observationTime":"2026-03-26T08:35:00.000Z","flightCategory":"IFR","latitude":45.166,"longitude":-84.924},"K54A":{"rawOb":"METAR K54A 260835Z AUTO 00000KT 9SM CLR 16/16 A3006 RMK AO2","observationTime":"2026-03-26T08:35:00.000Z","flightCategory":"VFR","latitude":26.8601,"longitude":-82.2468},"K54J":{"rawOb":"METAR K54J 260835Z AUTO 00000KT 10SM CLR 14/14 A3014 RMK AO2 T01400140","observationTime":"2026-03-26T08:35:00.000Z","flightCategory":"VFR","latitude":30.7312,"longitude":-86.1542},"K65S":{"rawOb":"METAR K65S 260835Z AUTO 23007G15KT 200V260 9SM UP FEW010 SCT024 BKN042 05/M03 A3003 RMK AO2","observationTime":"2026-03-26T08:35:00.000Z","flightCategory":"VFR","latitude":48.7255,"longitude":-116.293},"KACP":{"rawOb":"METAR KACP 260835Z AUTO 00000KT 2SM BR SCT003 12/11 A3009 RMK AO2 VIS 1V5","observationTime":"2026-03-26T08:35:00.000Z","flightCategory":"IFR","latitude":30.7469,"longitude":-92.687},"KACZ":{"rawOb":"METAR KACZ 260835Z AUTO 00000KT 10SM BKN055 10/09 A3019 RMK AO2 T01010095","observationTime":"2026-03-26T08:35:00.000Z","flightCategory":"VFR","latitude":34.718,"longitude":-78.005},"KAFP":{"rawOb":"METAR KAFP 260835Z AUTO 00000KT 10SM BKN030 BKN085 12/09 A3018 RMK AO2 T01180090","observationTime":"2026-03-26T08:35:00.000Z","flightCategory":"MVFR","latitude":35.0194,"longitude":-80.0784},"KAIK":{"rawOb":"METAR KAIK 260835Z AUTO 17005KT 10SM SCT025 SCT032 OVC045 14/12 A3020 RMK AO2 T01450120","observationTime":"2026-03-26T08:35:00.000Z","flightCategory":"VFR","latitude":33.651,"longitude":-81.6821},"KBMT":{"rawOb":"METAR KBMT 260835Z AUTO 13003KT 1SM BR VV007 16/16 A3007 RMK AO2 T01620156","observationTime":"2026-03-26T08:35:00.000Z","flightCategory":"IFR","latitude":30.0686,"longitude":-94.2155},"KINJ":{"rawOb":"METAR KINJ 260835Z AUTO 17011KT 10SM CLR 20/17 A2999 RMK AO2 T02000172","observationTime":"2026-03-26T08:35:00.000Z","flightCategory":"VFR","latitude":32.0844,"longitude":-97.0959},"KBTA":{"rawOb":"METAR KBTA 260835Z AUTO 17009KT 10SM CLR 18/09 A2966 RMK AO2 T01760086","observationTime":"2026-03-26T08:35:00.000Z","flightCategory":"VFR","latitude":41.415,"longitude":-96.109},"KCGF":{"rawOb":"METAR KCGF 260835Z AUTO 23011KT 10SM CLR 14/06 A2987 RMK AO2 T01420060","observationTime":"2026-03-26T08:35:00.000Z","flightCategory":"VFR","latitude":41.566,"longitude":-81.4827},"KGGI":{"rawOb":"METAR KGGI 260835Z AUTO 00000KT 10SM CLR 12/06 A2970 RMK AO2 T01200060","observationTime":"2026-03-26T08:35:00.000Z","flightCategory":"VFR","latitude":41.7097,"longitude":-92.7332},"KHLB":{"rawOb":"METAR KHLB 260835Z AUTO 00000KT 10SM FEW065 BKN075 OVC110 17/10 A2993 RMK A01","observationTime":"2026-03-26T08:35:00.000Z","flightCategory":"VFR","latitude":39.3463,"longitude":-85.2602},"KI67":{"rawOb":"METAR KI67 260835Z AUTO 00000KT 10SM CLR 16/10 A2992 RMK AO1","observationTime":"2026-03-26T08:35:00.000Z","flightCategory":"VFR","latitude":39.2565,"longitude":-84.7753},"K6B0":{"rawOb":"METAR K6B0 260835Z AUTO 18008KT 10SM OVC090 05/M02 A2988 RMK AO2 T00521016","observationTime":"2026-03-26T08:35:00.000Z","flightCategory":"VFR","latitude":43.9888,"longitude":-73.0952},"KHMZ":{"rawOb":"METAR KHMZ 260835Z AUTO 16003KT 10SM CLR 09/M02 A2995 RMK AO2 T00861020","observationTime":"2026-03-26T08:35:00.000Z","flightCategory":"VFR","latitude":40.0863,"longitude":-78.5167},"KJVY":{"rawOb":"METAR KJVY 260835Z AUTO 19008KT 10SM OVC110 19/13 A2993 RMK AO2","observationTime":"2026-03-26T08:35:00.000Z","flightCategory":"VFR","latitude":38.3692,"longitude":-85.7366},"KLDM":{"rawOb":"METAR KLDM 260835Z AUTO 36003KT 10SM CLR 02/01 A2972 RMK AO2","observationTime":"2026-03-26T08:35:00.000Z","flightCategory":"VFR","latitude":43.9614,"longitude":-86.4107},"KLNN":{"rawOb":"METAR KLNN 260835Z AUTO 23012KT 10SM CLR 15/03 A2984 RMK AO1 T01500029","observationTime":"2026-03-26T08:35:00.000Z","flightCategory":"VFR","latitude":41.6839,"longitude":-81.3896},"KADU":{"rawOb":"METAR KADU 260835Z AUTO 00000KT 10SM SCT041 SCT060 SCT095 07/06 A2970 RMK AO2 PWINO","observationTime":"2026-03-26T08:35:00.000Z","flightCategory":"VFR","latitude":41.6994,"longitude":-94.9204},"KC29":{"rawOb":"METAR KC29 260835Z AUTO 00000KT 10SM CLR 06/04 A2972 RMK AO1 T00580038","observationTime":"2026-03-26T08:35:00.000Z","flightCategory":"VFR","latitude":43.1153,"longitude":-89.5311},"KFFM":{"rawOb":"METAR KFFM 260835Z AUTO 32014G20KT 4SM BR OVC004 02/02 A2989 RMK AO2","observationTime":"2026-03-26T08:35:00.000Z","flightCategory":"LIFR","latitude":46.2865,"longitude":-96.1534},"K11R":{"rawOb":"METAR K11R 260835Z AUTO 18008KT 10SM OVC013 20/18 A3004 RMK AO2 T02020181","observationTime":"2026-03-26T08:35:00.000Z","flightCategory":"MVFR","latitude":30.2232,"longitude":-96.3734},"K60R":{"rawOb":"METAR K60R 260835Z AUTO 18011KT M1/4SM FG 20/20 A3004 RMK AO2 SLP090 T02010201 $","observationTime":"2026-03-26T08:35:00.000Z","flightCategory":"LIFR","latitude":30.368,"longitude":-96.113},"K66R":{"rawOb":"METAR K66R 260835Z AUTO 17003KT 10SM OVC005 20/19 A3005 RMK AO2 T01950191","observationTime":"2026-03-26T08:35:00.000Z","flightCategory":"IFR","latitude":29.6382,"longitude":-96.5138},"KAJZ":{"rawOb":"METAR KAJZ 260835Z AUTO 03007KT 10SM CLR 15/01 A2998 RMK AO2 T01470008","observationTime":"2026-03-26T08:35:00.000Z","flightCategory":"VFR","latitude":38.7869,"longitude":-108.0658},"K0CO":{"rawOb":"METAR K0CO 260835Z AUTO 27034G42KT 10SM CLR 05/M04 A3033 RMK AO2","observationTime":"2026-03-26T08:35:00.000Z","flightCategory":"VFR","latitude":39.794,"longitude":-105.764},"K46U":{"rawOb":"METAR K46U 260835Z AUTO 00000KT 10SM CLR 04/M01 A2999 RMK A01","observationTime":"2026-03-26T08:35:00.000Z","flightCategory":"VFR","latitude":43.181,"longitude":-111.037},"K5T9":{"rawOb":"METAR K5T9 260835Z AUTO 12009KT CLR 22/17 A2994 RMK A01","observationTime":"2026-03-26T08:35:00.000Z","flightCategory":"null","latitude":28.8568,"longitude":-100.5159},"K6S8":{"rawOb":"METAR K6S8 260835Z AUTO 04017G22KT 10SM OVC065 04/M01 A3002 RMK A01","observationTime":"2026-03-26T08:35:00.000Z","flightCategory":"VFR","latitude":45.703,"longitude":-108.761},"KAFO":{"rawOb":"METAR KAFO 260835Z AUTO 19005KT 10SM CLR 02/M02 A2999 RMK AO2","observationTime":"2026-03-26T08:35:00.000Z","flightCategory":"VFR","latitude":42.7139,"longitude":-110.9443},"KBDG":{"rawOb":"METAR KBDG 260835Z AUTO 00000KT 10SM CLR 12/M02 A3004 RMK AO2 T01161023","observationTime":"2026-03-26T08:35:00.000Z","flightCategory":"VFR","latitude":37.587,"longitude":-109.481},"KERV":{"rawOb":"METAR KERV 260835Z AUTO 16011G15KT 10SM OVC014 20/17 A3004 RMK AO2 T01960168","observationTime":"2026-03-26T08:35:00.000Z","flightCategory":"MVFR","latitude":29.9779,"longitude":-99.0872},"K1D8":{"rawOb":"METAR K1D8 260835Z AUTO 36019KT 10SM CLR 10/08 A2975 RMK AO2","observationTime":"2026-03-26T08:35:00.000Z","flightCategory":"VFR","latitude":44.86,"longitude":-98.529},"K21D":{"rawOb":"METAR K21D 260835Z AUTO 36006KT 10SM SCT120 12/05 A2973 RMK AO2","observationTime":"2026-03-26T08:35:00.000Z","flightCategory":"VFR","latitude":45.0002,"longitude":-92.8549},"KAJG":{"rawOb":"METAR KAJG 260835Z AUTO 22014KT 21/12 A2987 RMK AO2 LTG DSNT N AND E T02110119 PWINO","observationTime":"2026-03-26T08:35:00.000Z","flightCategory":"null","latitude":38.6093,"longitude":-87.7251},"KSXK":{"rawOb":"METAR KSXK 260835Z AUTO 17010KT 10SM FEW110 15/07 A2960 RMK AO2","observationTime":"2026-03-26T08:35:00.000Z","flightCategory":"VFR","latitude":42.9895,"longitude":-96.1645},"KTHA":{"rawOb":"METAR KTHA 260835Z AUTO 17005KT 10SM FEW033 FEW043 OVC055 15/11 A3008 RMK A01","observationTime":"2026-03-26T08:35:00.000Z","flightCategory":"VFR","latitude":35.3804,"longitude":-86.2419},"KTPF":{"rawOb":"METAR KTPF 260835Z AUTO 05008KT 9SM CLR 19/19 A3008 RMK AO2 T01920186 $","observationTime":"2026-03-26T08:35:00.000Z","flightCategory":"VFR","latitude":27.9153,"longitude":-82.4518},"KTXW":{"rawOb":"METAR KTXW 260835Z AUTO 15006KT 10SM CLR 22/18 A3001 RMK AO2 T02160184","observationTime":"2026-03-26T08:35:00.000Z","flightCategory":"VFR","latitude":26.1824,"longitude":-97.9742},"KUNI":{"rawOb":"METAR KUNI 260835Z AUTO 21005KT 10SM FEW160 16/06 A2994 RMK AO2 T01610058","observationTime":"2026-03-26T08:35:00.000Z","flightCategory":"VFR","latitude":39.2129,"longitude":-82.2204},"KUNV":{"rawOb":"METAR KUNV 260835Z AUTO 27005KT 10SM OVC070 09/M02 A2991 RMK AO2 T00931017","observationTime":"2026-03-26T08:35:00.000Z","flightCategory":"VFR","latitude":40.8534,"longitude":-77.8401},"KVJI":{"rawOb":"METAR KVJI 260835Z AUTO 24004KT 10SM BKN050 OVC070 12/04 A3013 RMK AO2","observationTime":"2026-03-26T08:35:00.000Z","flightCategory":"VFR","latitude":36.6872,"longitude":-82.037},"KBJC":{"rawOb":"METAR KBJC 260835Z AUTO 00000KT 10SM CLR 16/M02 A2989 RMK AO2","observationTime":"2026-03-26T08:35:00.000Z","flightCategory":"VFR","latitude":39.9008,"longitude":-105.1042},"KCXP":{"rawOb":"METAR KCXP 260835Z AUTO VRB03KT 10SM CLR 09/M04 A3013 RMK AO2","observationTime":"2026-03-26T08:35:00.000Z","flightCategory":"VFR","latitude":39.1905,"longitude":-119.7319},"KDSF":{"rawOb":"METAR KDSF 260835Z AUTO 07009KT 8SM BKN020 BKN035 BKN041 22/19 A3011 RMK A01","observationTime":"2026-03-26T08:35:00.000Z","flightCategory":"MVFR","latitude":28.3426,"longitude":-88.2649},"KF17":{"rawOb":"METAR KF17 260835Z AUTO 19005KT 10SM OVC011 17/16 A3007 RMK AO2","observationTime":"2026-03-26T08:35:00.000Z","flightCategory":"MVFR","latitude":31.8277,"longitude":-94.154},"KHBV":{"rawOb":"METAR KHBV 260835Z AUTO 15011KT 10SM FEW022 21/20 A2999 RMK AO2 T02140200 $","observationTime":"2026-03-26T08:35:00.000Z","flightCategory":"VFR","latitude":27.3516,"longitude":-98.7415},"KJWY":{"rawOb":"METAR KJWY 260835Z AUTO 17008KT 10SM CLR 19/17 A2999 RMK AO2 T01920171","observationTime":"2026-03-26T08:35:00.000Z","flightCategory":"VFR","latitude":32.456,"longitude":-96.914},"KM75":{"rawOb":"METAR KM75 260835Z AUTO 02007KT 10SM OVC013 M05/M06 A3012 RMK A01","observationTime":"2026-03-26T08:35:00.000Z","flightCategory":"MVFR","latitude":48.3686,"longitude":-107.9188},"KMVH":{"rawOb":"METAR KMVH 260835Z AUTO 00000KT 1SM -SN OVC003 M02/M03 A3004 RMK AO2","observationTime":"2026-03-26T08:35:00.000Z","flightCategory":"LIFR","latitude":46.838,"longitude":-108.936},"KPO1":{"rawOb":"METAR KPO1 260835Z AUTO 05009KT 10SM OVC014 M07/M10 A3013 RMK AO2 TSNO","observationTime":"2026-03-26T08:35:00.000Z","flightCategory":"MVFR","latitude":48.134,"longitude":-105.162},"KTMK":{"rawOb":"METAR KTMK 260835Z AUTO 12003KT 10SM BKN037 02/02 A3046 RMK AO2","observationTime":"2026-03-26T08:35:00.000Z","flightCategory":"VFR","latitude":45.421,"longitude":-123.8144},"KUVA":{"rawOb":"METAR KUVA 260835Z AUTO 11006KT 10SM CLR 20/18 A3000 RMK AO2 T01960179 $","observationTime":"2026-03-26T08:35:00.000Z","flightCategory":"VFR","latitude":29.2135,"longitude":-99.743},"KBPC":{"rawOb":"METAR KBPC 260835Z AUTO 23007KT 10SM CLR 20/07 A2986 RMK AO2","observationTime":"2026-03-26T08:35:00.000Z","flightCategory":"VFR","latitude":35.8913,"longitude":-101.0275},"KFBR":{"rawOb":"METAR KFBR 260835Z AUTO 24012KT 10SM CLR 14/M06 A3006 RMK AO2 T01411061","observationTime":"2026-03-26T08:35:00.000Z","flightCategory":"VFR","latitude":41.3941,"longitude":-110.406},"KFWS":{"rawOb":"METAR KFWS 260835Z AUTO 18009KT 10SM CLR 20/17 A2997 RMK AO2 T01980170 $","observationTime":"2026-03-26T08:35:00.000Z","flightCategory":"VFR","latitude":32.558,"longitude":-97.308},"KIFP":{"rawOb":"METAR KIFP 260835Z AUTO 19004KT 10SM CLR 26/M04 A2979 RMK AO2","observationTime":"2026-03-26T08:35:00.000Z","flightCategory":"VFR","latitude":35.1487,"longitude":-114.5611},"KJTC":{"rawOb":"METAR KJTC 260835Z AUTO 19007KT 10SM CLR 09/M15 A3023 RMK AO2","observationTime":"2026-03-26T08:35:00.000Z","flightCategory":"VFR","latitude":34.1292,"longitude":-109.309},"KLMO":{"rawOb":"METAR KLMO 260835Z AUTO 30005KT 10SM CLR 15/M02 A2986 RMK AO2 T01521019","observationTime":"2026-03-26T08:35:00.000Z","flightCategory":"VFR","latitude":40.1612,"longitude":-105.1605},"KCZT":{"rawOb":"METAR KCZT 260835Z AUTO 14004KT 10SM 21/16 A2999 RMK AO2","observationTime":"2026-03-26T08:35:00.000Z","flightCategory":"VFR","latitude":28.5204,"longitude":-99.8192},"KDKB":{"rawOb":"METAR KDKB 260835Z AUTO 17008KT 10SM CLR 08/06 A2976 RMK AO2 T00780057","observationTime":"2026-03-26T08:35:00.000Z","flightCategory":"VFR","latitude":41.9338,"longitude":-88.7066},"KS25":{"rawOb":"METAR KS25 260835Z AUTO 01014KT 10SM OVC010 M07/M07 A3010 RMK AO2","observationTime":"2026-03-26T08:35:00.000Z","flightCategory":"MVFR","latitude":47.7954,"longitude":-103.2567},"KS32":{"rawOb":"METAR KS32 260835Z AUTO 34017G23KT 10SM M05/M05 A2994 RMK AO2 TSNO","observationTime":"2026-03-26T08:35:00.000Z","flightCategory":"VFR","latitude":47.424,"longitude":-98.11},"KSEE":{"rawOb":"METAR KSEE 260835Z AUTO 29004KT 10SM CLR 14/12 A2995 RMK AO2","observationTime":"2026-03-26T08:35:00.000Z","flightCategory":"VFR","latitude":32.8273,"longitude":-116.9737},"KSFQ":{"rawOb":"METAR KSFQ 260835Z AUTO 19005KT 10SM SCT035 BKN050 OVC060 14/10 A3018 RMK AO2 T01420095","observationTime":"2026-03-26T08:35:00.000Z","flightCategory":"VFR","latitude":36.6825,"longitude":-76.6013},"KSFY":{"rawOb":"METAR KSFY 260835Z AUTO 00000KT 10SM CLR 08/07 A2972 RMK AO2 T00810066","observationTime":"2026-03-26T08:35:00.000Z","flightCategory":"VFR","latitude":42.0454,"longitude":-90.1101},"KSIF":{"rawOb":"METAR KSIF 260835Z AUTO 24004KT 10SM SCT070 OVC080 11/05 A3015 RMK AO2 T01080046","observationTime":"2026-03-26T08:35:00.000Z","flightCategory":"VFR","latitude":36.4408,"longitude":-79.8544},"KSJX":{"rawOb":"METAR KSJX 260835Z AUTO 04005KT 10SM BKN080 OVC100 00/M01 A2975 RMK AO2","observationTime":"2026-03-26T08:35:00.000Z","flightCategory":"VFR","latitude":45.6928,"longitude":-85.5662},"KSLO":{"rawOb":"METAR KSLO 260835Z AUTO 20010KT 10SM CLR 21/14 A2985 RMK AO2 T02060135","observationTime":"2026-03-26T08:35:00.000Z","flightCategory":"VFR","latitude":38.6446,"longitude":-88.9612},"KSNC":{"rawOb":"METAR KSNC 260835Z AUTO 00000KT 10SM BKN100 07/05 A3002 RMK AO2","observationTime":"2026-03-26T08:35:00.000Z","flightCategory":"VFR","latitude":41.383,"longitude":-72.506},"KSOW":{"rawOb":"METAR KSOW 260835Z AUTO 18010KT 10SM CLR 13/M07 A3021 RMK AO2","observationTime":"2026-03-26T08:35:00.000Z","flightCategory":"VFR","latitude":34.2686,"longitude":-110.0019},"KSPF":{"rawOb":"METAR KSPF 260835Z AUTO 03009G14KT 10SM CLR 07/03 A2993 RMK AO2","observationTime":"2026-03-26T08:35:00.000Z","flightCategory":"VFR","latitude":44.4811,"longitude":-103.7879},"KSTF":{"rawOb":"METAR KSTF 260835Z AUTO 18004KT 8SM OVC060 15/15 A3007 RMK AO2","observationTime":"2026-03-26T08:35:00.000Z","flightCategory":"VFR","latitude":33.4326,"longitude":-88.8506},"KSTK":{"rawOb":"METAR KSTK 260835Z AUTO 29013G20KT 10SM CLR 12/00 A2979 RMK AO2","observationTime":"2026-03-26T08:35:00.000Z","flightCategory":"VFR","latitude":40.6133,"longitude":-103.2611},"KSUZ":{"rawOb":"METAR KSUZ 260835Z AUTO 20005KT 8SM CLR 19/16 A2999 RMK A01","observationTime":"2026-03-26T08:35:00.000Z","flightCategory":"VFR","latitude":34.5862,"longitude":-92.4802},"KSWW":{"rawOb":"METAR KSWW 260835Z AUTO 18009KT 10SM 20/10 A2998 RMK AO2 T02020101","observationTime":"2026-03-26T08:35:00.000Z","flightCategory":"VFR","latitude":32.4688,"longitude":-100.4669},"KT69":{"rawOb":"METAR KT69 260835Z AUTO 6SM BR BKN016 BKN022 BKN030 22/21 A3002 RMK A01","observationTime":"2026-03-26T08:35:00.000Z","flightCategory":"MVFR","latitude":28.0418,"longitude":-97.541},"KTGI":{"rawOb":"METAR KTGI 260835Z AUTO 18015KT BKN120 12/10 A3011 RMK AO1 T01150095","observationTime":"2026-03-26T08:35:00.000Z","flightCategory":"null","latitude":37.8279,"longitude":-75.9964},"KTKX":{"rawOb":"METAR KTKX 260835Z AUTO 22008KT 10SM BKN050 18/14 A2995 RMK AO2","observationTime":"2026-03-26T08:35:00.000Z","flightCategory":"VFR","latitude":36.2226,"longitude":-90.0367},"KTMA":{"rawOb":"METAR KTMA 260835Z AUTO 14003KT 3SM BR OVC002 15/15 A3018 RMK AO2 T01460146 $","observationTime":"2026-03-26T08:35:00.000Z","flightCategory":"LIFR","latitude":31.4229,"longitude":-83.4859},"KTSP":{"rawOb":"METAR KTSP 260835Z AUTO 30011G18KT 10SM CLR 14/05 A3012 RMK AO2","observationTime":"2026-03-26T08:35:00.000Z","flightCategory":"VFR","latitude":35.1387,"longitude":-118.4424},"KTWM":{"rawOb":"METAR KTWM 260835Z AUTO 05006KT 10SM OVC004 M02/M02 A2975 RMK AO2","observationTime":"2026-03-26T08:35:00.000Z","flightCategory":"LIFR","latitude":47.0192,"longitude":-91.7447},"KUKF":{"rawOb":"METAR KUKF 260835Z AUTO 00000KT 10SM SCT050 07/04 A3020 RMK AO2","observationTime":"2026-03-26T08:35:00.000Z","flightCategory":"VFR","latitude":36.2188,"longitude":-81.1002},"KUKT":{"rawOb":"METAR KUKT 260835Z AUTO 18007KT 10SM OVC085 09/04 A3000 RMK AO2","observationTime":"2026-03-26T08:35:00.000Z","flightCategory":"VFR","latitude":40.4368,"longitude":-75.3802},"KAPY":{"rawOb":"METAR KAPY 260835Z AUTO 14008G14KT 10SM SCT022 22/18 A2998 RMK AO2 T02230175","observationTime":"2026-03-26T08:35:00.000Z","flightCategory":"VFR","latitude":26.969,"longitude":-99.249},"KGEV":{"rawOb":"METAR KGEV 260835Z AUTO 12003KT 10SM BKN023 BKN041 OVC060 07/03 A3015 RMK AO2 T00720034","observationTime":"2026-03-26T08:35:00.000Z","flightCategory":"MVFR","latitude":36.4312,"longitude":-81.4206},"KGYH":{"rawOb":"METAR KGYH 260835Z AUTO 24007KT 10SM SCT075 11/07 A3018 RMK AO2","observationTime":"2026-03-26T08:35:00.000Z","flightCategory":"VFR","latitude":34.763,"longitude":-82.375},"KGHG":{"rawOb":"METAR KGHG 260835Z AUTO 20007KT 170V230 10SM FEW055 SCT065 BKN075 06/04 A3003 RMK AO2","observationTime":"2026-03-26T08:35:00.000Z","flightCategory":"VFR","latitude":42.0961,"longitude":-70.6769},"KGLE":{"rawOb":"METAR KGLE 260835Z AUTO 18006KT 10SM CLR 18/15 A2996 RMK AO2 T01820154","observationTime":"2026-03-26T08:35:00.000Z","flightCategory":"VFR","latitude":33.6525,"longitude":-97.198},"KTVI":{"rawOb":"METAR KTVI 260835Z AUTO 13005KT 7SM OVC006 16/15 A3017 RMK AO2","observationTime":"2026-03-26T08:35:00.000Z","flightCategory":"IFR","latitude":30.9026,"longitude":-83.8826},"KGWR":{"rawOb":"METAR KGWR 260835Z AUTO 02013G18KT 9SM BKN005 BKN055 M01/M01 A2990 RMK A01","observationTime":"2026-03-26T08:35:00.000Z","flightCategory":"IFR","latitude":46.2185,"longitude":-97.6396},"KHAF":{"rawOb":"METAR KHAF 260835Z AUTO 34006KT 5SM BR SCT013 10/10 A3011 RMK AO2","observationTime":"2026-03-26T08:35:00.000Z","flightCategory":"MVFR","latitude":37.5136,"longitude":-122.4996},"KHBI":{"rawOb":"METAR KHBI 260835Z AUTO 20004KT 10SM OVC019 14/07 A3019 RMK AO2 T01350070","observationTime":"2026-03-26T08:35:00.000Z","flightCategory":"MVFR","latitude":35.6527,"longitude":-79.8942},"KHCR":{"rawOb":"METAR KHCR 260835Z AUTO 00000KT 10SM CLR 10/01 A2997 RMK AO2 T00950007 $","observationTime":"2026-03-26T08:35:00.000Z","flightCategory":"VFR","latitude":40.4774,"longitude":-111.4329},"KHEG":{"rawOb":"METAR KHEG 260835Z AUTO 35003KT 1/4SM FG OVC002 15/15 A3017 RMK AO2 TSNO","observationTime":"2026-03-26T08:35:00.000Z","flightCategory":"LIFR","latitude":30.2771,"longitude":-81.8087},"KHFJ":{"rawOb":"METAR KHFJ 260835Z AUTO 20014G18KT 10SM CLR 20/13 A2991 RMK AO2","observationTime":"2026-03-26T08:35:00.000Z","flightCategory":"VFR","latitude":36.9105,"longitude":-94.0099},"KVVS":{"rawOb":"METAR KVVS 260835Z AUTO 23007KT 10SM OVC060 15/00 A2996 RMK AO2 T01501002","observationTime":"2026-03-26T08:35:00.000Z","flightCategory":"VFR","latitude":39.9582,"longitude":-79.6575},"KHLX":{"rawOb":"METAR KHLX 260835Z AUTO 20006KT 10SM CLR 09/05 A3013 RMK AO2","observationTime":"2026-03-26T08:35:00.000Z","flightCategory":"VFR","latitude":36.7637,"longitude":-80.8211},"KW22":{"rawOb":"METAR KW22 260835Z AUTO 21008KT 10SM FEW045 FEW050 BKN090 15/M00 A3001 RMK AO2","observationTime":"2026-03-26T08:35:00.000Z","flightCategory":"VFR","latitude":39.001,"longitude":-80.2712},"KWDR":{"rawOb":"METAR KWDR 260835Z 10SM BKN011 09/08 A3020 RMK AO2","observationTime":"2026-03-26T08:35:00.000Z","flightCategory":"MVFR","latitude":33.981,"longitude":-83.667},"KHRJ":{"rawOb":"METAR KHRJ 260835Z AUTO 19003KT 10SM BKN041 OVC050 14/11 A3020 RMK AO2 T01360108","observationTime":"2026-03-26T08:35:00.000Z","flightCategory":"VFR","latitude":35.3794,"longitude":-78.7356},"KHSP":{"rawOb":"METAR KHSP 260835Z AUTO 26016G22KT 10SM CLR 10/02 A3008 RMK AO2 T01020016","observationTime":"2026-03-26T08:35:00.000Z","flightCategory":"VFR","latitude":37.9531,"longitude":-79.8285},"KI68":{"rawOb":"METAR KI68 260835Z AUTO 20007KT 10SM SCT075 BKN100 BKN120 16/12 A2992 RMK AO2","observationTime":"2026-03-26T08:35:00.000Z","flightCategory":"VFR","latitude":39.4664,"longitude":-84.2532},"KI74":{"rawOb":"METAR KI74 260835Z AUTO 21003KT 10SM OVC090 16/08 A2991 RMK AO2","observationTime":"2026-03-26T08:35:00.000Z","flightCategory":"VFR","latitude":40.1314,"longitude":-83.757},"KIDI":{"rawOb":"METAR KIDI 260835Z AUTO 22006KT 10SM BKN055 BKN085 OVC120 11/01 A2992 RMK A01","observationTime":"2026-03-26T08:35:00.000Z","flightCategory":"VFR","latitude":40.6337,"longitude":-79.1036},"KIGQ":{"rawOb":"METAR KIGQ 260835Z AUTO 15003KT 10SM CLR 09/06 A2978 RMK AO2 T00910061","observationTime":"2026-03-26T08:35:00.000Z","flightCategory":"VFR","latitude":41.5412,"longitude":-87.5282},"KISO":{"rawOb":"METAR KISO 260835Z AUTO 00000KT 10SM BKN050 OVC060 12/10 A3020 RMK AO2 T01180100","observationTime":"2026-03-26T08:35:00.000Z","flightCategory":"VFR","latitude":35.324,"longitude":-77.6187},"KIKV":{"rawOb":"METAR KIKV 260835Z AUTO 00000KT 10SM CLR 10/08 A2969 RMK AO2","observationTime":"2026-03-26T08:35:00.000Z","flightCategory":"VFR","latitude":41.6878,"longitude":-93.5695},"K6S2":{"rawOb":"METAR K6S2 260835Z AUTO 00000KT 10SM CLR 03/03 A3046 RMK AO2","observationTime":"2026-03-26T08:35:00.000Z","flightCategory":"VFR","latitude":43.9838,"longitude":-124.11},"K77S":{"rawOb":"METAR K77S 260835Z AUTO 00000KT 10SM SCT036 SCT046 SCT050 01/01 A3044 RMK A01","observationTime":"2026-03-26T08:35:00.000Z","flightCategory":"VFR","latitude":43.9324,"longitude":-123.0059},"K79S":{"rawOb":"METAR K79S 260835Z AUTO 01004KT 10SM BKN120 M03/M04 A3006 RMK AO2 T10261039 $","observationTime":"2026-03-26T08:35:00.000Z","flightCategory":"VFR","latitude":47.845,"longitude":-110.636},"K82V":{"rawOb":"METAR K82V 260835Z AUTO 00000KT 10SM 12/M03 A2986 RMK AO2","observationTime":"2026-03-26T08:35:00.000Z","flightCategory":"VFR","latitude":41.151,"longitude":-104.1288},"K96D":{"rawOb":"METAR K96D 260835Z AUTO 34020KT 9SM -SN OVC011 M09/M09 A3003 RMK AO2","observationTime":"2026-03-26T08:35:00.000Z","flightCategory":"MVFR","latitude":48.9402,"longitude":-97.9053},"K9A4":{"rawOb":"METAR K9A4 260835Z AUTO 20009KT 10SM CLR A3009 RMK AO2","observationTime":"2026-03-26T08:35:00.000Z","flightCategory":"VFR","latitude":34.66,"longitude":-87.349},"K9Y1":{"rawOb":"METAR K9Y1 260835Z AUTO 36009G16KT 10SM SCT013 BKN060 OVC070 M03/M05 A3003 RMK AO2","observationTime":"2026-03-26T08:35:00.000Z","flightCategory":"VFR","latitude":47.3941,"longitude":-102.7731},"KMNZ":{"rawOb":"METAR KMNZ 260835Z AUTO 19014KT 10SM CLR 18/17 A2998 RMK AO2","observationTime":"2026-03-26T08:35:00.000Z","flightCategory":"VFR","latitude":31.6697,"longitude":-98.1462},"KMUT":{"rawOb":"METAR KMUT 260835Z AUTO 00000KT 10SM CLR 10/10 A2966 RMK A01","observationTime":"2026-03-26T08:35:00.000Z","flightCategory":"VFR","latitude":41.367,"longitude":-91.1406},"KMWK":{"rawOb":"METAR KMWK 260835Z AUTO 16002KT 10SM SCT060 SCT080 08/04 A3016 RMK AO2","observationTime":"2026-03-26T08:35:00.000Z","flightCategory":"VFR","latitude":36.4568,"longitude":-80.5549},"KACB":{"rawOb":"METAR KACB 260835Z AUTO 00000KT 7SM CLR M02/M02 A2974 RMK AO2 T10211024","observationTime":"2026-03-26T08:35:00.000Z","flightCategory":"VFR","latitude":44.9867,"longitude":-85.2022},"KACJ":{"rawOb":"METAR KACJ 260835Z AUTO 00000KT 6SM BR CLR 11/11 A3014 RMK AO2 T01130113","observationTime":"2026-03-26T08:35:00.000Z","flightCategory":"VFR","latitude":32.1106,"longitude":-84.1841},"KACQ":{"rawOb":"METAR KACQ 260835Z AUTO 04003KT 10SM BKN110 09/06 A2971 RMK AO2","observationTime":"2026-03-26T08:35:00.000Z","flightCategory":"VFR","latitude":44.0702,"longitude":-93.5535},"KMYZ":{"rawOb":"METAR KMYZ 260835Z AUTO 20010KT 10SM CLR 18/10 A2970 RMK AO2","observationTime":"2026-03-26T08:35:00.000Z","flightCategory":"VFR","latitude":39.8544,"longitude":-96.6279},"KAEJ":{"rawOb":"METAR KAEJ 260835Z AUTO 25005KT 10SM CLR 08/M05 A3014 RMK AO2 T00781046","observationTime":"2026-03-26T08:35:00.000Z","flightCategory":"VFR","latitude":38.8116,"longitude":-106.1213},"KAEL":{"rawOb":"METAR KAEL 260835Z AUTO 06005KT 10SM BKN120 BKN150 09/08 A2966 RMK AO2 T00900079","observationTime":"2026-03-26T08:35:00.000Z","flightCategory":"VFR","latitude":43.6823,"longitude":-93.3722},"KORG":{"rawOb":"METAR KORG 260835Z AUTO 00000KT 10SM OVC012 18/18 A3010 RMK AO2 T01800175 PWINO","observationTime":"2026-03-26T08:35:00.000Z","flightCategory":"MVFR","latitude":30.068,"longitude":-93.8043},"KALX":{"rawOb":"METAR KALX 260835Z AUTO 00000KT 10SM CLR 14/13 A3015 RMK AO2 T01350130","observationTime":"2026-03-26T08:35:00.000Z","flightCategory":"VFR","latitude":32.916,"longitude":-85.964},"KAQP":{"rawOb":"METAR KAQP 260835Z AUTO 01015KT 7SM -RA FEW065 OVC085 09/07 A2978 RMK AO2 P0004 T00890072","observationTime":"2026-03-26T08:35:00.000Z","flightCategory":"VFR","latitude":45.2249,"longitude":-96.0041},"KPHG":{"rawOb":"METAR KPHG 260835Z AUTO 21009KT 10SM CLR 21/10 A2969 RMK AO2","observationTime":"2026-03-26T08:35:00.000Z","flightCategory":"VFR","latitude":39.7343,"longitude":-99.3179},"KATW":{"rawOb":"METAR KATW 260835Z AUTO 04005KT 10SM CLR 10/06 A2971 RMK AO2","observationTime":"2026-03-26T08:35:00.000Z","flightCategory":"VFR","latitude":44.2519,"longitude":-88.526},"KEAN":{"rawOb":"METAR KEAN 260835Z AUTO 34005KT 10SM CLR 14/M05 A2984 RMK AO2 T01391047","observationTime":"2026-03-26T08:35:00.000Z","flightCategory":"VFR","latitude":42.0563,"longitude":-104.9386},"KEHA":{"rawOb":"METAR KEHA 260835Z AUTO 21014KT 10SM CLR 16/03 A2983 RMK AO2 T01620030","observationTime":"2026-03-26T08:35:00.000Z","flightCategory":"VFR","latitude":37.0012,"longitude":-101.8802},"KAXH":{"rawOb":"METAR KAXH 260835Z AUTO 00000KT 1/4SM FG OVC004 17/16 A3007 RMK AO2 T01700157","observationTime":"2026-03-26T08:35:00.000Z","flightCategory":"LIFR","latitude":29.505,"longitude":-95.476},"KAZC":{"rawOb":"METAR KAZC 260835Z AUTO 11007KT 10SM CLR 07/M01 A3008 RMK AO2","observationTime":"2026-03-26T08:35:00.000Z","flightCategory":"VFR","latitude":36.959,"longitude":-113.013},"KBAC":{"rawOb":"METAR KBAC 260835Z AUTO 35018KT 10SM UP BKN007 M02/M02 A2992 RMK AO2","observationTime":"2026-03-26T08:35:00.000Z","flightCategory":"IFR","latitude":46.9419,"longitude":-98.0179},"KBAM":{"rawOb":"METAR KBAM 260835Z AUTO 19009KT 10SM CLR 13/00 A3005 RMK AO1","observationTime":"2026-03-26T08:35:00.000Z","flightCategory":"VFR","latitude":40.6048,"longitude":-116.8719},"KBAX":{"rawOb":"METAR KBAX 260835Z AUTO 00000KT 10SM CLR 05/M01 A2979 RMK AO2 T00471007","observationTime":"2026-03-26T08:35:00.000Z","flightCategory":"VFR","latitude":43.7774,"longitude":-82.9828},"KBBB":{"rawOb":"METAR KBBB 260835Z AUTO 01008KT 4SM RA BR FEW050 BKN065 OVC075 09/09 A2980 RMK AO2","observationTime":"2026-03-26T08:35:00.000Z","flightCategory":"MVFR","latitude":45.331,"longitude":-95.6469},"KBBP":{"rawOb":"METAR KBBP 260835Z AUTO 00000KT 10SM BKN050 11/11 A3018 RMK AO2","observationTime":"2026-03-26T08:35:00.000Z","flightCategory":"VFR","latitude":34.6228,"longitude":-79.7354},"KGWB":{"rawOb":"METAR KGWB 260835Z AUTO VRB02KT 10SM FEW060 10/07 A2984 RMK AO2","observationTime":"2026-03-26T08:35:00.000Z","flightCategory":"VFR","latitude":41.3061,"longitude":-85.0585},"KD60":{"rawOb":"METAR KD60 260835Z AUTO 35015KT 10SM OVC011 M09/M10 A3010 RMK AO2","observationTime":"2026-03-26T08:35:00.000Z","flightCategory":"MVFR","latitude":48.3834,"longitude":-102.8985},"KHHG":{"rawOb":"METAR KHHG 260835Z AUTO 22003KT 10SM OVC065 15/09 A2985 RMK AO2 T01450090","observationTime":"2026-03-26T08:35:00.000Z","flightCategory":"VFR","latitude":40.8543,"longitude":-85.4543},"KDRI":{"rawOb":"METAR KDRI 260835Z AUTO 00000KT 1SM BR 17/17 A3009 RMK AO2 T01670167 $","observationTime":"2026-03-26T08:35:00.000Z","flightCategory":"IFR","latitude":30.8344,"longitude":-93.3358},"KDTA":{"rawOb":"METAR KDTA 260835Z AUTO 17012KT 10SM CLR 16/M03 A2996 RMK AO1","observationTime":"2026-03-26T08:35:00.000Z","flightCategory":"VFR","latitude":39.3879,"longitude":-112.5041},"KHXD":{"rawOb":"METAR KHXD 260835Z AUTO 00000KT 3/4SM BR VV005 13/13 A3019 RMK AO2","observationTime":"2026-03-26T08:35:00.000Z","flightCategory":"LIFR","latitude":32.2263,"longitude":-80.6949},"KI23":{"rawOb":"METAR KI23 260835Z AUTO 23011KT 10SM FEW075 FEW100 15/09 A2992 RMK AO2","observationTime":"2026-03-26T08:35:00.000Z","flightCategory":"VFR","latitude":39.5697,"longitude":-83.4239},"KDWX":{"rawOb":"METAR KDWX 260835Z AUTO 00000KT 10SM SCT065 OVC100 08/01 A2999 RMK AO2 T00820011","observationTime":"2026-03-26T08:35:00.000Z","flightCategory":"VFR","latitude":41.037,"longitude":-107.4998},"KEBS":{"rawOb":"METAR KEBS 260835Z AUTO 15006KT 10SM CLR 09/08 A2965 RMK AO2","observationTime":"2026-03-26T08:35:00.000Z","flightCategory":"VFR","latitude":42.4372,"longitude":-93.8725},"KALN":{"rawOb":"METAR KALN 260835Z AUTO 19010KT 10SM CLR 19/13 A2980 RMK AO2 T01870127 TSNO","observationTime":"2026-03-26T08:35:00.000Z","flightCategory":"VFR","latitude":38.8897,"longitude":-90.0316},"KAUN":{"rawOb":"METAR KAUN 260835Z AUTO 08007KT 10SM CLR 16/07 A3005 RMK A01","observationTime":"2026-03-26T08:35:00.000Z","flightCategory":"VFR","latitude":38.9553,"longitude":-121.0865},"KEHO":{"rawOb":"METAR KEHO 260835Z AUTO 21005KT 10SM BKN070 BKN080 13/07 A3017 RMK AO2 T01260065","observationTime":"2026-03-26T08:35:00.000Z","flightCategory":"VFR","latitude":35.2557,"longitude":-81.5986},"KBFR":{"rawOb":"METAR KBFR 260835Z AUTO 12005KT 1SM VCTS RA BR BKN003 BKN021 OVC060 16/15 A2993 RMK AO2 LTG DSNT ALQDS PRESFR VIS 1/2V2 1/2","observationTime":"2026-03-26T08:35:00.000Z","flightCategory":"LIFR","latitude":38.8383,"longitude":-86.446},"KBFZ":{"rawOb":"METAR KBFZ 260835Z AUTO 17005KT 10SM CLR 15/13 A3013 RMK AO2","observationTime":"2026-03-26T08:35:00.000Z","flightCategory":"VFR","latitude":34.2316,"longitude":-86.2481},"KEKM":{"rawOb":"METAR KEKM 260835Z AUTO 14003KT 10SM CLR 08/06 A2981 RMK AO2 T00840055 $","observationTime":"2026-03-26T08:35:00.000Z","flightCategory":"VFR","latitude":41.7222,"longitude":-86},"KEKX":{"rawOb":"METAR KEKX 260835Z AUTO 21008KT 10SM CLR 16/11 A2997 RMK AO2 T01580110","observationTime":"2026-03-26T08:35:00.000Z","flightCategory":"VFR","latitude":37.6924,"longitude":-85.9204},"KSYF":{"rawOb":"METAR KSYF 260835Z AUTO 26007KT 10SM CLR 14/02 A2974 RMK AO2","observationTime":"2026-03-26T08:35:00.000Z","flightCategory":"VFR","latitude":39.7583,"longitude":-101.7927},"KTVK":{"rawOb":"METAR KTVK 260835Z AUTO 21005KT 10SM CLR 15/11 A2972 RMK A01","observationTime":"2026-03-26T08:35:00.000Z","flightCategory":"VFR","latitude":40.6832,"longitude":-92.8984},"K6A2":{"rawOb":"METAR K6A2 260835Z AUTO 00000KT 10SM CLR 11/10 A3018 RMK AO2","observationTime":"2026-03-26T08:35:00.000Z","flightCategory":"VFR","latitude":33.227,"longitude":-84.275},"KMBO":{"rawOb":"METAR KMBO 260835Z AUTO 20008KT 10SM FEW011 SCT041 BKN060 18/17 A3009 RMK AO2","observationTime":"2026-03-26T08:35:00.000Z","flightCategory":"VFR","latitude":32.4385,"longitude":-90.1014},"KMCD":{"rawOb":"METAR KMCD 260835Z AUTO 18006KT 7SM BKN110 M00/M01 A2974 RMK AO2","observationTime":"2026-03-26T08:35:00.000Z","flightCategory":"VFR","latitude":45.866,"longitude":-84.634},"KVPC":{"rawOb":"METAR KVPC 260835Z AUTO 09004KT 10SM SCT055 13/10 A3017 RMK AO2","observationTime":"2026-03-26T08:35:00.000Z","flightCategory":"VFR","latitude":34.1159,"longitude":-84.8507},"KVUJ":{"rawOb":"METAR KVUJ 260835Z AUTO 00000KT 10SM OVC018 11/08 A3022 RMK AO2 T01110084","observationTime":"2026-03-26T08:35:00.000Z","flightCategory":"MVFR","latitude":35.4173,"longitude":-80.1509},"KW40":{"rawOb":"METAR KW40 260835Z AUTO 20004KT 10SM BKN048 OVC060 13/11 A3019 RMK AO2 T01320110","observationTime":"2026-03-26T08:35:00.000Z","flightCategory":"VFR","latitude":35.2211,"longitude":-78.0404},"KMMH":{"rawOb":"METAR KMMH 260835Z AUTO 00000KT 10SM CLR 01/M06 A3020 RMK AO2","observationTime":"2026-03-26T08:35:00.000Z","flightCategory":"VFR","latitude":37.6253,"longitude":-118.8384},"KZPH":{"rawOb":"METAR KZPH 260835Z AUTO 03005KT 1/2SM FG OVC003 18/ A3012 RMK A02 T0181////","observationTime":"2026-03-26T08:35:00.000Z","flightCategory":"LIFR","latitude":28.2268,"longitude":-82.1564},"KMNI":{"rawOb":"METAR KMNI 260835Z AUTO 00000KT 10SM CLR 10/09 A3019 RMK AO2","observationTime":"2026-03-26T08:35:00.000Z","flightCategory":"VFR","latitude":33.5882,"longitude":-80.2059},"KMQS":{"rawOb":"METAR KMQS 260835Z AUTO 21004KT 10SM OVC100 09/06 A3001 RMK AO2 T00850059","observationTime":"2026-03-26T08:35:00.000Z","flightCategory":"VFR","latitude":39.9773,"longitude":-75.8605},"KDCM":{"rawOb":"METAR KDCM 260835Z AUTO 00000KT 10SM SCT070 OVC080 12/08 A3019 RMK AO2","observationTime":"2026-03-26T08:35:00.000Z","flightCategory":"VFR","latitude":34.7908,"longitude":-81.1987},"KMWM":{"rawOb":"METAR KMWM 260835Z AUTO 03008KT 10SM SCT120 14/06 A2969 RMK AO2","observationTime":"2026-03-26T08:35:00.000Z","flightCategory":"VFR","latitude":43.91,"longitude":-95.1073},"KDYB":{"rawOb":"METAR KDYB 260835Z AUTO 00000KT 8SM OVC060 12/12 A3017 RMK AO2","observationTime":"2026-03-26T08:35:00.000Z","flightCategory":"VFR","latitude":33.062,"longitude":-80.28},"KN38":{"rawOb":"METAR KN38 260835Z AUTO 19004KT 10SM SCT065 OVC075 07/M02 A2988 RMK AO2","observationTime":"2026-03-26T08:35:00.000Z","flightCategory":"VFR","latitude":41.7287,"longitude":-77.3958},"KO32":{"rawOb":"METAR KO32 260835Z AUTO 00000KT 10SM CLR 15/11 A2997 RMK AO2 T01520109 $","observationTime":"2026-03-26T08:35:00.000Z","flightCategory":"VFR","latitude":36.6691,"longitude":-119.4525},"KE42":{"rawOb":"METAR KE42 260835Z AUTO 19016KT 10SM CLR 21/07 A2985 RMK AO2 T02090065","observationTime":"2026-03-26T08:35:00.000Z","flightCategory":"VFR","latitude":36.2193,"longitude":-101.194},"KEGT":{"rawOb":"METAR KEGT 260835Z AUTO 20015G19KT 10SM CLR 20/16 A2983 RMK AO2 T02040158","observationTime":"2026-03-26T08:35:00.000Z","flightCategory":"VFR","latitude":37.3251,"longitude":-97.3901},"KOXV":{"rawOb":"METAR KOXV 260835Z AUTO 20007KT 10SM CLR 15/09 A2969 RMK AO2","observationTime":"2026-03-26T08:35:00.000Z","flightCategory":"VFR","latitude":41.2984,"longitude":-93.1114},"KPCD":{"rawOb":"METAR KPCD 260835Z AUTO 14006KT 10SM CLR 17/13 A2987 RMK AO2 T01710134","observationTime":"2026-03-26T08:35:00.000Z","flightCategory":"VFR","latitude":37.8749,"longitude":-89.8582},"KFME":{"rawOb":"METAR KFME 260835Z AUTO 23003KT 10SM BKN100 06/04 A3005 RMK AO1","observationTime":"2026-03-26T08:35:00.000Z","flightCategory":"VFR","latitude":39.086,"longitude":-76.757},"KPLR":{"rawOb":"METAR KPLR 260835Z AUTO 00000KT 5SM BR SCT025 BKN033 OVC050 11/11 A3015 RMK A01","observationTime":"2026-03-26T08:35:00.000Z","flightCategory":"MVFR","latitude":33.5608,"longitude":-86.2463},"KHJH":{"rawOb":"METAR KHJH 260835Z AUTO 22012G18KT 10SM CLR 21/10 A2968 RMK AO2 T02100095","observationTime":"2026-03-26T08:35:00.000Z","flightCategory":"VFR","latitude":40.1493,"longitude":-97.5872},"KRNP":{"rawOb":"METAR KRNP 260835Z AUTO 22003KT 10SM CLR 13/02 A2978 RMK AO2 T01250016","observationTime":"2026-03-26T08:35:00.000Z","flightCategory":"VFR","latitude":42.9937,"longitude":-84.1347},"KROX":{"rawOb":"METAR KROX 260835Z AUTO 36011KT 8SM OVC008 M01/M02 A2989 RMK AO2 CIG 006V011 OVC V BKN T10151020","observationTime":"2026-03-26T08:35:00.000Z","flightCategory":"IFR","latitude":48.856,"longitude":-95.6949},"KRPD":{"rawOb":"METAR KRPD 260835Z AUTO 01006KT 10SM OVC110 07/04 A2973 RMK AO2 T00720038","observationTime":"2026-03-26T08:35:00.000Z","flightCategory":"VFR","latitude":45.4186,"longitude":-91.7764},"KRPH":{"rawOb":"METAR KRPH 260835Z AUTO 16007KT 140V220 10SM CLR 21/14 A2990 RMK AO2 T02090143","observationTime":"2026-03-26T08:35:00.000Z","flightCategory":"VFR","latitude":33.1095,"longitude":-98.5537},"KHNZ":{"rawOb":"METAR KHNZ 260835Z AUTO 22005KT 10SM SCT043 10/08 A3016 RMK AO2 T00960075","observationTime":"2026-03-26T08:35:00.000Z","flightCategory":"VFR","latitude":36.3635,"longitude":-78.5289},"K6A1":{"rawOb":"METAR K6A1 260835Z AUTO 00000KT 10SM CLR 12/11 A3018 RMK AO2 T01180114","observationTime":"2026-03-26T08:35:00.000Z","flightCategory":"VFR","latitude":32.5733,"longitude":-84.247},"K81R":{"rawOb":"METAR K81R 260835Z AUTO 15006KT 10SM CLR 19/16 A3000 RMK AO2 T01890159","observationTime":"2026-03-26T08:35:00.000Z","flightCategory":"VFR","latitude":31.2321,"longitude":-98.7154},"K8A1":{"rawOb":"METAR K8A1 260835Z AUTO VRB01KT 10SM CLR 14/12 A3011 RMK AO2","observationTime":"2026-03-26T08:35:00.000Z","flightCategory":"VFR","latitude":34.3996,"longitude":-86.2682},"K9K7":{"rawOb":"METAR K9K7 260835Z AUTO 19021G29KT 10SM CLR 24/13 A2976 RMK AO2 PK WND 21029/30","observationTime":"2026-03-26T08:35:00.000Z","flightCategory":"VFR","latitude":38.7502,"longitude":-98.2316},"KAAS":{"rawOb":"METAR KAAS 260835Z AUTO 21007KT 10SM CLR 16/10 A3007 RMK AO1","observationTime":"2026-03-26T08:35:00.000Z","flightCategory":"VFR","latitude":37.3569,"longitude":-85.3152},"KADH":{"rawOb":"METAR KADH 260835Z AUTO 17007KT 10SM CLR 20/19 A2992 RMK AO2","observationTime":"2026-03-26T08:35:00.000Z","flightCategory":"VFR","latitude":34.8021,"longitude":-96.6701},"KADM":{"rawOb":"METAR KADM 260835Z AUTO 17006KT 10SM CLR 20/16 A2992 RMK AO2","observationTime":"2026-03-26T08:35:00.000Z","flightCategory":"VFR","latitude":34.3007,"longitude":-97.0089},"KJRO":{"rawOb":"METAR KJRO 260835Z AUTO 19007KT 10SM BKN095 16/10 A2996 RMK AO2","observationTime":"2026-03-26T08:35:00.000Z","flightCategory":"VFR","latitude":38.9861,"longitude":-82.5756},"KAGI":{"rawOb":"METAR KAGI 260835Z AUTO 15012KT 10SM CLR 22/14 A3007 RMK AO2","observationTime":"2026-03-26T08:35:00.000Z","flightCategory":"VFR","latitude":27.5461,"longitude":-92.4434},"KJYG":{"rawOb":"METAR KJYG 260835Z AUTO 35009KT 7SM -RA FEW030 BKN050 OVC100 09/07 A2970 RMK AO2","observationTime":"2026-03-26T08:35:00.000Z","flightCategory":"VFR","latitude":43.9855,"longitude":-94.5527},"KK62":{"rawOb":"METAR KK62 260835Z AUTO 21007KT 10SM OVC120 16/10 A2996 RMK AO2","observationTime":"2026-03-26T08:35:00.000Z","flightCategory":"VFR","latitude":38.7018,"longitude":-84.3964},"KJGG":{"rawOb":"METAR KJGG 260835Z AUTO 20007KT 10SM CLR A3013 RMK AO2 $","observationTime":"2026-03-26T08:35:00.000Z","flightCategory":"VFR","latitude":37.24,"longitude":-76.718},"KJOT":{"rawOb":"METAR KJOT 260835Z AUTO 00000KT 10SM CLR 10/07 A2977 RMK AO2 T01010074","observationTime":"2026-03-26T08:35:00.000Z","flightCategory":"VFR","latitude":41.5175,"longitude":-88.179},"KJPX":{"rawOb":"METAR KJPX 260835Z AUTO 21009G21KT 10SM SCT043 SCT095 BKN120 08/05 A3002 RMK AO2 T00760050","observationTime":"2026-03-26T08:35:00.000Z","flightCategory":"VFR","latitude":40.9605,"longitude":-72.2511},"KJQF":{"rawOb":"METAR KJQF 260835Z AUTO 00000KT 10SM BKN090 13/08 A3019 RMK AO2","observationTime":"2026-03-26T08:35:00.000Z","flightCategory":"VFR","latitude":35.3896,"longitude":-80.7074},"KCFD":{"rawOb":"METAR KCFD 260835Z AUTO 19005KT 10SM SCT014 OVC018 20/18 A3007 RMK AO2 T02020177","observationTime":"2026-03-26T08:35:00.000Z","flightCategory":"MVFR","latitude":30.7171,"longitude":-96.3347},"KPEQ":{"rawOb":"METAR KPEQ 260835Z AUTO 10005KT 10SM CLR 19/09 A2991 RMK AO2 T01910092 PWINO","observationTime":"2026-03-26T08:35:00.000Z","flightCategory":"VFR","latitude":31.382,"longitude":-103.5117},"KL08":{"rawOb":"METAR KL08 260835Z AUTO 00000KT 10SM FEW040 20/M06 A2984 RMK AO2","observationTime":"2026-03-26T08:35:00.000Z","flightCategory":"VFR","latitude":33.2604,"longitude":-116.3227},"KPLU":{"rawOb":"METAR KPLU 260835Z AUTO 00000KT 10SM FEW029 SCT036 SCT045 03/02 A3040 RMK AO2","observationTime":"2026-03-26T08:35:00.000Z","flightCategory":"VFR","latitude":47.1005,"longitude":-122.2853},"KJDD":{"rawOb":"METAR KJDD 260835Z AUTO 18006KT 10SM CLR 20/17 A3000 RMK AO2 T02000172 $","observationTime":"2026-03-26T08:35:00.000Z","flightCategory":"VFR","latitude":32.7403,"longitude":-95.4945},"KOZR":{"rawOb":"SPECI KOZR 260835Z AUTO 00000KT 10SM CLR 14/13 A3011 RMK AO2 SLP197","observationTime":"2026-03-26T08:35:00.000Z","flightCategory":"VFR","latitude":31.2767,"longitude":-85.7105},"KOLV":{"rawOb":"METAR KOLV 260835Z AUTO 19008KT 10SM CLR 17/11 A3000 RMK A01","observationTime":"2026-03-26T08:35:00.000Z","flightCategory":"VFR","latitude":34.9808,"longitude":-89.7851},"KONX":{"rawOb":"METAR KONX 260835Z AUTO 18005KT 10SM SCT047 OVC050 14/10 A3018 RMK AO2 T01350100","observationTime":"2026-03-26T08:35:00.000Z","flightCategory":"VFR","latitude":36.399,"longitude":-76.014},"K8T6":{"rawOb":"METAR K8T6 260835Z AUTO 14007G14KT 10SM SCT018 BKN023 OVC027 22/19 A3001 RMK AO2","observationTime":"2026-03-26T08:35:00.000Z","flightCategory":"MVFR","latitude":28.3656,"longitude":-98.1174},"KONZ":{"rawOb":"METAR KONZ 260835Z AUTO 20004KT 10SM CLR 07/04 A2982 RMK AO2","observationTime":"2026-03-26T08:35:00.000Z","flightCategory":"VFR","latitude":42.0991,"longitude":-83.1611},"KOSC":{"rawOb":"METAR KOSC 260835Z AUTO 14001KT 10SM CLR M01/M03 A2977 RMK AO2","observationTime":"2026-03-26T08:35:00.000Z","flightCategory":"VFR","latitude":44.453,"longitude":-83.396},"KOZS":{"rawOb":"METAR KOZS 260835Z AUTO 23015G21KT 10SM CLR 21/13 A2985 RMK AO2","observationTime":"2026-03-26T08:35:00.000Z","flightCategory":"VFR","latitude":37.9745,"longitude":-92.6897},"KCPU":{"rawOb":"METAR KCPU 260835Z AUTO 00000KT 7SM CLR 12/07 A3005 RMK AO2 T01200071","observationTime":"2026-03-26T08:35:00.000Z","flightCategory":"VFR","latitude":38.1445,"longitude":-120.6454},"KCXE":{"rawOb":"METAR KCXE 260835Z AUTO 00000KT 10SM CLR 10/06 A3015 RMK AO1 T00970056","observationTime":"2026-03-26T08:35:00.000Z","flightCategory":"VFR","latitude":36.7923,"longitude":-78.5027},"KDNN":{"rawOb":"METAR KDNN 260835Z AUTO 00000KT 10SM CLR 12/10 A3016 RMK AO2 T01170100","observationTime":"2026-03-26T08:35:00.000Z","flightCategory":"VFR","latitude":34.727,"longitude":-84.8733},"KEDE":{"rawOb":"METAR KEDE 260835Z AUTO 21004KT 10SM SCT055 13/10 A3019 RMK AO2 T01310101","observationTime":"2026-03-26T08:35:00.000Z","flightCategory":"VFR","latitude":36.0286,"longitude":-76.5668},"KEDN":{"rawOb":"METAR KEDN 260835Z AUTO 00000KT 10SM CLR 13/13 A3013 RMK AO1 T01280127","observationTime":"2026-03-26T08:35:00.000Z","flightCategory":"VFR","latitude":31.299,"longitude":-85.9},"KFDW":{"rawOb":"METAR KFDW 260835Z AUTO 20005KT 10SM SCT037 OVC085 14/12 A3018 RMK AO1","observationTime":"2026-03-26T08:35:00.000Z","flightCategory":"VFR","latitude":34.3151,"longitude":-81.1119},"KGDA":{"rawOb":"METAR KGDA 260835Z AUTO 20005KT 10SM CLR 18/11 A2995 RMK AO2 T01800105","observationTime":"2026-03-26T08:35:00.000Z","flightCategory":"VFR","latitude":37.3344,"longitude":-88.1095},"KLNP":{"rawOb":"METAR KLNP 260835Z AUTO 23014G18KT 10SM SCT050 12/07 A3013 RMK AO2","observationTime":"2026-03-26T08:35:00.000Z","flightCategory":"VFR","latitude":36.9884,"longitude":-82.524},"KLXY":{"rawOb":"METAR KLXY 260835Z AUTO 18011KT 10SM SCT015 18/16 A3002 RMK AO2 T01790156 TSNO","observationTime":"2026-03-26T08:35:00.000Z","flightCategory":"VFR","latitude":31.6446,"longitude":-96.5122},"KLYO":{"rawOb":"METAR KLYO 260835Z AUTO 19019G29KT 10SM CLR 24/14 A2977 RMK AO2 T02400137","observationTime":"2026-03-26T08:35:00.000Z","flightCategory":"VFR","latitude":38.343,"longitude":-98.2266},"KM40":{"rawOb":"METAR KM40 260835Z AUTO 17005KT 10SM BKN065 18/16 A3009 RMK AO2","observationTime":"2026-03-26T08:35:00.000Z","flightCategory":"VFR","latitude":33.8755,"longitude":-88.4872},"KMQJ":{"rawOb":"METAR KMQJ 260835Z AUTO 24014G25KT 9SM -RA SCT120 17/16 A2990 RMK AO2 LTG DSNT SW RAB0758 P0000 T01700156","observationTime":"2026-03-26T08:35:00.000Z","flightCategory":"VFR","latitude":39.8402,"longitude":-85.894},"KMWA":{"rawOb":"METAR KMWA 260835Z AUTO 19007KT 10SM CLR 17/12 A2991 RMK AO2 T01740117","observationTime":"2026-03-26T08:35:00.000Z","flightCategory":"VFR","latitude":37.7544,"longitude":-89.0118},"KN24":{"rawOb":"METAR KN24 260835Z AUTO 00000KT 10SM CLR 13/M03 A3020 RMK AO2 T01341035","observationTime":"2026-03-26T08:35:00.000Z","flightCategory":"VFR","latitude":36.8003,"longitude":-105.598},"KN40":{"rawOb":"METAR KN40 260835Z AUTO 22005KT 10SM BKN085 08/04 A3000 RMK AO2 T00790043 $","observationTime":"2026-03-26T08:35:00.000Z","flightCategory":"VFR","latitude":40.5663,"longitude":-74.9786},"KO61":{"rawOb":"METAR KO61 260835Z AUTO 00000KT 10SM CLR 13/11 A3003 RMK AO2 T01310105","observationTime":"2026-03-26T08:35:00.000Z","flightCategory":"VFR","latitude":38.684,"longitude":-120.988},"KOEB":{"rawOb":"METAR KOEB 260835Z AUTO 21009KT 10SM CLR 11/06 A2981 RMK AO2","observationTime":"2026-03-26T08:35:00.000Z","flightCategory":"VFR","latitude":41.9308,"longitude":-85.0544},"KPSO":{"rawOb":"METAR KPSO 260835Z AUTO 32002KT 10SM CLR 04/M02 A3020 RMK AO2","observationTime":"2026-03-26T08:35:00.000Z","flightCategory":"VFR","latitude":37.291,"longitude":-107.0557},"KTWT":{"rawOb":"METAR KTWT 260835Z AUTO 21007KT 10SM A2993 RMK AO2","observationTime":"2026-03-26T08:35:00.000Z","flightCategory":"VFR","latitude":37.5432,"longitude":-87.9568},"KU96":{"rawOb":"METAR KU96 260835Z AUTO 24007KT 10SM CLR 22/M03 A2993 RMK AO2 T02221025","observationTime":"2026-03-26T08:35:00.000Z","flightCategory":"VFR","latitude":37.4395,"longitude":-110.5642},"KUKL":{"rawOb":"METAR KUKL 260835Z AUTO 20012G18KT 10SM CLR 20/15 A2981 RMK AO2 T02000150","observationTime":"2026-03-26T08:35:00.000Z","flightCategory":"VFR","latitude":38.3041,"longitude":-95.7217},"KUTA":{"rawOb":"METAR KUTA 260835Z AUTO 18005KT 10SM CLR 17/14 A3000 RMK AO2 T01650139 $","observationTime":"2026-03-26T08:35:00.000Z","flightCategory":"VFR","latitude":34.6766,"longitude":-90.344},"KRUQ":{"rawOb":"METAR KRUQ 260835Z AUTO 21004KT 10SM OVC085 13/07 A3016 RMK AO2 T01260065","observationTime":"2026-03-26T08:35:00.000Z","flightCategory":"VFR","latitude":35.6442,"longitude":-80.5236},"KFWC":{"rawOb":"METAR KFWC 260835Z AUTO 19009KT 10SM SCT085 19/12 A2988 RMK AO2 T01910115","observationTime":"2026-03-26T08:35:00.000Z","flightCategory":"VFR","latitude":38.3796,"longitude":-88.4135},"KSMD":{"rawOb":"METAR KSMD 260835Z AUTO 00000KT 10SM BKN060 12/06 A2986 RMK A01","observationTime":"2026-03-26T08:35:00.000Z","flightCategory":"VFR","latitude":41.144,"longitude":-85.1492},"KSAZ":{"rawOb":"METAR KSAZ 260835Z AUTO 31013G17KT 10SM DZ SCT027 BKN049 OVC075 09/06 A2983 RMK AO2 P0001","observationTime":"2026-03-26T08:35:00.000Z","flightCategory":"VFR","latitude":46.3785,"longitude":-94.8016},"KCBG":{"rawOb":"METAR KCBG 260835Z AUTO 35008KT 10SM FEW060 BKN120 BKN160 10/03 A2978 RMK AO2 PRESRR T01020031","observationTime":"2026-03-26T08:35:00.000Z","flightCategory":"VFR","latitude":45.557,"longitude":-93.264},"KFKS":{"rawOb":"METAR KFKS 260835Z AUTO 29002KT 10SM CLR 01/M01 A2973 RMK AO2","observationTime":"2026-03-26T08:35:00.000Z","flightCategory":"VFR","latitude":44.6246,"longitude":-86.1985},"KVES":{"rawOb":"METAR KVES 260835Z AUTO 19005KT 10SM BKN100 14/09 A2989 RMK AO2","observationTime":"2026-03-26T08:35:00.000Z","flightCategory":"VFR","latitude":40.2056,"longitude":-84.5346},"KRUG":{"rawOb":"METAR KRUG 260835Z AUTO 35013KT 10SM OVC013 M09/M11 A3006 RMK AO2","observationTime":"2026-03-26T08:35:00.000Z","flightCategory":"MVFR","latitude":48.389,"longitude":-100.025},"KDNV":{"rawOb":"METAR KDNV 260835Z AUTO 19011G18KT 10SM BKN080 OVC110 17/15 A2983 RMK AO2 T01710148","observationTime":"2026-03-26T08:35:00.000Z","flightCategory":"VFR","latitude":40.2032,"longitude":-87.5897},"KXNI":{"rawOb":"METAR KXNI 260835Z AUTO 03004KT 10SM CLR 04/M10 A3019 RMK AO2","observationTime":"2026-03-26T08:35:00.000Z","flightCategory":"VFR","latitude":35.058,"longitude":-108.9413},"KOEL":{"rawOb":"METAR KOEL 260835Z AUTO 21006KT 10SM CLR 12/04 A2973 RMK AO1 T01210038","observationTime":"2026-03-26T08:35:00.000Z","flightCategory":"VFR","latitude":39.1139,"longitude":-100.819},"KOIC":{"rawOb":"METAR KOIC 260835Z AUTO 15005KT 10SM FEW060 OVC080 06/00 A2989 RMK AO2","observationTime":"2026-03-26T08:35:00.000Z","flightCategory":"VFR","latitude":42.5642,"longitude":-75.5269},"KK82":{"rawOb":"METAR KK82 260835Z AUTO 19011KT 10SM CLR 21/11 A2970 RMK AO2 T02110111","observationTime":"2026-03-26T08:35:00.000Z","flightCategory":"VFR","latitude":39.7606,"longitude":-98.7957},"KORB":{"rawOb":"METAR KORB 260835Z AUTO 33003KT 10SM BKN036 OVC045 01/M00 A2975 RMK AO2 T00121001","observationTime":"2026-03-26T08:35:00.000Z","flightCategory":"VFR","latitude":48.0171,"longitude":-92.8538},"KORK":{"rawOb":"METAR KORK 260835Z AUTO 20009KT 10SM 19/15 A2998 RMK AO2","observationTime":"2026-03-26T08:35:00.000Z","flightCategory":"VFR","latitude":34.833,"longitude":-92.2557},"KPNM":{"rawOb":"METAR KPNM 260835Z AUTO 36008KT 9SM -RA SCT075 BKN100 BKN120 11/05 A2977 RMK AO2 RAB0830 P0000 T01100050","observationTime":"2026-03-26T08:35:00.000Z","flightCategory":"VFR","latitude":45.556,"longitude":-93.608},"KOSA":{"rawOb":"METAR KOSA 260835Z AUTO 17006KT 10SM CLR 18/15 A3001 RMK AO2 T01840155","observationTime":"2026-03-26T08:35:00.000Z","flightCategory":"VFR","latitude":33.0936,"longitude":-94.9601},"KOXI":{"rawOb":"METAR KOXI 260835Z AUTO 13006KT 10SM BKN065 BKN075 11/08 A2980 RMK AO2","observationTime":"2026-03-26T08:35:00.000Z","flightCategory":"VFR","latitude":41.3275,"longitude":-86.665},"KPRG":{"rawOb":"METAR KPRG 260835Z AUTO 00000KT 10SM BKN065 OVC090 15/15 A2988 RMK AO2 LTG DSNT ALQDS P0003 T01520145","observationTime":"2026-03-26T08:35:00.000Z","flightCategory":"VFR","latitude":39.6982,"longitude":-87.6669},"KOZA":{"rawOb":"METAR KOZA 260835Z AUTO 17009KT 10SM CLR 20/12 A3000 RMK AO2","observationTime":"2026-03-26T08:35:00.000Z","flightCategory":"VFR","latitude":30.7312,"longitude":-101.2033},"KPVJ":{"rawOb":"METAR KPVJ 260835Z AUTO 00000KT 10SM CLR 20/15 A2994 RMK AO2 T01950145","observationTime":"2026-03-26T08:35:00.000Z","flightCategory":"VFR","latitude":34.7041,"longitude":-97.2211},"KRAW":{"rawOb":"METAR KRAW 260835Z AUTO 21011G16KT 10SM CLR 21/14 A2983 RMK AO2 T02060142","observationTime":"2026-03-26T08:35:00.000Z","flightCategory":"VFR","latitude":38.3484,"longitude":-93.3436},"KRBW":{"rawOb":"METAR KRBW 260835Z AUTO 00000KT 10SM CLR A3020 RMK AO2","observationTime":"2026-03-26T08:35:00.000Z","flightCategory":"VFR","latitude":32.921,"longitude":-80.64},"KRCX":{"rawOb":"METAR KRCX 260835Z AUTO 35003KT 10SM OVC100 04/01 A2974 RMK AO2 T00370005","observationTime":"2026-03-26T08:35:00.000Z","flightCategory":"VFR","latitude":45.4935,"longitude":-90.9985},"KRCZ":{"rawOb":"METAR KRCZ 260835Z AUTO 00000KT 10SM SCT035 13/11 A3018 RMK AO2 T01300112","observationTime":"2026-03-26T08:35:00.000Z","flightCategory":"VFR","latitude":34.8955,"longitude":-79.7576},"KRKR":{"rawOb":"METAR KRKR 260835Z AUTO 21003KT 10SM CLR 18/13 A2995 RMK AO2","observationTime":"2026-03-26T08:35:00.000Z","flightCategory":"VFR","latitude":35.0187,"longitude":-94.6202},"KRVJ":{"rawOb":"METAR KRVJ 260835Z AUTO 00000KT 1/2SM FG OVC002 12/ A3018 RMK AO2 T0122////","observationTime":"2026-03-26T08:35:00.000Z","flightCategory":"LIFR","latitude":32.059,"longitude":-82.153},"KPMU":{"rawOb":"METAR KPMU 260835Z AUTO 00000KT 9SM FEW055 13/12 A3003 RMK AO2","observationTime":"2026-03-26T08:35:00.000Z","flightCategory":"VFR","latitude":34.3655,"longitude":-89.8905},"K9D7":{"rawOb":"METAR K9D7 260835Z AUTO 36018KT 8SM -SN FEW006 OVC011 M10/M10 A3007 RMK AO2","observationTime":"2026-03-26T08:35:00.000Z","flightCategory":"MVFR","latitude":48.4816,"longitude":-99.2346},"KAGO":{"rawOb":"METAR KAGO 260835Z AUTO 19006KT 10SM OVC048 18/16 A3002 RMK A01","observationTime":"2026-03-26T08:35:00.000Z","flightCategory":"VFR","latitude":33.2266,"longitude":-93.2154},"KEOP":{"rawOb":"METAR KEOP 260835Z AUTO 22007KT 10SM BKN090 17/11 A2994 RMK AO2","observationTime":"2026-03-26T08:35:00.000Z","flightCategory":"VFR","latitude":39.1669,"longitude":-82.9282},"KASL":{"rawOb":"METAR KASL 260835Z AUTO 17004KT 10SM CLR 17/17 A3003 RMK AO2 T01660166 $","observationTime":"2026-03-26T08:35:00.000Z","flightCategory":"VFR","latitude":32.5207,"longitude":-94.3066},"KATS":{"rawOb":"METAR KATS 260835Z AUTO 17010KT 10SM CLR 18/07 A2997 RMK AO2","observationTime":"2026-03-26T08:35:00.000Z","flightCategory":"VFR","latitude":32.8524,"longitude":-104.4644},"KAVC":{"rawOb":"METAR KAVC 260835Z AUTO 20005KT 10SM CLR 12/09 A3020 RMK AO2 T01160088","observationTime":"2026-03-26T08:35:00.000Z","flightCategory":"VFR","latitude":36.6854,"longitude":-78.0523},"KFOM":{"rawOb":"METAR KFOM 260835Z AUTO 22010KT 10SM SCT110 19/M00 A2998 RMK AO2","observationTime":"2026-03-26T08:35:00.000Z","flightCategory":"VFR","latitude":38.9618,"longitude":-112.36},"KFQD":{"rawOb":"METAR KFQD 260835Z AUTO 15003KT 10SM OVC080 12/06 A3017 RMK AO2","observationTime":"2026-03-26T08:35:00.000Z","flightCategory":"VFR","latitude":35.43,"longitude":-81.936},"KBWD":{"rawOb":"METAR KBWD 260835Z AUTO 16006KT 10SM CLR 19/15 A2996 RMK AO2 T01860152 $","observationTime":"2026-03-26T08:35:00.000Z","flightCategory":"VFR","latitude":31.7898,"longitude":-98.9522},"KFSK":{"rawOb":"METAR KFSK 260835Z AUTO 21015KT 10SM CLR 21/16 A2984 RMK AO2 T02090156","observationTime":"2026-03-26T08:35:00.000Z","flightCategory":"VFR","latitude":37.796,"longitude":-94.7676},"KBWW":{"rawOb":"METAR KBWW 260835Z AUTO 01012G18KT 10SM FEW008 OVC050 01/01 A2997 RMK AO2","observationTime":"2026-03-26T08:35:00.000Z","flightCategory":"VFR","latitude":46.1656,"longitude":-103.2964},"KBYL":{"rawOb":"METAR KBYL 260835Z AUTO 16006KT 10SM FEW060 BKN140 OVC180 16/10 A3007 RMK AO2 T01580095","observationTime":"2026-03-26T08:35:00.000Z","flightCategory":"VFR","latitude":36.7954,"longitude":-84.2013},"KC07":{"rawOb":"METAR KC07 260835Z AUTO 10SM BKN070 OVC085 07/00 A3027 RMK AO2","observationTime":"2026-03-26T08:35:00.000Z","flightCategory":"VFR","latitude":40.3544,"longitude":-106.6993},"KMVE":{"rawOb":"METAR KMVE 260835Z AUTO 04009KT 10SM -RA SCT055 SCT065 OVC080 10/07 A2978 RMK AO2","observationTime":"2026-03-26T08:35:00.000Z","flightCategory":"VFR","latitude":44.9675,"longitude":-95.7116},"KGCM":{"rawOb":"METAR KGCM 260835Z AUTO 17006KT 10SM CLR 19/17 A2989 RMK AO2","observationTime":"2026-03-26T08:35:00.000Z","flightCategory":"VFR","latitude":36.2918,"longitude":-95.4825},"KGIC":{"rawOb":"METAR KGIC 260835Z AUTO 33010KT 10SM BKN028 BKN034 OVC070 02/02 A3019 RMK AO1","observationTime":"2026-03-26T08:35:00.000Z","flightCategory":"MVFR","latitude":45.9411,"longitude":-116.1326},"KOVL":{"rawOb":"METAR KOVL 260835Z AUTO 01007KT 10SM -RA CLR 11/04 A2979 RMK AO2","observationTime":"2026-03-26T08:35:00.000Z","flightCategory":"VFR","latitude":44.7792,"longitude":-95.0304},"KSGS":{"rawOb":"METAR KSGS 260835Z AUTO 33005KT 10SM BKN120 14/05 A2973 RMK AO2 T01380052","observationTime":"2026-03-26T08:35:00.000Z","flightCategory":"VFR","latitude":44.8601,"longitude":-93.032},"KSHD":{"rawOb":"METAR KSHD 260835Z AUTO 21003KT 10SM CLR 09/00 A3008 RMK AO2 T00850000","observationTime":"2026-03-26T08:35:00.000Z","flightCategory":"VFR","latitude":38.2601,"longitude":-78.9013},"KLRO":{"rawOb":"METAR KLRO 260835Z AUTO 00000KT 5SM BR CLR 12/12 A3018 RMK AO2","observationTime":"2026-03-26T08:35:00.000Z","flightCategory":"MVFR","latitude":32.8982,"longitude":-79.7796},"KTEW":{"rawOb":"METAR KTEW 260835Z AUTO 22003KT 10SM CLR 14/06 A2978 RMK AO2 T01360060","observationTime":"2026-03-26T08:35:00.000Z","flightCategory":"VFR","latitude":42.5636,"longitude":-84.4223},"K7W4":{"rawOb":"METAR K7W4 260835Z AUTO 22005KT 10SM OVC100 12/03 A3008 RMK AO1 T01150029","observationTime":"2026-03-26T08:35:00.000Z","flightCategory":"VFR","latitude":37.9667,"longitude":-77.7453},"KANE":{"rawOb":"METAR KANE 260835Z AUTO 35012KT 10SM CLR 13/04 A2974 RMK AO2","observationTime":"2026-03-26T08:35:00.000Z","flightCategory":"VFR","latitude":45.1426,"longitude":-93.2127},"KCNB":{"rawOb":"METAR KCNB 260835Z AUTO 35004KT 5SM BR SCT080 SCT095 09/07 A2978 RMK AO2 T00900072","observationTime":"2026-03-26T08:35:00.000Z","flightCategory":"MVFR","latitude":44.7297,"longitude":-96.2623},"KGYL":{"rawOb":"METAR KGYL 260835Z AUTO 01011G17KT 10SM SCT110 12/06 A2973 RMK AO2 T01210064","observationTime":"2026-03-26T08:35:00.000Z","flightCategory":"VFR","latitude":44.7588,"longitude":-94.0905},"KHMT":{"rawOb":"METAR KHMT 260835Z AUTO 00000KT 10SM CLR 10/04 A2999 RMK AO2","observationTime":"2026-03-26T08:35:00.000Z","flightCategory":"VFR","latitude":33.7303,"longitude":-117.0272},"KJKJ":{"rawOb":"METAR KJKJ 260835Z AUTO 36009KT 10SM -DZ OVC006 M02/M03 A2991 RMK AO2","observationTime":"2026-03-26T08:35:00.000Z","flightCategory":"IFR","latitude":46.8404,"longitude":-96.6545},"KJMR":{"rawOb":"METAR KJMR 260835Z AUTO 00000KT 10SM -RA OVC070 05/02 A2981 RMK AO2 P0001","observationTime":"2026-03-26T08:35:00.000Z","flightCategory":"VFR","latitude":45.8885,"longitude":-93.269},"KHSG":{"rawOb":"METAR KHSG 260835Z AUTO 36009KT 10SM CLR 10/M01 A2984 RMK AO2 T00991006","observationTime":"2026-03-26T08:35:00.000Z","flightCategory":"VFR","latitude":43.7178,"longitude":-108.3851},"KFPK":{"rawOb":"METAR KFPK 260835Z AUTO 21004KT 10SM CLR 11/04 A2978 RMK AO2","observationTime":"2026-03-26T08:35:00.000Z","flightCategory":"VFR","latitude":42.5764,"longitude":-84.8125},"KFWB":{"rawOb":"METAR KFWB 260835Z AUTO 23006G12KT 9SM 20/13 A2991 RMK AO2 TSNO","observationTime":"2026-03-26T08:35:00.000Z","flightCategory":"VFR","latitude":36.6933,"longitude":-93.4049},"KFYG":{"rawOb":"METAR KFYG 260835Z AUTO 00000KT 10SM CLR 22/15 A2982 RMK AO2","observationTime":"2026-03-26T08:35:00.000Z","flightCategory":"VFR","latitude":38.5877,"longitude":-90.9915},"KGPM":{"rawOb":"METAR KGPM 260835Z AUTO 18008KT 10SM CLR 21/16 A2998 RMK AO2 T02090160","observationTime":"2026-03-26T08:35:00.000Z","flightCategory":"VFR","latitude":32.6928,"longitude":-97.0485},"KGWW":{"rawOb":"METAR KGWW 260835Z AUTO 20003KT 10SM BKN050 OVC060 13/10 A3018 RMK AO2 T01340103","observationTime":"2026-03-26T08:35:00.000Z","flightCategory":"VFR","latitude":35.4637,"longitude":-77.9604},"KGYI":{"rawOb":"METAR KGYI 260835Z AUTO 18011KT 10SM CLR 20/16 A2996 RMK AO2 T02000158 $","observationTime":"2026-03-26T08:35:00.000Z","flightCategory":"VFR","latitude":33.7231,"longitude":-96.6714},"KUOX":{"rawOb":"METAR KUOX 260835Z AUTO 18005KT 10SM CLR 18/11 A3006 RMK AO2 PWINO","observationTime":"2026-03-26T08:35:00.000Z","flightCategory":"VFR","latitude":34.3851,"longitude":-89.5435},"KVQQ":{"rawOb":"METAR KVQQ 260835Z AUTO 35005KT 1/4SM FG OVC002 16/16 A3015 RMK AO2","observationTime":"2026-03-26T08:35:00.000Z","flightCategory":"LIFR","latitude":30.2035,"longitude":-81.8725},"KW43":{"rawOb":"METAR KW43 260835Z AUTO 04010G20KT 10SM SCT019 06/02 A2993 RMK AO2","observationTime":"2026-03-26T08:35:00.000Z","flightCategory":"VFR","latitude":44.6607,"longitude":-104.5677},"KW78":{"rawOb":"METAR KW78 260835Z AUTO 22004KT 10SM CLR 12/05 A3014 RMK AO1 T01150050","observationTime":"2026-03-26T08:35:00.000Z","flightCategory":"VFR","latitude":36.7087,"longitude":-78.846},"KWDG":{"rawOb":"METAR KWDG 260835Z AUTO 19009KT 10SM CLR 18/16 A2985 RMK AO2","observationTime":"2026-03-26T08:35:00.000Z","flightCategory":"VFR","latitude":36.3781,"longitude":-97.7888},"PAKX":{"rawOb":"METAR PAKX 260835Z AUTO 00000KT 10SM M16/M20 A3024 RMK AO2","observationTime":"2026-03-26T08:35:00.000Z","flightCategory":"VFR","latitude":60.198,"longitude":-154.323},"KWWR":{"rawOb":"METAR KWWR 260835Z AUTO 19014G22KT 10SM CLR 22/11 A2985 RMK AO2 T02150112","observationTime":"2026-03-26T08:35:00.000Z","flightCategory":"VFR","latitude":36.4374,"longitude":-99.5234},"KGDJ":{"rawOb":"METAR KGDJ 260835Z AUTO 17008KT 10SM CLR 20/16 A2998 RMK AO2 T02020156","observationTime":"2026-03-26T08:35:00.000Z","flightCategory":"VFR","latitude":32.4469,"longitude":-97.817},"KMNH":{"rawOb":"METAR KMNH 260835Z AUTO 22010KT 10SM CLR 14/M02 A3001 RMK AO2","observationTime":"2026-03-26T08:35:00.000Z","flightCategory":"VFR","latitude":39.2232,"longitude":-104.6423},"KONP":{"rawOb":"METAR KONP 260835Z AUTO 00000KT 10SM SCT039 SCT050 01/01 A3047 RMK AO2","observationTime":"2026-03-26T08:35:00.000Z","flightCategory":"VFR","latitude":44.5825,"longitude":-124.0575},"KU64":{"rawOb":"METAR KU64 260835Z AUTO 25013KT 10SM CLR 13/M03 A3014 RMK AO2 T01351030","observationTime":"2026-03-26T08:35:00.000Z","flightCategory":"VFR","latitude":37.9333,"longitude":-109.3396},"K46D":{"rawOb":"METAR K46D 260835Z AUTO 10SM OVC005 M05/M05 A2998 RMK A01","observationTime":"2026-03-26T08:35:00.000Z","flightCategory":"IFR","latitude":47.4509,"longitude":-99.1479},"KDTL":{"rawOb":"METAR KDTL 260835Z AUTO 32010KT 5SM BR OVC003 M01/M01 A2986 RMK AO2 UPE0801 P0001 T10071007","observationTime":"2026-03-26T08:35:00.000Z","flightCategory":"LIFR","latitude":46.8286,"longitude":-95.8857},"KOWA":{"rawOb":"METAR KOWA 260835Z AUTO 11004KT 9SM BKN110 BKN130 09/07 A2968 RMK AO2 T00920074","observationTime":"2026-03-26T08:35:00.000Z","flightCategory":"VFR","latitude":44.1191,"longitude":-93.2569},"KRMY":{"rawOb":"METAR KRMY 260835Z AUTO 00000KT 10SM CLR 11/04 A2979 RMK AO2 T01100042","observationTime":"2026-03-26T08:35:00.000Z","flightCategory":"VFR","latitude":42.2524,"longitude":-84.9526},"KULM":{"rawOb":"METAR KULM 260835Z AUTO 28005KT 10SM BKN090 OVC110 12/07 A2975 RMK AO2","observationTime":"2026-03-26T08:35:00.000Z","flightCategory":"VFR","latitude":44.3227,"longitude":-94.5024},"KUMP":{"rawOb":"METAR KUMP 260835Z AUTO 24013G17KT 10SM OVC100 18/15 A2990 RMK AO2 LTG DSNT S AND SW RAB0759E0832 P0000 T01800146","observationTime":"2026-03-26T08:35:00.000Z","flightCategory":"VFR","latitude":39.936,"longitude":-86.0478},"K2R2":{"rawOb":"METAR K2R2 260835Z AUTO 21013KT 7SM -RA FEW046 SCT060 OVC090 15/15 A2991 RMK AO2 P0006 T01550155 $","observationTime":"2026-03-26T08:35:00.000Z","flightCategory":"VFR","latitude":39.7511,"longitude":-86.4732},"K6B9":{"rawOb":"METAR K6B9 260835Z AUTO 20007G13KT 10SM FEW050 OVC075 09/01 A2981 RMK AO2","observationTime":"2026-03-26T08:35:00.000Z","flightCategory":"VFR","latitude":42.9141,"longitude":-76.4428},"KADC":{"rawOb":"METAR KADC 260835Z AUTO 31008KT 10SM -RA SCT036 OVC075 06/03 A2984 RMK AO2","observationTime":"2026-03-26T08:35:00.000Z","flightCategory":"VFR","latitude":46.4502,"longitude":-95.2135},"KAUM":{"rawOb":"METAR KAUM 260835Z AUTO 00000KT 9SM FEW120 SCT150 09/08 A2968 RMK AO2 T00890075","observationTime":"2026-03-26T08:35:00.000Z","flightCategory":"VFR","latitude":43.6688,"longitude":-92.9321},"KI63":{"rawOb":"METAR KI63 260835Z AUTO 19007KT 10SM CLR 16/11 A2975 RMK AO2 T01620114","observationTime":"2026-03-26T08:35:00.000Z","flightCategory":"VFR","latitude":39.9883,"longitude":-90.8023},"KLBE":{"rawOb":"METAR KLBE 260835Z AUTO 19011KT 10SM OVC055 14/01 A2994 RMK AO2","observationTime":"2026-03-26T08:35:00.000Z","flightCategory":"VFR","latitude":40.2767,"longitude":-79.4039},"KLJF":{"rawOb":"METAR KLJF 260835Z AUTO 01008KT 10SM RA SCT075 11/06 RMK AO2","observationTime":"2026-03-26T08:35:00.000Z","flightCategory":"VFR","latitude":45.0949,"longitude":-94.5084},"KMGG":{"rawOb":"METAR KMGG 260835Z AUTO 36014G18KT 10SM BKN100 12/05 A2978 RMK AO2 T01220045","observationTime":"2026-03-26T08:35:00.000Z","flightCategory":"VFR","latitude":45.2354,"longitude":-93.9896},"KRGK":{"rawOb":"METAR KRGK 260835Z AUTO 24006KT 10SM SCT120 09/04 A2973 RMK AO2","observationTime":"2026-03-26T08:35:00.000Z","flightCategory":"VFR","latitude":44.5926,"longitude":-92.4844},"KRRL":{"rawOb":"METAR KRRL 260835Z AUTO 00000KT 10SM SCT120 01/M03 A2971 RMK AO2 T00071027 TSNO","observationTime":"2026-03-26T08:35:00.000Z","flightCategory":"VFR","latitude":45.1985,"longitude":-89.71},"KSTE":{"rawOb":"METAR KSTE 260835Z AUTO 00000KT 10SM CLR 05/03 A2970 RMK AO2 T00510029","observationTime":"2026-03-26T08:35:00.000Z","flightCategory":"VFR","latitude":44.5437,"longitude":-89.5347},"K2D5":{"rawOb":"METAR K2D5 260835Z AUTO 02010KT BKN006 BKN038 OVC046 00/00 A2990 RMK AO2","observationTime":"2026-03-26T08:35:00.000Z","flightCategory":"null","latitude":46.1739,"longitude":-98.083},"K7S0":{"rawOb":"METAR K7S0 260835Z AUTO VRB03KT 10SM SCT065 SCT075 01/M03 A3005 RMK A01","observationTime":"2026-03-26T08:35:00.000Z","flightCategory":"VFR","latitude":47.5676,"longitude":-114.0999},"K4B8":{"rawOb":"METAR K4B8 260835Z AUTO 19005KT 10SM OVC100 05/04 A2999 RMK AO2 T00530042 $","observationTime":"2026-03-26T08:35:00.000Z","flightCategory":"VFR","latitude":41.69,"longitude":-72.865},"K4I3":{"rawOb":"METAR K4I3 260835Z AUTO VRB06KT 10SM OVC060 14/08 A2991 RMK AO2","observationTime":"2026-03-26T08:35:00.000Z","flightCategory":"VFR","latitude":40.3268,"longitude":-82.5201},"KAIT":{"rawOb":"METAR KAIT 260835Z AUTO 27003KT 10SM DZ SCT042 SCT048 OVC065 07/03 A2979 RMK AO2","observationTime":"2026-03-26T08:35:00.000Z","flightCategory":"VFR","latitude":46.5483,"longitude":-93.6754},"KASW":{"rawOb":"METAR KASW 260835Z AUTO 00000KT 10SM CLR 12/06 A2984 RMK AO2 T01200061","observationTime":"2026-03-26T08:35:00.000Z","flightCategory":"VFR","latitude":41.274,"longitude":-85.842},"KSFM":{"rawOb":"SPECI KSFM 260835Z AUTO VRB03KT 10SM SCT015 OVC060 03/02 A3001 RMK AO2","observationTime":"2026-03-26T08:35:00.000Z","flightCategory":"VFR","latitude":43.3876,"longitude":-70.7154},"K00U":{"rawOb":"METAR K00U 260835Z AUTO 01016KT 10SM OVC050 04/M02 A3000 RMK A01","observationTime":"2026-03-26T08:35:00.000Z","flightCategory":"VFR","latitude":45.7453,"longitude":-107.6606},"K04W":{"rawOb":"METAR K04W 260835Z AUTO 00000KT 10SM RA OVC070 03/01 A2978 RMK AO2 P0001","observationTime":"2026-03-26T08:35:00.000Z","flightCategory":"VFR","latitude":46.0244,"longitude":-92.8991},"K05U":{"rawOb":"METAR K05U 260835Z AUTO 00000KT 10SM CLR 03/M12 A3011 RMK A01","observationTime":"2026-03-26T08:35:00.000Z","flightCategory":"VFR","latitude":39.6015,"longitude":-116.0056},"K0A0":{"rawOb":"METAR K0A0 260835Z AUTO 35003KT 10SM CLR 11/M14 A3002 RMK AO2","observationTime":"2026-03-26T08:35:00.000Z","flightCategory":"VFR","latitude":32.99,"longitude":-106.9674},"K0A9":{"rawOb":"METAR K0A9 260835Z AUTO 00000KT 10SM SCT043 OVC060 11/05 A3013 RMK AO2","observationTime":"2026-03-26T08:35:00.000Z","flightCategory":"VFR","latitude":36.3711,"longitude":-82.1768},"KSEP":{"rawOb":"METAR KSEP 260835Z AUTO 18006KT 10SM CLR 18/14 A3000 RMK AO2 T01800140","observationTime":"2026-03-26T08:35:00.000Z","flightCategory":"VFR","latitude":32.215,"longitude":-98.1793},"KSEZ":{"rawOb":"METAR KSEZ 260835Z AUTO 00000KT 10SM CLR 18/M03 A3009 RMK AO2","observationTime":"2026-03-26T08:35:00.000Z","flightCategory":"VFR","latitude":34.8467,"longitude":-111.7884},"KSLH":{"rawOb":"METAR KSLH 260835Z AUTO VRB02KT 6SM BR CLR M01/M02 A2975 RMK AO2","observationTime":"2026-03-26T08:35:00.000Z","flightCategory":"VFR","latitude":45.6523,"longitude":-84.5202},"KSPR":{"rawOb":"METAR KSPR 260835Z AUTO 14012KT 10SM OVC046 22/21 A3009 RMK A01","observationTime":"2026-03-26T08:35:00.000Z","flightCategory":"VFR","latitude":28.599,"longitude":-91.206},"KSQL":{"rawOb":"METAR KSQL 260835Z AUTO 33005KT 9SM CLR 13/07 A3009 RMK A01","observationTime":"2026-03-26T08:35:00.000Z","flightCategory":"VFR","latitude":37.5119,"longitude":-122.2483},"KSRE":{"rawOb":"METAR KSRE 260835Z AUTO VRB05G14KT 10SM CLR 20/14 A2990 RMK AO2","observationTime":"2026-03-26T08:35:00.000Z","flightCategory":"VFR","latitude":35.271,"longitude":-96.675},"KSUA":{"rawOb":"METAR KSUA 260835Z AUTO 00000KT 10SM SCT029 BKN036 OVC050 20/18 A3008 RMK AO2","observationTime":"2026-03-26T08:35:00.000Z","flightCategory":"VFR","latitude":27.1815,"longitude":-80.2252},"KSUW":{"rawOb":"METAR KSUW 260835Z AUTO 03006KT 10SM OVC005 01/00 A2977 RMK AO2 T00051002","observationTime":"2026-03-26T08:35:00.000Z","flightCategory":"IFR","latitude":46.6833,"longitude":-92.0926},"KSYI":{"rawOb":"METAR KSYI 260835Z AUTO 18006KT 10SM CLR 16/12 A3006 RMK A01","observationTime":"2026-03-26T08:35:00.000Z","flightCategory":"VFR","latitude":35.5594,"longitude":-86.4406},"KSYM":{"rawOb":"METAR KSYM 260835Z AUTO 17004KT 10SM BKN110 16/07 A3002 RMK AO2","observationTime":"2026-03-26T08:35:00.000Z","flightCategory":"VFR","latitude":38.2199,"longitude":-83.5835},"KSZT":{"rawOb":"METAR KSZT 260835Z AUTO 25005KT 10SM SCT070 SCT080 BKN110 03/M04 A3011 RMK AO2","observationTime":"2026-03-26T08:35:00.000Z","flightCategory":"VFR","latitude":48.2945,"longitude":-116.5675},"KSZY":{"rawOb":"METAR KSZY 260835Z AUTO 19006G13KT 10SM 19/13 A3003 RMK A01","observationTime":"2026-03-26T08:35:00.000Z","flightCategory":"VFR","latitude":35.2064,"longitude":-88.5012},"KT78":{"rawOb":"METAR KT78 260835Z AUTO 00000KT 1/4SM FG SCT002 BKN017 17/17 A3005 RMK AO2","observationTime":"2026-03-26T08:35:00.000Z","flightCategory":"LIFR","latitude":30.0754,"longitude":-94.6996},"KT89":{"rawOb":"METAR KT89 260835Z AUTO 08009KT 10SM CLR 23/05 A2994 RMK A01","observationTime":"2026-03-26T08:35:00.000Z","flightCategory":"VFR","latitude":29.2774,"longitude":-103.6912},"KTBX":{"rawOb":"METAR KTBX 260835Z AUTO 24024KT 10SM CLR 12/M11 A3001 RMK AO2","observationTime":"2026-03-26T08:35:00.000Z","flightCategory":"VFR","latitude":43.4644,"longitude":-108.2382},"KTCY":{"rawOb":"METAR KTCY 260835Z AUTO 32006KT 10SM CLR 18/M00 A3001 RMK A01","observationTime":"2026-03-26T08:35:00.000Z","flightCategory":"VFR","latitude":37.6919,"longitude":-121.4442},"KTQV":{"rawOb":"METAR KTQV 260835Z AUTO 21007KT 10SM OVC045 13/10 A3016 RMK A01","observationTime":"2026-03-26T08:35:00.000Z","flightCategory":"VFR","latitude":36.007,"longitude":-78.937},"KTTA":{"rawOb":"METAR KTTA 260835Z AUTO 00000KT 10SM SCT038 OVC046 14/10 A3019 RMK AO2 T01350103","observationTime":"2026-03-26T08:35:00.000Z","flightCategory":"VFR","latitude":35.5762,"longitude":-79.1035},"KBGF":{"rawOb":"METAR KBGF 260835Z AUTO 18007KT 10SM BKN032 BKN042 OVC049 16/12 A3010 RMK A01","observationTime":"2026-03-26T08:35:00.000Z","flightCategory":"VFR","latitude":35.1741,"longitude":-86.0678},"KBJI":{"rawOb":"METAR KBJI 260835Z AUTO 29013KT 10SM BKN010 OVC100 01/M01 A2984 RMK AO2 T00091006","observationTime":"2026-03-26T08:35:00.000Z","flightCategory":"MVFR","latitude":47.5076,"longitude":-94.9279},"KBKD":{"rawOb":"METAR KBKD 260835Z AUTO 00000KT 10SM CLR 21/14 A2993 RMK AO2 T02100136","observationTime":"2026-03-26T08:35:00.000Z","flightCategory":"VFR","latitude":32.7206,"longitude":-98.8931},"KBOW":{"rawOb":"METAR KBOW 260835Z AUTO 07004KT 10SM SCT046 BKN050 19/19 A3010 RMK AO2 PWINO","observationTime":"2026-03-26T08:35:00.000Z","flightCategory":"VFR","latitude":27.9472,"longitude":-81.7811},"KMQI":{"rawOb":"METAR KMQI 260835Z AUTO 25004KT 10SM OVC055 13/11 A3020 RMK AO2 T01250105","observationTime":"2026-03-26T08:35:00.000Z","flightCategory":"VFR","latitude":35.9188,"longitude":-75.6989},"KMTN":{"rawOb":"METAR KMTN 260835Z AUTO 00000KT 10SM OVC110 10/06 A3005 RMK AO2 T00950063","observationTime":"2026-03-26T08:35:00.000Z","flightCategory":"VFR","latitude":39.3214,"longitude":-76.4065},"KMWO":{"rawOb":"METAR KMWO 260835Z AUTO 21004KT 10SM CLR 14/09 A2993 RMK AO2","observationTime":"2026-03-26T08:35:00.000Z","flightCategory":"VFR","latitude":39.5324,"longitude":-84.3974},"KNRN":{"rawOb":"METAR KNRN 260835Z AUTO 23005KT 10SM CLR 16/08 A2969 RMK AO2","observationTime":"2026-03-26T08:35:00.000Z","flightCategory":"VFR","latitude":39.8497,"longitude":-99.8915},"KOGA":{"rawOb":"METAR KOGA 260835Z AUTO 33004KT 10SM CLR 18/00 A2974 RMK AO2 T01820000","observationTime":"2026-03-26T08:35:00.000Z","flightCategory":"VFR","latitude":41.1164,"longitude":-101.7679},"KOPL":{"rawOb":"METAR KOPL 260835Z AUTO 00000KT 7SM BKN017 17/16 A3009 RMK AO2 T01650158","observationTime":"2026-03-26T08:35:00.000Z","flightCategory":"MVFR","latitude":30.5643,"longitude":-92.1021},"KFSE":{"rawOb":"METAR KFSE 260835Z AUTO 32011KT 7SM OVC004 M03/M03 A2988 RMK AO2","observationTime":"2026-03-26T08:35:00.000Z","flightCategory":"LIFR","latitude":47.589,"longitude":-95.773},"KFSO":{"rawOb":"METAR KFSO 260835Z AUTO 17004KT 7SM UP BKN033 OVC040 01/M01 A2984 RMK AO2 T00071009","observationTime":"2026-03-26T08:35:00.000Z","flightCategory":"VFR","latitude":44.9411,"longitude":-73.0997},"KFYE":{"rawOb":"METAR KFYE 260835Z AUTO 17004KT 10SM CLR 19/12 A3000 RMK A01","observationTime":"2026-03-26T08:35:00.000Z","flightCategory":"VFR","latitude":35.2061,"longitude":-89.3929},"KGCY":{"rawOb":"METAR KGCY 260835Z AUTO 00000KT 10SM FEW060 BKN075 14/05 A3013 RMK A01","observationTime":"2026-03-26T08:35:00.000Z","flightCategory":"VFR","latitude":36.1924,"longitude":-82.8135},"KGDW":{"rawOb":"METAR KGDW 260835Z AUTO 00000KT 10SM CLR 01/M01 A2977 RMK AO2","observationTime":"2026-03-26T08:35:00.000Z","flightCategory":"VFR","latitude":43.97,"longitude":-84.475},"KDRP":{"rawOb":"METAR KDRP 260835Z AUTO 21008KT 10SM SCT038 20/14 A2998 RMK AO2","observationTime":"2026-03-26T08:35:00.000Z","flightCategory":"VFR","latitude":35.1213,"longitude":-90.8246},"KDUH":{"rawOb":"METAR KDUH 260835Z AUTO 22005KT 10SM CLR 13/05 A2983 RMK AO2","observationTime":"2026-03-26T08:35:00.000Z","flightCategory":"VFR","latitude":41.7375,"longitude":-83.6493},"KE01":{"rawOb":"METAR KE01 260835Z AUTO 13008KT 10SM FEW060 20/10 A2992 RMK AO2 TSNO","observationTime":"2026-03-26T08:35:00.000Z","flightCategory":"VFR","latitude":31.5804,"longitude":-102.9081},"KE57":{"rawOb":"METAR KE57 260835Z AUTO 21006KT 10SM CLR 15/07 A2998 RMK AO2","observationTime":"2026-03-26T08:35:00.000Z","flightCategory":"VFR","latitude":32.976,"longitude":-102.843},"KEBA":{"rawOb":"METAR KEBA 260835Z AUTO 00000KT 10SM SCT016 OVC070 12/10 A3019 RMK AO2 T01170100","observationTime":"2026-03-26T08:35:00.000Z","flightCategory":"VFR","latitude":34.0957,"longitude":-82.8121},"KEFK":{"rawOb":"METAR KEFK 260835Z AUTO 19006KT 10SM OVC016 02/M01 A2987 RMK AO2 T00231009","observationTime":"2026-03-26T08:35:00.000Z","flightCategory":"MVFR","latitude":44.8886,"longitude":-72.2296},"KEKE":{"rawOb":"METAR KEKE 260835Z AUTO 13007KT 9SM CLR 22/20 A3002 RMK A01","observationTime":"2026-03-26T08:35:00.000Z","flightCategory":"VFR","latitude":28.4971,"longitude":-91.5702},"KEQA":{"rawOb":"METAR KEQA 260835Z AUTO 20014KT 10SM CLR 21/15 A2982 RMK AO2","observationTime":"2026-03-26T08:35:00.000Z","flightCategory":"VFR","latitude":37.7753,"longitude":-96.8145},"KERY":{"rawOb":"METAR KERY 260835Z AUTO 28003KT 1SM BR OVC002 M01/M01 A2975 RMK AO2","observationTime":"2026-03-26T08:35:00.000Z","flightCategory":"LIFR","latitude":46.3151,"longitude":-85.4568},"KFKN":{"rawOb":"METAR KFKN 260835Z AUTO 19004KT 10SM BKN038 OVC050 14/08 A3017 RMK AO2 T01350077","observationTime":"2026-03-26T08:35:00.000Z","flightCategory":"VFR","latitude":36.6984,"longitude":-76.9032},"KP08":{"rawOb":"METAR KP08 260835Z AUTO 00000KT 10SM CLR 21/M04 A2990 RMK AO2","observationTime":"2026-03-26T08:35:00.000Z","flightCategory":"VFR","latitude":32.9359,"longitude":-111.4269},"KP52":{"rawOb":"METAR KP52 260835Z AUTO 00000KT 10SM CLR 14/M05 A3001 RMK AO2","observationTime":"2026-03-26T08:35:00.000Z","flightCategory":"VFR","latitude":34.7263,"longitude":-112.0343},"KPAN":{"rawOb":"METAR KPAN 260835Z AUTO VRB03KT 10SM CLR 13/M04 A3013 RMK AO2","observationTime":"2026-03-26T08:35:00.000Z","flightCategory":"VFR","latitude":34.2551,"longitude":-111.3379},"KPCZ":{"rawOb":"METAR KPCZ 260835Z AUTO 36005KT 10SM CLR 07/04 A2974 RMK AO2 T00700038","observationTime":"2026-03-26T08:35:00.000Z","flightCategory":"VFR","latitude":44.3342,"longitude":-89.0203},"KPDC":{"rawOb":"METAR KPDC 260835Z AUTO 00000KT 10SM CLR 08/06 A2968 RMK AO2 T00770059","observationTime":"2026-03-26T08:35:00.000Z","flightCategory":"VFR","latitude":43.0194,"longitude":-91.1212},"KPEX":{"rawOb":"METAR KPEX 260835Z AUTO 35007KT 10SM BKN095 BKN120 10/05 A2980 RMK AO2","observationTime":"2026-03-26T08:35:00.000Z","flightCategory":"VFR","latitude":45.3725,"longitude":-94.7388},"KPHT":{"rawOb":"METAR KPHT 260835Z AUTO 20006KT 4SM HZ CLR 17/12 A2999 RMK A01","observationTime":"2026-03-26T08:35:00.000Z","flightCategory":"MVFR","latitude":36.3322,"longitude":-88.3871},"GMFK":{"rawOb":"SPECI GMFK 260834Z 15010KT 120V180 1300 R31/1600U SHRA BKN020 FEW033CB SCT086 12/11 Q1015 NOSIG","observationTime":"2026-03-26T08:34:00.000Z","flightCategory":"LIFR","latitude":31.946,"longitude":-4.399},"LFLL":{"rawOb":"METAR LFLL 260834Z 34017KT 9999 FEW026 BKN063 05/M00 Q1017 NOSIG","observationTime":"2026-03-26T08:34:00.000Z","flightCategory":"VFR","latitude":45.726,"longitude":5.078},"KSCR":{"rawOb":"METAR KSCR 260834Z AUTO 00000KT 10SM SCT023 SCT031 OVC040 13/09 A3018 RMK AO2","observationTime":"2026-03-26T08:34:00.000Z","flightCategory":"VFR","latitude":35.7058,"longitude":-79.5051},"CYMH":{"rawOb":"SPECI CYMH 260834Z AUTO 35005KT 1/2SM SN VV008 M07/M09 A2992 RMK SLP136","observationTime":"2026-03-26T08:34:00.000Z","flightCategory":"LIFR","latitude":52.304,"longitude":-55.833},"KRZT":{"rawOb":"METAR KRZT 260834Z AUTO 22009KT 10SM CLR 17/08 A2994 RMK AO2","observationTime":"2026-03-26T08:34:00.000Z","flightCategory":"VFR","latitude":39.4402,"longitude":-83.0209},"KETH":{"rawOb":"METAR KETH 260833Z AUTO 34015G19KT 7SM BKN005 BKN100 03/02 A2989 RMK AO2","observationTime":"2026-03-26T08:33:00.000Z","flightCategory":"IFR","latitude":45.7828,"longitude":-96.5461},"CYKL":{"rawOb":"SPECI CYKL 260833Z AUTO 11008KT 6SM HZ FEW240 M34/M37 A2991 RMK SLP204","observationTime":"2026-03-26T08:33:00.000Z","flightCategory":"VFR","latitude":54.803,"longitude":-66.804},"PALU":{"rawOb":"SPECI PALU 260833Z AUTO 16041G58KT 030V220 1 1/2SM -SN BR SCT003 BKN055 M06/M08 A3024 RMK AO2 SLP240","observationTime":"2026-03-26T08:33:00.000Z","flightCategory":"IFR","latitude":68.873,"longitude":-166.101},"KCDD":{"rawOb":"METAR KCDD 260833Z AUTO 00000KT 7SM BKN007 OVC010 01/00 A2980 RMK AO2 TSNO","observationTime":"2026-03-26T08:33:00.000Z","flightCategory":"IFR","latitude":48.2601,"longitude":-92.4748},"KFBG":{"rawOb":"SPECI KFBG 260833Z AUTO 00000KT 10SM -RA SCT055 15/11 A3016 RMK AO2 RAB33 SLP215 $","observationTime":"2026-03-26T08:33:00.000Z","flightCategory":"VFR","latitude":35.131,"longitude":-78.932},"YPAD":{"rawOb":"SPECI YPAD 260833Z AUTO 18018G28KT 9999 // NCD 15/03 Q1023","observationTime":"2026-03-26T08:33:00.000Z","flightCategory":"VFR","latitude":-34.952,"longitude":138.52},"KJAN":{"rawOb":"SPECI KJAN 260832Z AUTO 19008KT 8SM OVC009 18/17 A3011 RMK AO2 T01830167","observationTime":"2026-03-26T08:32:00.000Z","flightCategory":"IFR","latitude":32.3198,"longitude":-90.0778},"CYSC":{"rawOb":"SPECI CYSC 260832Z AUTO 11002KT 9SM OVC028 00/M01 A2985 RMK SLP121","observationTime":"2026-03-26T08:32:00.000Z","flightCategory":"MVFR","latitude":45.44,"longitude":-71.692},"KPIB":{"rawOb":"SPECI KPIB 260831Z AUTO 17004KT 8SM OVC011 18/18 A3014 RMK AO2 $","observationTime":"2026-03-26T08:31:00.000Z","flightCategory":"MVFR","latitude":31.4727,"longitude":-89.3384},"ETHB":{"rawOb":"SPECI ETHB 260831Z 29014KT 9999 BKN015 04/01 Q1011 WHT BLU+ TEMPO GRN","observationTime":"2026-03-26T08:31:00.000Z","flightCategory":"MVFR","latitude":52.279,"longitude":9.082},"RJNY":{"rawOb":"SPECI RJNY 260831Z 06008KT 9999 FEW030 BKN050 BKN080 16/09 Q1009 RMK 1CU030 5SC050 7AC080 A2980","observationTime":"2026-03-26T08:31:00.000Z","flightCategory":"VFR","latitude":34.814,"longitude":138.294},"OEBH":{"rawOb":"SPECI OEBH 260831Z 03018KT 5000 BLDU FEW025CB SCT030 24/09 Q1006 NOSIG","observationTime":"2026-03-26T08:31:00.000Z","flightCategory":"MVFR","latitude":19.984,"longitude":42.621},"VAAH":{"rawOb":"METAR VAAH 260831Z 25005KT 5000 FU NSC 35/09 Q1011 NOSIG","observationTime":"2026-03-26T08:31:00.000Z","flightCategory":"MVFR","latitude":23.077,"longitude":72.635},"KDLH":{"rawOb":"SPECI KDLH 260831Z 14007KT 9SM BKN004 BKN080 OVC100 01/M01 A2973 RMK AO2 T00061006 $","observationTime":"2026-03-26T08:31:00.000Z","flightCategory":"LIFR","latitude":46.8435,"longitude":-92.1866},"YAMB":{"rawOb":"METAR YAMB 260830Z AUTO 05007KT 9999 // NCD 29/21 Q1007","observationTime":"2026-03-26T08:30:00.000Z","flightCategory":"VFR","latitude":-27.63,"longitude":152.711},"OPPS":{"rawOb":"METAR OPPS 260830Z 36008KT 7000 SCT040 BKN080 23/13 Q1018","observationTime":"2026-03-26T08:30:00.000Z","flightCategory":"MVFR","latitude":33.996,"longitude":71.515},"GMFO":{"rawOb":"METAR GMFO 260830Z 34003KT 8000 SCT030 BKN130 13/13 Q1013 NOSIG","observationTime":"2026-03-26T08:30:00.000Z","flightCategory":"MVFR","latitude":34.787,"longitude":-1.924},"UUOL":{"rawOb":"METAR UUOL 260830Z 06003MPS CAVOK 08/M02 Q1014 R33/////// NOSIG","observationTime":"2026-03-26T08:30:00.000Z","flightCategory":"VFR","latitude":52.702,"longitude":39.534},"UUBW":{"rawOb":"METAR UUBW 260830Z 12004MPS 9000 NSC 05/M02 Q1015 R30/010060 NOSIG RMK QFE751","observationTime":"2026-03-26T08:30:00.000Z","flightCategory":"VFR","latitude":55.553,"longitude":38.15},"GCTS":{"rawOb":"METAR GCTS 260830Z 33004KT 9999 FEW025 19/13 Q1014 NOSIG","observationTime":"2026-03-26T08:30:00.000Z","flightCategory":"VFR","latitude":28.047,"longitude":-16.561},"SCTE":{"rawOb":"SPECI SCTE 260830Z VRB02KT 9999 FEW003 BKN049 OVC058 08/08 Q1019 NOSIG","observationTime":"2026-03-26T08:30:00.000Z","flightCategory":"VFR","latitude":-41.439,"longitude":-73.094},"GCRR":{"rawOb":"METAR GCRR 260830Z 35010KT 280V020 9999 FEW025 19/12 Q1013","observationTime":"2026-03-26T08:30:00.000Z","flightCategory":"VFR","latitude":28.952,"longitude":-13.6},"UBBG":{"rawOb":"METAR UBBG 260830Z 30004KT 260V330 9999 BKN010 OVC026 13/11 Q1004 NOSIG","observationTime":"2026-03-26T08:30:00.000Z","flightCategory":"MVFR","latitude":40.738,"longitude":46.318},"URSS":{"rawOb":"METAR URSS 260830Z 17001MPS 9999 -SHRA BKN004 OVC020CB 10/10 Q1006 R02/290060 R06/290060 NOSIG RMK R06/18002MPS QBB120 MT OBSC OBST OBSC QFE753","observationTime":"2026-03-26T08:30:00.000Z","flightCategory":"LIFR","latitude":43.438,"longitude":39.926},"GCLP":{"rawOb":"METAR GCLP 260830Z 36020KT 9999 FEW025 19/14 Q1014 NOSIG","observationTime":"2026-03-26T08:30:00.000Z","flightCategory":"VFR","latitude":27.923,"longitude":-15.389},"DAOO":{"rawOb":"METAR DAOO 260830Z 02005KT 340V050 6000 FEW010 SCT026 14/10 Q1014","observationTime":"2026-03-26T08:30:00.000Z","flightCategory":"MVFR","latitude":35.623,"longitude":-0.624},"WAHI":{"rawOb":"METAR WAHI 260830Z 27004KT 180V320 9999 FEW018 30/24 Q1005 NOSIG","observationTime":"2026-03-26T08:30:00.000Z","flightCategory":"VFR","latitude":-7.9041,"longitude":110.0575},"UBBN":{"rawOb":"METAR UBBN 260830Z 27004KT 9999 FEW046 SCT100 17/06 Q1002 NOSIG RMK QFE677","observationTime":"2026-03-26T08:30:00.000Z","flightCategory":"VFR","latitude":39.189,"longitude":45.458},"GCLA":{"rawOb":"METAR GCLA 260830Z 36011KT 330V030 9999 FEW040 18/13 Q1016","observationTime":"2026-03-26T08:30:00.000Z","flightCategory":"VFR","latitude":28.633,"longitude":-17.755},"VVCT":{"rawOb":"METAR VVCT 260830Z 08005KT 330V140 9999 SCT015 32/22 Q1007 NOSIG","observationTime":"2026-03-26T08:30:00.000Z","flightCategory":"VFR","latitude":10.085,"longitude":105.712},"VMMC":{"rawOb":"METAR VMMC 260830Z 18009KT 9999 FEW014 SCT040 26/21 Q1010 NOSIG","observationTime":"2026-03-26T08:30:00.000Z","flightCategory":"VFR","latitude":22.141,"longitude":113.596},"GCFV":{"rawOb":"METAR GCFV 260830Z 34013KT 9999 FEW022 19/13 Q1013","observationTime":"2026-03-26T08:30:00.000Z","flightCategory":"VFR","latitude":28.445,"longitude":-13.863},"USHH":{"rawOb":"METAR USHH 260830Z 25007MPS CAVOK 09/M05 Q1014 R24/010063 NOSIG","observationTime":"2026-03-26T08:30:00.000Z","flightCategory":"VFR","latitude":61.029,"longitude":69.086},"WADL":{"rawOb":"METAR WADL 260830Z 31008KT 270V350 8000 SCT016 32/22 Q1006 NOSIG","observationTime":"2026-03-26T08:30:00.000Z","flightCategory":"MVFR","latitude":-8.757,"longitude":116.277},"LRCK":{"rawOb":"METAR LRCK 260830Z 12012KT CAVOK 11/01 Q1007 NOSIG","observationTime":"2026-03-26T08:30:00.000Z","flightCategory":"VFR","latitude":44.362,"longitude":28.488},"LRBS":{"rawOb":"METAR LRBS 260830Z 11009KT 080V140 CAVOK 15/04 Q1004 NOSIG","observationTime":"2026-03-26T08:30:00.000Z","flightCategory":"VFR","latitude":44.511,"longitude":26.078},"UTDD":{"rawOb":"METAR UTDD 260830Z 12003MPS 070V150 9999 FEW066CB SCT130 25/06 Q1013 R09/D NOSIG RMK QFE691/0922","observationTime":"2026-03-26T08:30:00.000Z","flightCategory":"VFR","latitude":38.543,"longitude":68.825},"WALL":{"rawOb":"METAR WALL 260830Z 07008KT 050V110 9999 FEW020 30/26 Q1006 NOSIG","observationTime":"2026-03-26T08:30:00.000Z","flightCategory":"VFR","latitude":-1.268,"longitude":116.894},"VOGO":{"rawOb":"METAR VOGO 260830Z 28008KT 6000 NSC 33/23 Q1008 NOSIG","observationTime":"2026-03-26T08:30:00.000Z","flightCategory":"MVFR","latitude":15.378,"longitude":73.828},"VABP":{"rawOb":"METAR VABP 260830Z 12003KT 6000 FEW025 35/06 Q1012 NOSIG","observationTime":"2026-03-26T08:30:00.000Z","flightCategory":"MVFR","latitude":23.288,"longitude":77.337},"USTR":{"rawOb":"METAR USTR 260830Z 23003MPS 220V290 CAVOK 11/02 Q1020 R21/090065 R30/090065 NOSIG","observationTime":"2026-03-26T08:30:00.000Z","flightCategory":"VFR","latitude":57.19,"longitude":65.324},"WAOO":{"rawOb":"METAR WAOO 260830Z 15004KT 100V220 9999 FEW016 32/25 Q1005 NOSIG","observationTime":"2026-03-26T08:30:00.000Z","flightCategory":"VFR","latitude":-3.44,"longitude":114.759},"UNWW":{"rawOb":"METAR UNWW 260830Z 20004MPS CAVOK 05/M08 Q1024 R01/920250 NOSIG RMK QFE740","observationTime":"2026-03-26T08:30:00.000Z","flightCategory":"VFR","latitude":53.811,"longitude":86.878},"RCSS":{"rawOb":"METAR RCSS 260830Z 08007KT 9999 FEW025 BKN045 22/16 Q1012 NOSIG RMK A2989","observationTime":"2026-03-26T08:30:00.000Z","flightCategory":"VFR","latitude":25.069,"longitude":121.552},"WIPP":{"rawOb":"METAR WIPP 260830Z 01009KT 320V030 9999 SCT015 31/24 Q1006 NOSIG","observationTime":"2026-03-26T08:30:00.000Z","flightCategory":"VFR","latitude":-2.898,"longitude":104.7},"VVCR":{"rawOb":"METAR VVCR 260830Z 08008KT CAVOK 28/21 Q1009 NOSIG","observationTime":"2026-03-26T08:30:00.000Z","flightCategory":"VFR","latitude":11.998,"longitude":109.219},"HUSO":{"rawOb":"METAR HUSO 260830Z 27004KT 9999 BKN020 FEW022CB 25/18 Q1018","observationTime":"2026-03-26T08:30:00.000Z","flightCategory":"MVFR","latitude":1.725,"longitude":33.622},"HUEN":{"rawOb":"METAR HUEN 260830Z 32005KT 9999 FEW023 24/20 Q1018","observationTime":"2026-03-26T08:30:00.000Z","flightCategory":"VFR","latitude":0.036,"longitude":32.437},"UUYY":{"rawOb":"METAR UUYY 260830Z 20004MPS CAVOK 11/M02 Q1015 R18/61D NOSIG RMK QFE753/1004","observationTime":"2026-03-26T08:30:00.000Z","flightCategory":"VFR","latitude":61.647,"longitude":50.845},"NTTB":{"rawOb":"METAR NTTB 260830Z AUTO 05006KT 9999 FEW029/// BKN056/// BKN082/// 28/25 Q1011","observationTime":"2026-03-26T08:30:00.000Z","flightCategory":"VFR","latitude":-16.445,"longitude":-151.752},"LFOK":{"rawOb":"METAR LFOK 260830Z AUTO 34011KT 9999 BKN013 BKN023 BKN031 04/02 Q1019 TEMPO VRB20G35KT 2000 SHRAGS SCT018 BKN025CB","observationTime":"2026-03-26T08:30:00.000Z","flightCategory":"MVFR","latitude":48.777,"longitude":4.165},"UNTT":{"rawOb":"METAR UNTT 260830Z 22005MPS 9999 -RA SCT026 03/M01 Q1020 R21/150050 NOSIG RMK QFE749","observationTime":"2026-03-26T08:30:00.000Z","flightCategory":"VFR","latitude":56.381,"longitude":85.207},"VOSH":{"rawOb":"METAR VOSH 260830Z 34006KT 8000 NSC 34/14 Q1012","observationTime":"2026-03-26T08:30:00.000Z","flightCategory":"MVFR","latitude":13.857,"longitude":75.615},"UAAA":{"rawOb":"METAR UAAA 260830Z 09002MPS 9999 NSC 19/M01 Q1013 NOSIG","observationTime":"2026-03-26T08:30:00.000Z","flightCategory":"VFR","latitude":43.35,"longitude":77.027},"VOVZ":{"rawOb":"METAR VOVZ 260830Z 19010KT 4500 HZ FEW018 SCT220 34/22 Q1009 NOSIG","observationTime":"2026-03-26T08:30:00.000Z","flightCategory":"IFR","latitude":17.722,"longitude":83.228},"VVDN":{"rawOb":"METAR VVDN 260830Z 12008KT CAVOK 27/23 Q1009 NOSIG","observationTime":"2026-03-26T08:30:00.000Z","flightCategory":"VFR","latitude":16.044,"longitude":108.199},"VASL":{"rawOb":"METAR VASL 260830Z 01009KT 6000 FEW020 38/17 Q1012 NOSIG","observationTime":"2026-03-26T08:30:00.000Z","flightCategory":"MVFR","latitude":17.627,"longitude":75.935},"VABO":{"rawOb":"METAR VABO 260830Z 26005KT 6000 NSC 37/13 Q1010 NOSIG","observationTime":"2026-03-26T08:30:00.000Z","flightCategory":"MVFR","latitude":22.333,"longitude":73.225},"KLSF":{"rawOb":"SPECI KLSF 260830Z AUTO 00000KT 5SM BR CLR 11/11 A3013 RMK AO2 VIS 1 1/4 RWY33 SLP207","observationTime":"2026-03-26T08:30:00.000Z","flightCategory":"MVFR","latitude":32.3239,"longitude":-84.9826},"VAJL":{"rawOb":"METAR VAJL 260830Z 05003KT 6000 NSC 37/07 Q1010","observationTime":"2026-03-26T08:30:00.000Z","flightCategory":"MVFR","latitude":20.961,"longitude":75.625},"YBCG":{"rawOb":"METAR YBCG 260830Z AUTO 36012KT 9999 // NCD 26/23 Q1008","observationTime":"2026-03-26T08:30:00.000Z","flightCategory":"VFR","latitude":-28.168,"longitude":153.505},"GCXO":{"rawOb":"METAR GCXO 260830Z 32017KT 9999 2200NW R30/P2000 R12/0225N BCFG FEW002 SCT015 14/13 Q1016 NOSIG","observationTime":"2026-03-26T08:30:00.000Z","flightCategory":"VFR","latitude":28.483,"longitude":-16.342},"UTDK":{"rawOb":"METAR UTDK 260830Z 02003MPS 9999 FEW050CB BKN120 25/07 Q1012 R01/09//70 RMK QFE702/0936","observationTime":"2026-03-26T08:30:00.000Z","flightCategory":"VFR","latitude":37.988,"longitude":69.805},"LEGR":{"rawOb":"METAR LEGR 260830Z 00000KT CAVOK 11/07 Q1015","observationTime":"2026-03-26T08:30:00.000Z","flightCategory":"VFR","latitude":37.19,"longitude":-3.789},"VOHS":{"rawOb":"METAR VOHS 260830Z 14005KT 6000 NSC 35/15 Q1014 NOSIG","observationTime":"2026-03-26T08:30:00.000Z","flightCategory":"MVFR","latitude":17.233,"longitude":78.429},"VOKU":{"rawOb":"METAR VOKU 260830Z 08004KT 6000 NSC 37/10 Q1011 NOSIG","observationTime":"2026-03-26T08:30:00.000Z","flightCategory":"MVFR","latitude":15.716,"longitude":78.169},"LFKS":{"rawOb":"METAR LFKS 260830Z AUTO 27010KT 230V310 CAVOK 12/M02 Q0998","observationTime":"2026-03-26T08:30:00.000Z","flightCategory":"VFR","latitude":41.924,"longitude":9.406},"OPIS":{"rawOb":"METAR OPIS 260830Z 31016KT 6000 SCT040 BKN100 23/15 Q1016 TEMPO 31015G30KT","observationTime":"2026-03-26T08:30:00.000Z","flightCategory":"MVFR","latitude":33.551,"longitude":72.827},"OPFA":{"rawOb":"METAR OPFA 260830Z 05004KT 6000 SCT040 SCT100 26/18 Q1015 NOSIG","observationTime":"2026-03-26T08:30:00.000Z","flightCategory":"MVFR","latitude":31.365,"longitude":72.995},"KXBP":{"rawOb":"METAR KXBP 260830Z AUTO 19010KT 10SM CLR 21/15 A2995 RMK AO2 T02120145","observationTime":"2026-03-26T08:30:00.000Z","flightCategory":"VFR","latitude":33.1729,"longitude":-97.8268},"VNKT":{"rawOb":"METAR VNKT 260830Z 21012KT 7000 FEW020 FEW025CB SCT030 22/13 Q1016 NOSIG CB TO NE AND E","observationTime":"2026-03-26T08:30:00.000Z","flightCategory":"MVFR","latitude":27.697,"longitude":85.359},"NTTO":{"rawOb":"METAR NTTO 260830Z AUTO 09018KT 9999 FEW024/// 28/24 Q1015","observationTime":"2026-03-26T08:30:00.000Z","flightCategory":"VFR","latitude":-18.075,"longitude":-140.946},"VVTS":{"rawOb":"METAR VVTS 260830Z 18011KT 9999 FEW023 33/22 Q1006 NOSIG","observationTime":"2026-03-26T08:30:00.000Z","flightCategory":"VFR","latitude":10.817,"longitude":106.667},"KEZP":{"rawOb":"METAR KEZP 260830Z AUTO 7SM FEW031 22/18 A3009 RMK A01","observationTime":"2026-03-26T08:30:00.000Z","flightCategory":"VFR","latitude":28.2198,"longitude":-92.7944},"LEGE":{"rawOb":"METAR LEGE 260830Z 04017KT 350V070 9999 FEW046 10/M02 Q1016 NOSIG","observationTime":"2026-03-26T08:30:00.000Z","flightCategory":"VFR","latitude":41.911,"longitude":2.763},"LECO":{"rawOb":"METAR LECO 260830Z 06007KT 030V100 9999 FEW030 BKN040 10/04 Q1027 NOSIG","observationTime":"2026-03-26T08:30:00.000Z","flightCategory":"VFR","latitude":43.307,"longitude":-8.372},"UATT":{"rawOb":"METAR UATT 260830Z 11008MPS CAVOK 18/01 Q1018 NOSIG RMK QFE744/0992","observationTime":"2026-03-26T08:30:00.000Z","flightCategory":"VFR","latitude":50.248,"longitude":57.203},"GOBD":{"rawOb":"METAR GOBD 260830Z 01014KT 9999 FEW012 19/18 Q1012 NOSIG","observationTime":"2026-03-26T08:30:00.000Z","flightCategory":"VFR","latitude":14.671,"longitude":-17.067},"UAII":{"rawOb":"METAR UAII 260830Z 05003MPS 360V080 CAVOK 27/M04 Q1010 NOSIG RMK QFE722/0963","observationTime":"2026-03-26T08:30:00.000Z","flightCategory":"VFR","latitude":42.366,"longitude":69.476},"GABS":{"rawOb":"METAR GABS 260830Z 25004KT 220V300 8000 NSC 31/18 Q1011 NOSIG","observationTime":"2026-03-26T08:30:00.000Z","flightCategory":"MVFR","latitude":12.534,"longitude":-7.95},"LJMB":{"rawOb":"METAR LJMB 260830Z 35015KT 9999 -RA SCT013 OVC023 05/03 Q0999","observationTime":"2026-03-26T08:30:00.000Z","flightCategory":"MVFR","latitude":46.48,"longitude":15.682},"VAPR":{"rawOb":"METAR VAPR 260830Z 27010KT 5000 FU NSC 34/23 Q1011 NOSIG","observationTime":"2026-03-26T08:30:00.000Z","flightCategory":"MVFR","latitude":21.649,"longitude":69.657},"VOCI":{"rawOb":"METAR VOCI 260830Z 24008KT 5000 HZ SCT015 34/24 Q1007 NOSIG","observationTime":"2026-03-26T08:30:00.000Z","flightCategory":"MVFR","latitude":10.152,"longitude":76.402},"VEJH":{"rawOb":"METAR VEJH 260830Z 04004KT 7000 FEW025 SCT100 36/07 Q1010","observationTime":"2026-03-26T08:30:00.000Z","flightCategory":"MVFR","latitude":21.914,"longitude":84.05},"VAJJ":{"rawOb":"METAR VAJJ 260830Z 30010KT 5000 HZ NSC 32/24 Q1009 NOSIG","observationTime":"2026-03-26T08:30:00.000Z","flightCategory":"MVFR","latitude":19.098,"longitude":72.834},"GQNO":{"rawOb":"METAR GQNO 260830Z 01005KT 330V030 8000 SCT013 17/15 Q1012 NOSIG","observationTime":"2026-03-26T08:30:00.000Z","flightCategory":"MVFR","latitude":18.31,"longitude":-15.97},"VVPQ":{"rawOb":"METAR VVPQ 260830Z 12007KT 9999 FEW017 31/23 Q1007 NOSIG","observationTime":"2026-03-26T08:30:00.000Z","flightCategory":"VFR","latitude":10.169,"longitude":103.995},"LEAS":{"rawOb":"METAR LEAS 260830Z 18003KT 140V230 9999 FEW027 BKN035 BKN050 09/07 Q1027 NOSIG","observationTime":"2026-03-26T08:30:00.000Z","flightCategory":"VFR","latitude":43.567,"longitude":-6.044},"LEAM":{"rawOb":"METAR LEAM 260830Z 09015KT 050V120 CAVOK 17/10 Q1014","observationTime":"2026-03-26T08:30:00.000Z","flightCategory":"VFR","latitude":36.846,"longitude":-2.357},"LETL":{"rawOb":"METAR LETL 260830Z AUTO 36016KT 9999 FEW022 SCT027 04/M03 Q1020","observationTime":"2026-03-26T08:30:00.000Z","flightCategory":"VFR","latitude":40.404,"longitude":-1.218},"LECH":{"rawOb":"METAR LECH 260830Z AUTO 18002KT CAVOK 12/M03 Q1016","observationTime":"2026-03-26T08:30:00.000Z","flightCategory":"VFR","latitude":40.211,"longitude":0.067},"LEBG":{"rawOb":"METAR LEBG 260830Z 03017KT 360V060 9999 SCT013 BKN015 04/00 Q1023","observationTime":"2026-03-26T08:30:00.000Z","flightCategory":"MVFR","latitude":42.356,"longitude":-3.622},"LEAG":{"rawOb":"METAR LEAG 260830Z AUTO 36005KT 300V040 CAVOK 13/09 Q1013","observationTime":"2026-03-26T08:30:00.000Z","flightCategory":"VFR","latitude":36.129,"longitude":-5.441},"TFFR":{"rawOb":"METAR TFFR 260830Z AUTO 10004KT CAVOK 23/20 Q1014 NOSIG","observationTime":"2026-03-26T08:30:00.000Z","flightCategory":"VFR","latitude":16.265,"longitude":-61.532},"KLLR":{"rawOb":"METAR KLLR 260830Z AUTO 34010G15KT 10SM CLR 09/04 A3016 RMK A01","observationTime":"2026-03-26T08:30:00.000Z","flightCategory":"VFR","latitude":39.2621,"longitude":-123.7525},"LHBP":{"rawOb":"METAR LHBP 260830Z 03006KT 340V080 9999 -SHRA NSC 09/02 Q0998 NOSIG","observationTime":"2026-03-26T08:30:00.000Z","flightCategory":"VFR","latitude":47.437,"longitude":19.256},"UBBB":{"rawOb":"METAR UBBB 260830Z 20010KT 8000 BKN007 14/12 Q1003 NOSIG","observationTime":"2026-03-26T08:30:00.000Z","flightCategory":"IFR","latitude":40.469,"longitude":50.061},"LDZD":{"rawOb":"METAR LDZD 260830Z 28011KT 240V330 2500 +TSRA FEW015 FEW020CB BKN025 05/05 Q0992 NOSIG","observationTime":"2026-03-26T08:30:00.000Z","flightCategory":"IFR","latitude":44.108,"longitude":15.347},"LDRI":{"rawOb":"METAR LDRI 260830Z 04033G57KT 360V070 9999 -RA SCT030 OVC045 07/01 Q0990","observationTime":"2026-03-26T08:30:00.000Z","flightCategory":"VFR","latitude":45.218,"longitude":14.573},"NZQN":{"rawOb":"METAR NZQN 260830Z AUTO 03013KT 360V060 9999 FEW041/// OVC049/// 14/10 Q1009","observationTime":"2026-03-26T08:30:00.000Z","flightCategory":"VFR","latitude":-45.021,"longitude":168.739},"LDPL":{"rawOb":"METAR LDPL 260830Z 05023G33KT 3600 RA SCT004 BKN015 05/04 Q0992 BECMG 6000 -RA TEMPO BKN010","observationTime":"2026-03-26T08:30:00.000Z","flightCategory":"IFR","latitude":44.894,"longitude":13.922},"LDOS":{"rawOb":"METAR LDOS 260830Z 04010KT CAVOK 11/05 Q0997","observationTime":"2026-03-26T08:30:00.000Z","flightCategory":"VFR","latitude":45.463,"longitude":18.81},"VVPB":{"rawOb":"METAR VVPB 260830Z 08008KT 9999 FEW017 29/23 Q1007 NOSIG","observationTime":"2026-03-26T08:30:00.000Z","flightCategory":"VFR","latitude":16.399,"longitude":107.699},"YPEA":{"rawOb":"METAR YPEA 260830Z 08013KT CAVOK 32/14 Q1015","observationTime":"2026-03-26T08:30:00.000Z","flightCategory":"VFR","latitude":-31.667,"longitude":116.019},"LZTT":{"rawOb":"METAR LZTT 260830Z VRB03KT 9999 FEW016 SCT050 BKN083 07/03 Q1000 NOSIG","observationTime":"2026-03-26T08:30:00.000Z","flightCategory":"VFR","latitude":49.068,"longitude":20.25},"LZKZ":{"rawOb":"METAR LZKZ 260830Z 02007KT CAVOK 12/01 Q1000 NOSIG","observationTime":"2026-03-26T08:30:00.000Z","flightCategory":"VFR","latitude":48.661,"longitude":21.24},"LZIB":{"rawOb":"METAR LZIB 260830Z 34013KT 9999 -RA FEW011 BKN027 06/02 Q1000 NOSIG","observationTime":"2026-03-26T08:30:00.000Z","flightCategory":"MVFR","latitude":48.17,"longitude":17.207},"FMCZ":{"rawOb":"METAR FMCZ 260830Z AUTO 21003KT 170V250 CAVOK 31/25 Q1013 NOSIG","observationTime":"2026-03-26T08:30:00.000Z","flightCategory":"VFR","latitude":-12.805,"longitude":45.281},"NZDN":{"rawOb":"METAR NZDN 260830Z AUTO 04017KT 9999 -RA BKN028/// 16/13 Q1012","observationTime":"2026-03-26T08:30:00.000Z","flightCategory":"MVFR","latitude":-45.928,"longitude":170.198},"NZOH":{"rawOb":"METAR NZOH 260830Z AUTO 12011KT 9999 OVC090/// 16/15 Q1014","observationTime":"2026-03-26T08:30:00.000Z","flightCategory":"VFR","latitude":-40.196,"longitude":175.381},"LJLJ":{"rawOb":"METAR LJLJ 260830Z 17006KT 9999 -RA FEW006 BKN043 OVC050 05/03 Q0998 WS ALL RWY NOSIG","observationTime":"2026-03-26T08:30:00.000Z","flightCategory":"VFR","latitude":46.218,"longitude":14.477},"DTTA":{"rawOb":"METAR DTTA 260830Z 24011KT 210V280 9999 FEW023 16/11 Q1010","observationTime":"2026-03-26T08:30:00.000Z","flightCategory":"VFR","latitude":36.851,"longitude":10.227},"VVNB":{"rawOb":"METAR VVNB 260830Z 12010KT 9000 BKN024 BKN040 29/23 Q1007 NOSIG","observationTime":"2026-03-26T08:30:00.000Z","flightCategory":"MVFR","latitude":21.218,"longitude":105.805},"VAKS":{"rawOb":"METAR VAKS 260830Z 33003KT 5000 FU NSC 36/12 Q1011","observationTime":"2026-03-26T08:30:00.000Z","flightCategory":"MVFR","latitude":21.317,"longitude":70.27},"LJCE":{"rawOb":"METAR LJCE 260830Z 21004KT 9999 -RA FEW003 OVC017 05/04 Q0999 RMK WHT","observationTime":"2026-03-26T08:30:00.000Z","flightCategory":"MVFR","latitude":45.899,"longitude":15.523},"UMBB":{"rawOb":"METAR UMBB 260830Z 08002MPS 9999 SCT060 SCT100 09/00 Q1001 NOSIG","observationTime":"2026-03-26T08:30:00.000Z","flightCategory":"VFR","latitude":52.109,"longitude":23.897},"UMGG":{"rawOb":"METAR UMGG 260830Z 13005MPS 9999 BKN035 BKN070 09/02 Q1009 NOSIG","observationTime":"2026-03-26T08:30:00.000Z","flightCategory":"VFR","latitude":52.525,"longitude":31.015},"UMMS":{"rawOb":"METAR UMMS 260830Z 15005G09MPS 140V200 CAVOK 11/M02 Q1005 NOSIG","observationTime":"2026-03-26T08:30:00.000Z","flightCategory":"VFR","latitude":53.883,"longitude":28.031},"LRAR":{"rawOb":"METAR LRAR 260830Z 18012KT 150V210 CAVOK 14/02 Q0998","observationTime":"2026-03-26T08:30:00.000Z","flightCategory":"VFR","latitude":46.176,"longitude":21.264},"LRBM":{"rawOb":"METAR LRBM 260830Z 10010KT CAVOK 14/01 Q1001","observationTime":"2026-03-26T08:30:00.000Z","flightCategory":"VFR","latitude":47.658,"longitude":23.47},"LRCL":{"rawOb":"METAR LRCL 260830Z 10008KT CAVOK 12/02 Q1001","observationTime":"2026-03-26T08:30:00.000Z","flightCategory":"VFR","latitude":46.783,"longitude":23.676},"LROD":{"rawOb":"METAR LROD 260830Z 18012KT CAVOK 16/01 Q0999","observationTime":"2026-03-26T08:30:00.000Z","flightCategory":"VFR","latitude":47.036,"longitude":21.896},"LRSM":{"rawOb":"METAR LRSM 260830Z 13010KT CAVOK 14/00 Q1000","observationTime":"2026-03-26T08:30:00.000Z","flightCategory":"VFR","latitude":47.703,"longitude":22.886},"VTBU":{"rawOb":"METAR VTBU 260830Z 19011KT 9000 FEW020 31/28 Q1007 NOSIG","observationTime":"2026-03-26T08:30:00.000Z","flightCategory":"VFR","latitude":12.68,"longitude":101.001},"LRTM":{"rawOb":"METAR LRTM 260830Z 10008KT 060V150 9999 FEW045 13/03 Q1002","observationTime":"2026-03-26T08:30:00.000Z","flightCategory":"VFR","latitude":46.468,"longitude":24.421},"LFOZ":{"rawOb":"METAR LFOZ 260830Z AUTO 33008KT 300V010 9999 FEW017 BKN036 BKN058 05/02 Q1021","observationTime":"2026-03-26T08:30:00.000Z","flightCategory":"VFR","latitude":47.897,"longitude":2.163},"LFPT":{"rawOb":"METAR LFPT 260830Z AUTO 34011KT CAVOK 07/03 Q1021","observationTime":"2026-03-26T08:30:00.000Z","flightCategory":"VFR","latitude":49.097,"longitude":2.041},"LFQG":{"rawOb":"METAR LFQG 260830Z AUTO 30009KT 260V350 9999 BKN015 BKN020 OVC026 05/02 Q1020","observationTime":"2026-03-26T08:30:00.000Z","flightCategory":"MVFR","latitude":46.998,"longitude":3.113},"LFRH":{"rawOb":"METAR LFRH 260830Z AUTO 30006KT 260V340 CAVOK 08/03 Q1026 NOSIG","observationTime":"2026-03-26T08:30:00.000Z","flightCategory":"VFR","latitude":47.761,"longitude":-3.44},"VOMY":{"rawOb":"METAR VOMY 260830Z 06011KT CAVOK 34/17 Q1013","observationTime":"2026-03-26T08:30:00.000Z","flightCategory":"VFR","latitude":12.229,"longitude":76.652},"LFRQ":{"rawOb":"METAR LFRQ 260830Z AUTO 34010KT 300V360 CAVOK 09/03 Q1026 TEMPO 34015G25KT 4000 -SHRA","observationTime":"2026-03-26T08:30:00.000Z","flightCategory":"VFR","latitude":47.975,"longitude":-4.168},"LFRT":{"rawOb":"METAR LFRT 260830Z AUTO 35005KT 310V020 9999 BKN032 BKN038 BKN047 06/03 Q1025","observationTime":"2026-03-26T08:30:00.000Z","flightCategory":"VFR","latitude":48.536,"longitude":-2.853},"LFSM":{"rawOb":"METAR LFSM 260830Z AUTO 28005KT 240V340 9999 BKN020 BKN026 OVC032 03/01 Q1016","observationTime":"2026-03-26T08:30:00.000Z","flightCategory":"MVFR","latitude":47.487,"longitude":6.791},"VIDP":{"rawOb":"METAR VIDP 260830Z 23007KT 4500 HZ NSC 34/10 Q1012 BECMG 5000 HZ","observationTime":"2026-03-26T08:30:00.000Z","flightCategory":"IFR","latitude":28.567,"longitude":77.117},"LFOV":{"rawOb":"METAR LFOV 260830Z AUTO 29007KT 250V330 9999 FEW037 BKN044 BKN060 07/04 Q1023","observationTime":"2026-03-26T08:30:00.000Z","flightCategory":"VFR","latitude":48.031,"longitude":-0.746},"LFRI":{"rawOb":"METAR LFRI 260830Z AUTO 33007KT CAVOK 08/04 Q1025 NOSIG","observationTime":"2026-03-26T08:30:00.000Z","flightCategory":"VFR","latitude":46.702,"longitude":-1.379},"LFRO":{"rawOb":"METAR LFRO 260830Z AUTO 33010KT 300V010 9999 FEW034 SCT041 BKN054 10/02 Q1025","observationTime":"2026-03-26T08:30:00.000Z","flightCategory":"VFR","latitude":48.755,"longitude":-3.469},"LFSG":{"rawOb":"METAR LFSG 260830Z AUTO 33010KT 9999 BKN019 BKN028 BKN041 03/00 Q1016","observationTime":"2026-03-26T08:30:00.000Z","flightCategory":"MVFR","latitude":48.325,"longitude":6.07},"GMFF":{"rawOb":"METAR GMFF 260830Z 01003KT 300V060 CAVOK 16/11 Q1012 NOSIG","observationTime":"2026-03-26T08:30:00.000Z","flightCategory":"VFR","latitude":33.929,"longitude":-4.976},"VIPT":{"rawOb":"METAR VIPT 260830Z 24010KT 5000 HZ FEW030 33/13 Q1010","observationTime":"2026-03-26T08:30:00.000Z","flightCategory":"MVFR","latitude":29.033,"longitude":79.474},"LFAQ":{"rawOb":"METAR LFAQ 260830Z AUTO 33012KT 9999 SCT017 06/03 Q1020 TEMPO 33016G26KT 2000 SHRA SCT025TCU","observationTime":"2026-03-26T08:30:00.000Z","flightCategory":"VFR","latitude":49.972,"longitude":2.704},"LFBU":{"rawOb":"METAR LFBU 260830Z AUTO 32010KT CAVOK 07/02 Q1024 NOSIG","observationTime":"2026-03-26T08:30:00.000Z","flightCategory":"VFR","latitude":45.728,"longitude":0.22},"LFBT":{"rawOb":"METAR LFBT 260830Z AUTO VRB03KT CAVOK 07/03 Q1025 NOSIG","observationTime":"2026-03-26T08:30:00.000Z","flightCategory":"VFR","latitude":43.189,"longitude":null},"VETJ":{"rawOb":"METAR VETJ 260830Z 29003KT 5000 HZ SCT018 BKN100 26/14 Q1011 NOSIG","observationTime":"2026-03-26T08:30:00.000Z","flightCategory":"MVFR","latitude":27.941,"longitude":96.134},"VAID":{"rawOb":"METAR VAID 260830Z COR 28008KT 6000 FEW020 36/13 Q1014 NOSIG","observationTime":"2026-03-26T08:30:00.000Z","flightCategory":"MVFR","latitude":22.722,"longitude":75.801},"VVCI":{"rawOb":"METAR VVCI 260830Z 16008KT 120V210 9999 FEW015 SCT021 BKN030 27/22 Q1007 NOSIG","observationTime":"2026-03-26T08:30:00.000Z","flightCategory":"MVFR","latitude":20.823,"longitude":106.727},"UNNT":{"rawOb":"METAR UNNT 260830Z 19003MPS 8000 -SHRA OVC018CB 02/01 Q1021 R25/290255 R34/////// NOSIG RMK QFE756/1008","observationTime":"2026-03-26T08:30:00.000Z","flightCategory":"MVFR","latitude":55.013,"longitude":82.651},"EIKN":{"rawOb":"METAR EIKN 260830Z 21006KT 9999 FEW014 SCT017 BKN019 05/04 Q1022 NOSIG","observationTime":"2026-03-26T08:30:00.000Z","flightCategory":"MVFR","latitude":53.913,"longitude":-8.811},"WATT":{"rawOb":"METAR WATT 260830Z COR 13005KT 070V140 9999 SCT018 28/24 Q1008 NOSIG","observationTime":"2026-03-26T08:30:00.000Z","flightCategory":"VFR","latitude":-10.172,"longitude":123.671},"WIOO":{"rawOb":"METAR WIOO 260830Z 27010KT 6000 SCT012 31/26 Q1005 NOSIG","observationTime":"2026-03-26T08:30:00.000Z","flightCategory":"MVFR","latitude":-0.151,"longitude":109.404},"LFMO":{"rawOb":"METAR LFMO 260830Z AUTO 34030G48KT 9999 -RA FEW021/// SCT028/// BKN042/// ///TCU 05/01 Q1016 BECMG NSC","observationTime":"2026-03-26T08:30:00.000Z","flightCategory":"VFR","latitude":44.144,"longitude":4.861},"UNKL":{"rawOb":"METAR UNKL 260830Z 26007MPS CAVOK 07/M03 Q1019 R29/CLRD62 NOSIG RMK QFE739","observationTime":"2026-03-26T08:30:00.000Z","flightCategory":"VFR","latitude":56.173,"longitude":92.493},"LFRD":{"rawOb":"METAR LFRD 260830Z AUTO 34014KT 9999 BKN034 BKN058 09/03 Q1024 TEMPO 34015G25KT 4000 -SHRA","observationTime":"2026-03-26T08:30:00.000Z","flightCategory":"VFR","latitude":48.589,"longitude":-2.075},"UAIT":{"rawOb":"METAR UAIT 260830Z 12004MPS 080V160 CAVOK 27/M05 Q1010 NOSIG RMK QFE733/0977","observationTime":"2026-03-26T08:30:00.000Z","flightCategory":"VFR","latitude":43.311,"longitude":68.55},"YMLT":{"rawOb":"METAR YMLT 260830Z AUTO 15017KT 9999 // FEW031 SCT049 BKN056 13/06 Q1010","observationTime":"2026-03-26T08:30:00.000Z","flightCategory":"VFR","latitude":-41.544,"longitude":147.213},"LFJL":{"rawOb":"METAR LFJL 260830Z AUTO 31009KT 9999 SCT013 BKN018 BKN032 04/02 Q1017 TEMPO BKN007","observationTime":"2026-03-26T08:30:00.000Z","flightCategory":"MVFR","latitude":48.982,"longitude":6.251},"UNAA":{"rawOb":"METAR UNAA 260830Z 25005MPS CAVOK 04/00 Q1023 R20/190054 NOSIG RMK QFE745","observationTime":"2026-03-26T08:30:00.000Z","flightCategory":"VFR","latitude":53.74,"longitude":91.385},"DABC":{"rawOb":"METAR DABC 260830Z 35010KT 320V030 9999 BKN030 10/05 Q1014","observationTime":"2026-03-26T08:30:00.000Z","flightCategory":"MVFR","latitude":36.278,"longitude":6.629},"UAKD":{"rawOb":"METAR UAKD 260830Z 08009MPS CAVOK 18/M04 Q1019 NOSIG RMK QFE730/0974","observationTime":"2026-03-26T08:30:00.000Z","flightCategory":"VFR","latitude":47.711,"longitude":67.739},"RCMQ":{"rawOb":"METAR RCMQ 260830Z 36009KT 9999 FEW012 BKN030 BKN050 23/17 Q1012 NOSIG RMK A2991","observationTime":"2026-03-26T08:30:00.000Z","flightCategory":"MVFR","latitude":24.265,"longitude":120.621},"DABB":{"rawOb":"METAR DABB 260830Z 26010KT 230V290 9999 FEW020 SCT033 16/11 Q1013","observationTime":"2026-03-26T08:30:00.000Z","flightCategory":"VFR","latitude":36.822,"longitude":7.809},"LFCR":{"rawOb":"METAR LFCR 260830Z AUTO 30016KT 9999 SCT019 02/M01 Q1019 TEMPO 31015G25KT","observationTime":"2026-03-26T08:30:00.000Z","flightCategory":"VFR","latitude":44.41,"longitude":2.483},"KCCB":{"rawOb":"METAR KCCB 260830Z AUTO 07008KT 10SM FEW031 17/07 A2997 RMK AO2","observationTime":"2026-03-26T08:30:00.000Z","flightCategory":"VFR","latitude":34.1118,"longitude":-117.6847},"DAAT":{"rawOb":"METAR DAAT 260830Z 09014KT CAVOK 24/03 Q1017","observationTime":"2026-03-26T08:30:00.000Z","flightCategory":"VFR","latitude":22.824,"longitude":5.452},"RCNN":{"rawOb":"METAR RCNN 260830Z 30005KT 9999 FEW010 SCT025 BKN050 27/20 Q1011 NOSIG RMK A2988","observationTime":"2026-03-26T08:30:00.000Z","flightCategory":"VFR","latitude":22.95,"longitude":120.206},"UWWW":{"rawOb":"METAR UWWW 260830Z 05003MPS 360V070 0300 R15/0450N FG VV001 04/04 Q1017 R15/190060 NOSIG RMK QBB050 QFE751/1002","observationTime":"2026-03-26T08:30:00.000Z","flightCategory":"LIFR","latitude":53.509,"longitude":50.163},"UWSG":{"rawOb":"METAR UWSG 260830Z 07004MPS 9000 FEW013 09/07 Q1014 R08/CLRD70 NOSIG RMK QFE758/1011","observationTime":"2026-03-26T08:30:00.000Z","flightCategory":"VFR","latitude":51.713,"longitude":46.171},"UWKS":{"rawOb":"METAR UWKS 260830Z 16003MPS CAVOK 06/M02 Q1019 R06/090065 NOSIG RMK QFE749","observationTime":"2026-03-26T08:30:00.000Z","flightCategory":"VFR","latitude":56.09,"longitude":47.347},"USDA":{"rawOb":"METAR USDA 260830Z 29010MPS 5000 BLSN FEW013 M03/M04 Q0989 R22/420518 NOSIG RMK QFE741/0988","observationTime":"2026-03-26T08:30:00.000Z","flightCategory":"MVFR","latitude":71.216,"longitude":72.05},"DTTJ":{"rawOb":"METAR DTTJ 260830Z 25015KT 9999 SCT023 19/07 Q1011","observationTime":"2026-03-26T08:30:00.000Z","flightCategory":"VFR","latitude":33.875,"longitude":10.775},"RCFN":{"rawOb":"METAR RCFN 260830Z 00000KT 3000 -RA FEW002 SCT005 BKN016 20/20 Q1011 NOSIG RMK A2988","observationTime":"2026-03-26T08:30:00.000Z","flightCategory":"IFR","latitude":22.755,"longitude":121.102},"KMRC":{"rawOb":"METAR KMRC 260830Z AUTO 20010KT 10SM FEW050 18/13 A3003 RMK A01","observationTime":"2026-03-26T08:30:00.000Z","flightCategory":"VFR","latitude":35.5579,"longitude":-87.1778},"UEEE":{"rawOb":"METAR UEEE 260830Z 10001MPS 9999 FEW050CB 01/M06 Q1006 R23/09//71 NOSIG RMK QFE746","observationTime":"2026-03-26T08:30:00.000Z","flightCategory":"VFR","latitude":62.093,"longitude":129.774},"RCQC":{"rawOb":"METAR RCQC 260830Z 01016KT 9999 FEW008 SCT016 BKN030 22/19 Q1011 NOSIG RMK A2986","observationTime":"2026-03-26T08:30:00.000Z","flightCategory":"MVFR","latitude":23.569,"longitude":119.628},"DAAG":{"rawOb":"METAR DAAG 260830Z VRB02KT 9999 FEW020 BKN200 13/08 Q1015","observationTime":"2026-03-26T08:30:00.000Z","flightCategory":"VFR","latitude":36.691,"longitude":3.215},"YPKG":{"rawOb":"METAR YPKG 260830Z AUTO 11017KT 9999 // NCD 22/13 Q1022","observationTime":"2026-03-26T08:30:00.000Z","flightCategory":"VFR","latitude":-30.785,"longitude":121.453},"YCFS":{"rawOb":"METAR YCFS 260830Z AUTO 36009KT 9999 // NCD 26/19 Q1006","observationTime":"2026-03-26T08:30:00.000Z","flightCategory":"VFR","latitude":-30.317,"longitude":153.119},"UUDL":{"rawOb":"METAR UUDL 260830Z 19003MPS 150V220 CAVOK 10/M04 Q1015 R23/010068 NOSIG RMK QFE753","observationTime":"2026-03-26T08:30:00.000Z","flightCategory":"VFR","latitude":57.561,"longitude":40.157},"FMMI":{"rawOb":"METAR FMMI 260830Z 05005KT 360V100 9999 SCT020 28/16 Q1020 NOSIG","observationTime":"2026-03-26T08:30:00.000Z","flightCategory":"VFR","latitude":-18.797,"longitude":47.479},"LFMC":{"rawOb":"METAR LFMC 260830Z AUTO 30026G37KT CAVOK 10/M05 Q1005","observationTime":"2026-03-26T08:30:00.000Z","flightCategory":"VFR","latitude":43.383,"longitude":6.386},"USCM":{"rawOb":"METAR USCM 260830Z 14003MPS 9999 SCT040 09/04 Q1021 R18/060960 NOSIG RMK QFE728","observationTime":"2026-03-26T08:30:00.000Z","flightCategory":"VFR","latitude":53.393,"longitude":58.756},"EIDL":{"rawOb":"METAR EIDL 260830Z 24011KT 9999 SCT036 BKN042 07/04 Q1021","observationTime":"2026-03-26T08:30:00.000Z","flightCategory":"VFR","latitude":55.044,"longitude":-8.341},"UACK":{"rawOb":"METAR UACK 260830Z 26003MPS 220V310 CAVOK 13/02 Q1023 NOSIG RMK QFE744/0992","observationTime":"2026-03-26T08:30:00.000Z","flightCategory":"VFR","latitude":53.332,"longitude":69.594},"UHMA":{"rawOb":"METAR UHMA 260830Z 21002MPS 9999 BKN064 M04/M06 Q1027 R02/////// NOSIG RMK MID 22002MPS END R02/23001MPS QFE766/1022","observationTime":"2026-03-26T08:30:00.000Z","flightCategory":"VFR","latitude":64.733,"longitude":177.739},"HECA":{"rawOb":"METAR HECA 260830Z 21011KT 9999 FEW020CB BKN025 14/10 Q1007 NOSIG","observationTime":"2026-03-26T08:30:00.000Z","flightCategory":"MVFR","latitude":30.133,"longitude":31.405},"TFFF":{"rawOb":"METAR TFFF 260830Z AUTO 08011KT 9999 SCT029 SCT036 BKN049 25/20 Q1013 TEMPO 4500 SHRA SCT020TCU","observationTime":"2026-03-26T08:30:00.000Z","flightCategory":"VFR","latitude":14.591,"longitude":-61.003},"KM54":{"rawOb":"METAR KM54 260830Z AUTO 20010G16KT 10SM BKN044 OVC050 18/12 A3002 RMK A01","observationTime":"2026-03-26T08:30:00.000Z","flightCategory":"VFR","latitude":36.1932,"longitude":-86.314},"UHBB":{"rawOb":"METAR UHBB 260830Z 19003MPS 9999 FEW033 06/M01 Q1010 R36/090060 NOSIG RMK QFE740/0986","observationTime":"2026-03-26T08:30:00.000Z","flightCategory":"VFR","latitude":50.425,"longitude":127.412},"UZTT":{"rawOb":"METAR UZTT 260830Z 26006KT 170V330 CAVOK 27/03 Q1010 R08R/CLRD70 NOSIG","observationTime":"2026-03-26T08:30:00.000Z","flightCategory":"VFR","latitude":41.258,"longitude":69.281},"UZFF":{"rawOb":"METAR UZFF 260830Z 29004KT 180V340 9999 NSC 24/00 Q1011 R18/CLRD70","observationTime":"2026-03-26T08:30:00.000Z","flightCategory":"VFR","latitude":40.356,"longitude":71.745},"UZFA":{"rawOb":"METAR UZFA 260830Z 28004KT 200V350 9999 NSC 24/02 Q1011 04/CLRD70","observationTime":"2026-03-26T08:30:00.000Z","flightCategory":"VFR","latitude":40.727,"longitude":72.294},"UAUU":{"rawOb":"METAR UAUU 260830Z 19002MPS 160V220 CAVOK 09/00 Q1023 NOSIG RMK QFE751/1001","observationTime":"2026-03-26T08:30:00.000Z","flightCategory":"VFR","latitude":53.215,"longitude":63.553},"KUWL":{"rawOb":"METAR KUWL 260830Z AUTO 22010KT 10SM FEW065 OVC100 16/10 A2990 RMK A01","observationTime":"2026-03-26T08:30:00.000Z","flightCategory":"VFR","latitude":39.8752,"longitude":-85.3313},"LEVD":{"rawOb":"METAR LEVD 260830Z 07013KT 9999 FEW020 05/01 Q1023 NOSIG","observationTime":"2026-03-26T08:30:00.000Z","flightCategory":"VFR","latitude":41.706,"longitude":-4.852},"UZST":{"rawOb":"METAR UZST 260830Z 06008KT 030V100 9999 SCT066CB 28/08 Q1010 R25/CLRD70 NOSIG","observationTime":"2026-03-26T08:30:00.000Z","flightCategory":"VFR","latitude":37.287,"longitude":67.318},"HKEL":{"rawOb":"METAR HKEL 260830Z 13014KT 9999 FEW021 BKN270 22/09 Q1025","observationTime":"2026-03-26T08:30:00.000Z","flightCategory":"VFR","latitude":0.404,"longitude":35.239},"HKMO":{"rawOb":"METAR HKMO 260830Z 16008KT 9999 SCT025 31/24 Q1012 NOSIG","observationTime":"2026-03-26T08:30:00.000Z","flightCategory":"VFR","latitude":-4.015,"longitude":39.606},"HKJK":{"rawOb":"METAR HKJK 260830Z 03005KT 9999 BKN024 22/15 Q1022 NOSIG","observationTime":"2026-03-26T08:30:00.000Z","flightCategory":"MVFR","latitude":-1.319,"longitude":36.928},"YSNF":{"rawOb":"METAR YSNF 260830Z AUTO 26006KT 9999 // NCD 21/18 Q1013","observationTime":"2026-03-26T08:30:00.000Z","flightCategory":"VFR","latitude":-29.039,"longitude":167.941},"UZSS":{"rawOb":"METAR UZSS 260830Z 32006KT 280V010 9999 NSC 23/08 Q1011 R27/CLRD70 NOSIG","observationTime":"2026-03-26T08:30:00.000Z","flightCategory":"VFR","latitude":39.7,"longitude":66.974},"UZSK":{"rawOb":"METAR UZSK 260830Z 20008KT 170V240 CAVOK 28/08 Q1010 R16/CLRD70","observationTime":"2026-03-26T08:30:00.000Z","flightCategory":"VFR","latitude":38.804,"longitude":65.773},"UZSB":{"rawOb":"METAR UZSB 260830Z 20014KT CAVOK 29/10 Q1008 R19/CLRD70 NOSIG","observationTime":"2026-03-26T08:30:00.000Z","flightCategory":"VFR","latitude":39.775,"longitude":64.483},"UZSA":{"rawOb":"METAR UZSA 260830Z 19012KT 9999 NSC 27/06 Q1009 R07/CLRD70 NOSIG","observationTime":"2026-03-26T08:30:00.000Z","flightCategory":"VFR","latitude":40.116,"longitude":65.167},"YBLN":{"rawOb":"METAR YBLN 260830Z AUTO 09012KT 9999 // SCT100 27/12 Q1018","observationTime":"2026-03-26T08:30:00.000Z","flightCategory":"VFR","latitude":-33.688,"longitude":115.402},"UZNU":{"rawOb":"METAR UZNU 260830Z 13014KT CAVOK 21/06 Q1007 R13/CLRD70 NOSIG","observationTime":"2026-03-26T08:30:00.000Z","flightCategory":"VFR","latitude":41.584,"longitude":60.642},"UZNN":{"rawOb":"METAR UZNN 260830Z 05014KT CAVOK 25/M03 Q1006 R33/CLRD70 NOSIG","observationTime":"2026-03-26T08:30:00.000Z","flightCategory":"VFR","latitude":42.488,"longitude":59.623},"UZFN":{"rawOb":"METAR UZFN 260830Z 18004KT 110V230 9999 NSC 25/01 Q1010 R28/CLRD70 NOSIG","observationTime":"2026-03-26T08:30:00.000Z","flightCategory":"VFR","latitude":40.983,"longitude":71.573},"URRP":{"rawOb":"METAR URRP 260830Z 08007MPS 9999 SCT008 11/10 Q1007 R05/CLRD70 TEMPO 0800 FG BKN002 BKN020CB RMK QFE751/1001","observationTime":"2026-03-26T08:30:00.000Z","flightCategory":"VFR","latitude":47.494,"longitude":39.925},"GLRB":{"rawOb":"METAR GLRB 260830Z 01003KT 9999 SCT012 25/24 Q1009 NOSIG","observationTime":"2026-03-26T08:30:00.000Z","flightCategory":"VFR","latitude":6.234,"longitude":-10.362},"YSDU":{"rawOb":"METAR YSDU 260830Z AUTO 26007KT 9999 // BKN029 OVC125 18/17 Q1011","observationTime":"2026-03-26T08:30:00.000Z","flightCategory":"MVFR","latitude":-32.221,"longitude":148.575},"URMO":{"rawOb":"METAR URMO 260830Z 30002MPS 270V340 9999 SCT012 OVC026 13/09 Q1003 R09/010065 NOSIG RMK QFE709/0946","observationTime":"2026-03-26T08:30:00.000Z","flightCategory":"MVFR","latitude":43.204,"longitude":44.608},"URML":{"rawOb":"METAR URML 260830Z 10003MPS 060V140 9999 FEW005 13/11 Q1003 R14/190095 NOSIG RMK QBB150 QFE752/1003","observationTime":"2026-03-26T08:30:00.000Z","flightCategory":"VFR","latitude":42.817,"longitude":47.652},"SOCA":{"rawOb":"METAR SOCA 260830Z AUTO VRB02KT 9999 BKN002/// BKN014/// BKN022/// ///TCU 24/24 Q1010 TEMPO 2500 SHRA BKN003 SCT012CB BKN015TCU","observationTime":"2026-03-26T08:30:00.000Z","flightCategory":"LIFR","latitude":4.822,"longitude":-52.365},"WIEE":{"rawOb":"METAR WIEE 260830Z 22005KT 190V310 9999 FEW020 30/26 Q1006 NOSIG","observationTime":"2026-03-26T08:30:00.000Z","flightCategory":"VFR","latitude":-0.783,"longitude":100.283},"EIME":{"rawOb":"METAR EIME 260830Z 24008KT 9999 FEW016 05/03 Q1024","observationTime":"2026-03-26T08:30:00.000Z","flightCategory":"VFR","latitude":53.306,"longitude":-6.442},"UAAH":{"rawOb":"METAR UAAH 260830Z 09009MPS CAVOK 18/M07 Q1019 NOSIG RMK QFE727/0969","observationTime":"2026-03-26T08:30:00.000Z","flightCategory":"VFR","latitude":46.893,"longitude":75.005},"URMG":{"rawOb":"METAR URMG 260830Z 29002MPS 250V360 9999 SCT019 15/10 Q1003 R26/090095 NOSIG RMK QFE738/0984","observationTime":"2026-03-26T08:30:00.000Z","flightCategory":"VFR","latitude":43.387,"longitude":45.702},"LPPT":{"rawOb":"METAR LPPT 260830Z 04015KT 020V080 CAVOK 15/06 Q1016","observationTime":"2026-03-26T08:30:00.000Z","flightCategory":"VFR","latitude":38.781,"longitude":-9.136},"YPXM":{"rawOb":"METAR YPXM 260830Z AUTO 34004KT 280V030 9999 // NCD 28/23 Q1008","observationTime":"2026-03-26T08:30:00.000Z","flightCategory":"VFR","latitude":-10.453,"longitude":105.688},"LPPS":{"rawOb":"METAR LPPS 260830Z 02012KT 9999 SCT014 BKN030 15/11 Q1019","observationTime":"2026-03-26T08:30:00.000Z","flightCategory":"MVFR","latitude":33.073,"longitude":-16.35},"LPPR":{"rawOb":"METAR LPPR 260830Z 04008KT CAVOK 13/04 Q1021","observationTime":"2026-03-26T08:30:00.000Z","flightCategory":"VFR","latitude":41.235,"longitude":-8.684},"LPMA":{"rawOb":"METAR LPMA 260830Z 02013KT 9999 BKN015 16/12 Q1018","observationTime":"2026-03-26T08:30:00.000Z","flightCategory":"MVFR","latitude":32.698,"longitude":-16.774},"LPFR":{"rawOb":"METAR LPFR 260830Z 02009KT CAVOK 20/10 Q1013","observationTime":"2026-03-26T08:30:00.000Z","flightCategory":"VFR","latitude":37.014,"longitude":-7.966},"ULPB":{"rawOb":"METAR ULPB 260830Z 21005MPS 170V230 CAVOK 13/M00 Q1002 R19/090065 NOSIG RMK QFE747/0997","observationTime":"2026-03-26T08:30:00.000Z","flightCategory":"VFR","latitude":61.885,"longitude":34.155},"ULOO":{"rawOb":"METAR ULOO 260830Z 18006MPS 9999 FEW049 10/M03 Q1002 R19/010062 NOSIG RMK QFE748","observationTime":"2026-03-26T08:30:00.000Z","flightCategory":"VFR","latitude":57.79,"longitude":28.397},"ULMM":{"rawOb":"METAR ULMM 260830Z 15004MPS 9999 BKN006 BKN013 02/02 Q0989 R13/290150 NOSIG RMK OBST OBSC QFE735","observationTime":"2026-03-26T08:30:00.000Z","flightCategory":"IFR","latitude":68.781,"longitude":32.749},"LPPD":{"rawOb":"METAR LPPD 260830Z 04004KT 350V070 9999 FEW010 SCT025 13/11 Q1029","observationTime":"2026-03-26T08:30:00.000Z","flightCategory":"VFR","latitude":37.741,"longitude":-25.698},"LPAZ":{"rawOb":"METAR LPAZ 260830Z 04005KT 020V080 9999 FEW009 SCT012 BKN020 13/10 Q1028","observationTime":"2026-03-26T08:30:00.000Z","flightCategory":"MVFR","latitude":36.971,"longitude":-25.171},"KCLI":{"rawOb":"METAR KCLI 260830Z AUTO 03005KT 10SM CLR 05/01 A2973 RMK AO2 T00460013","observationTime":"2026-03-26T08:30:00.000Z","flightCategory":"VFR","latitude":44.6152,"longitude":-88.7313},"OPLA":{"rawOb":"METAR OPLA 260830Z 34006KT 6000 SCT040 SCT100 29/13 Q1013 NOSIG RMK QFE988 A29.95","observationTime":"2026-03-26T08:30:00.000Z","flightCategory":"MVFR","latitude":31.522,"longitude":74.404},"YBWW":{"rawOb":"METAR YBWW 260830Z AUTO 31002KT 9999 // NCD 25/11 Q1010","observationTime":"2026-03-26T08:30:00.000Z","flightCategory":"VFR","latitude":-27.558,"longitude":151.793},"UIAA":{"rawOb":"METAR UIAA 260830Z 28008MPS 9999 NSC 05/M08 Q1011 R29/CLRD63 NOSIG RMK QFE700/0934","observationTime":"2026-03-26T08:30:00.000Z","flightCategory":"VFR","latitude":52.026,"longitude":113.31},"GCHI":{"rawOb":"METAR GCHI 260830Z 01016KT 340V040 9999 FEW022 18/13 Q1016","observationTime":"2026-03-26T08:30:00.000Z","flightCategory":"VFR","latitude":27.819,"longitude":-17.889},"GCGM":{"rawOb":"METAR GCGM 260830Z VRB07KT 9999 FEW015 17/13 Q1015 RMK R09/25003KT 220V280 ARP/26004KT 170V320","observationTime":"2026-03-26T08:30:00.000Z","flightCategory":"VFR","latitude":28.032,"longitude":-17.211},"YPCC":{"rawOb":"METAR YPCC 260830Z AUTO 16009KT 9999 // FEW021 SCT025 BKN037 29/24 Q1008","observationTime":"2026-03-26T08:30:00.000Z","flightCategory":"VFR","latitude":-12.189,"longitude":96.834},"UWPS":{"rawOb":"METAR UWPS 260830Z 33002MPS CAVOK 07/M02 Q1017 R20/CLRD63 NOSIG RMK QFE745","observationTime":"2026-03-26T08:30:00.000Z","flightCategory":"VFR","latitude":54.116,"longitude":45.203},"UUOK":{"rawOb":"METAR UUOK 260830Z 11005MPS CAVOK 10/01 Q1012 R12/090060 NOSIG RMK QFE741/0988","observationTime":"2026-03-26T08:30:00.000Z","flightCategory":"VFR","latitude":51.751,"longitude":36.297},"UUOB":{"rawOb":"METAR UUOB 260830Z 10003MPS 050V120 CAVOK 13/01 Q1011 R11/010070 NOSIG","observationTime":"2026-03-26T08:30:00.000Z","flightCategory":"VFR","latitude":50.644,"longitude":36.59},"UASS":{"rawOb":"METAR UASS 260830Z 13004MPS 100V160 CAVOK 08/M01 Q1025 NOSIG RMK QFE751/1001","observationTime":"2026-03-26T08:30:00.000Z","flightCategory":"VFR","latitude":50.352,"longitude":80.228},"UUBC":{"rawOb":"METAR UUBC 260830Z VRB01MPS CAVOK 09/M02 Q1013 R31/CLRD62 NOSIG RMK QFE743/0991","observationTime":"2026-03-26T08:30:00.000Z","flightCategory":"VFR","latitude":54.552,"longitude":36.37},"YBAS":{"rawOb":"METAR YBAS 260830Z AUTO 12008KT 9999 // NCD 30/12 Q1016","observationTime":"2026-03-26T08:30:00.000Z","flightCategory":"VFR","latitude":-23.795,"longitude":133.889},"UASP":{"rawOb":"METAR UASP 260830Z 29005MPS 250V310 CAVOK 08/02 Q1025 NOSIG RMK QFE757/1010","observationTime":"2026-03-26T08:30:00.000Z","flightCategory":"VFR","latitude":52.202,"longitude":77.078},"ULWC":{"rawOb":"METAR ULWC 260830Z 14005MPS CAVOK 08/M02 Q1011 R21/010061 NOSIG RMK QFE748/0998","observationTime":"2026-03-26T08:30:00.000Z","flightCategory":"VFR","latitude":59.281,"longitude":38.019},"LEZL":{"rawOb":"METAR LEZL 260830Z 05011KT CAVOK 17/08 Q1014 NOSIG","observationTime":"2026-03-26T08:30:00.000Z","flightCategory":"VFR","latitude":37.418,"longitude":-5.893},"LEVX":{"rawOb":"METAR LEVX 260830Z 04010KT 010V080 CAVOK 11/03 Q1023 NOSIG","observationTime":"2026-03-26T08:30:00.000Z","flightCategory":"VFR","latitude":42.239,"longitude":-8.624},"LEVC":{"rawOb":"METAR LEVC 260830Z 33012KT 9999 FEW035 14/M02 Q1017 NOSIG","observationTime":"2026-03-26T08:30:00.000Z","flightCategory":"VFR","latitude":39.489,"longitude":-0.482},"LEPA":{"rawOb":"METAR LEPA 260830Z 07015KT 040V100 9000 FEW022 BKN048 12/07 Q1016 NOSIG","observationTime":"2026-03-26T08:30:00.000Z","flightCategory":"VFR","latitude":39.561,"longitude":2.737},"LEMG":{"rawOb":"METAR LEMG 260830Z 29007KT 260V320 CAVOK 13/07 Q1013 NOSIG","observationTime":"2026-03-26T08:30:00.000Z","flightCategory":"VFR","latitude":36.666,"longitude":-4.482},"LEMD":{"rawOb":"METAR LEMD 260830Z 05005KT 310V100 CAVOK 08/M01 Q1020 NOSIG","observationTime":"2026-03-26T08:30:00.000Z","flightCategory":"VFR","latitude":40.466,"longitude":-3.555},"LEIB":{"rawOb":"METAR LEIB 260830Z 03014KT 360V060 9999 FEW020 14/05 Q1016 NOSIG","observationTime":"2026-03-26T08:30:00.000Z","flightCategory":"VFR","latitude":38.876,"longitude":1.384},"LEBL":{"rawOb":"METAR LEBL 260830Z 36002KT CAVOK 12/02 Q1016 NOSIG","observationTime":"2026-03-26T08:30:00.000Z","flightCategory":"VFR","latitude":41.293,"longitude":2.07},"LEAL":{"rawOb":"METAR LEAL 260830Z 07013KT CAVOK 16/09 Q1016 NOSIG","observationTime":"2026-03-26T08:30:00.000Z","flightCategory":"VFR","latitude":38.282,"longitude":-0.558},"UASK":{"rawOb":"METAR UASK 260830Z 30003MPS 9999 NSC 04/M02 Q1025 NOSIG RMK QFE744/0992","observationTime":"2026-03-26T08:30:00.000Z","flightCategory":"VFR","latitude":50.027,"longitude":82.5},"VTSP":{"rawOb":"METAR VTSP 260830Z VRB03KT 9999 FEW020 34/23 Q1006 NOSIG","observationTime":"2026-03-26T08:30:00.000Z","flightCategory":"VFR","latitude":8.105,"longitude":98.308},"WIDN":{"rawOb":"METAR WIDN 260830Z 02009KT 330V060 9999 FEW036 SCT070 31/23 Q1008 NOS IG","observationTime":"2026-03-26T08:30:00.000Z","flightCategory":"VFR","latitude":0.923,"longitude":104.532},"LRBV":{"rawOb":"METAR LRBV 260830Z 18010KT 150V220 9999 FEW060 14/M00 Q1002","observationTime":"2026-03-26T08:30:00.000Z","flightCategory":"VFR","latitude":45.706,"longitude":25.524},"LRTC":{"rawOb":"METAR LRTC 260830Z 13011KT CAVOK 12/04 Q1007","observationTime":"2026-03-26T08:30:00.000Z","flightCategory":"VFR","latitude":45.065,"longitude":28.716},"LRSV":{"rawOb":"METAR LRSV 260830Z 14008KT 100V180 CAVOK 12/03 Q1002","observationTime":"2026-03-26T08:30:00.000Z","flightCategory":"VFR","latitude":47.686,"longitude":26.354},"YBRM":{"rawOb":"METAR YBRM 260830Z AUTO 34011KT 9999 // NCD 31/23 Q1008","observationTime":"2026-03-26T08:30:00.000Z","flightCategory":"VFR","latitude":-17.948,"longitude":122.235},"LRIA":{"rawOb":"METAR LRIA 260830Z 12011KT CAVOK 14/02 Q1004","observationTime":"2026-03-26T08:30:00.000Z","flightCategory":"VFR","latitude":47.164,"longitude":27.627},"WAHS":{"rawOb":"METAR WAHS 260830Z 29003KT 7000 BKN014 27/25 Q1006 NOSIG","observationTime":"2026-03-26T08:30:00.000Z","flightCategory":"MVFR","latitude":-6.973,"longitude":110.375},"UAKK":{"rawOb":"METAR UAKK 260830Z 05003MPS 010V070 CAVOK 10/03 Q1022 NOSIG RMK QFE719/0959","observationTime":"2026-03-26T08:30:00.000Z","flightCategory":"VFR","latitude":49.672,"longitude":73.333},"WAJJ":{"rawOb":"METAR WAJJ 260830Z VRB01KT 9999 FEW012 27/25 Q1005 NOSIG","observationTime":"2026-03-26T08:30:00.000Z","flightCategory":"VFR","latitude":-2.573,"longitude":140.514},"UADD":{"rawOb":"METAR UADD 260830Z 35003MPS 310V050 9999 NSC 16/03 Q1013 NOSIG RMK QFE703/0938","observationTime":"2026-03-26T08:30:00.000Z","flightCategory":"VFR","latitude":42.854,"longitude":71.304},"LRCV":{"rawOb":"METAR LRCV 260830Z 08009KT CAVOK 13/06 Q1002","observationTime":"2026-03-26T08:30:00.000Z","flightCategory":"VFR","latitude":44.31,"longitude":23.867},"LRBC":{"rawOb":"METAR LRBC 260830Z 17012KT CAVOK 12/04 Q1004","observationTime":"2026-03-26T08:30:00.000Z","flightCategory":"VFR","latitude":46.522,"longitude":26.91},"LEMI":{"rawOb":"METAR LEMI 260830Z 06011KT 020V090 CAVOK 14/09 Q1016","observationTime":"2026-03-26T08:30:00.000Z","flightCategory":"VFR","latitude":37.803,"longitude":-1.125},"GEML":{"rawOb":"METAR GEML 260830Z 13004KT 090V180 9999 FEW010 16/12 Q1013","observationTime":"2026-03-26T08:30:00.000Z","flightCategory":"VFR","latitude":35.278,"longitude":-2.956},"UACP":{"rawOb":"METAR UACP 260830Z 26003MPS 9999 FEW046CB 07/02 Q1022 NOSIG RMK QFE754/1006","observationTime":"2026-03-26T08:30:00.000Z","flightCategory":"VFR","latitude":54.775,"longitude":69.183},"LELN":{"rawOb":"METAR LELN 260830Z 01006KT 320V060 9999 FEW030 06/M01 Q1023","observationTime":"2026-03-26T08:30:00.000Z","flightCategory":"VFR","latitude":42.588,"longitude":-5.651},"LELC":{"rawOb":"METAR LELC 260830Z 05016KT CAVOK 16/08 Q1016 NOSIG","observationTime":"2026-03-26T08:30:00.000Z","flightCategory":"VFR","latitude":37.775,"longitude":-0.812},"LEXJ":{"rawOb":"METAR LEXJ 260830Z 02007KT 340V070 9999 SCT038 BKN056 11/04 Q1027","observationTime":"2026-03-26T08:30:00.000Z","flightCategory":"VFR","latitude":43.429,"longitude":-3.831},"LEPP":{"rawOb":"METAR LEPP 260830Z 33013G24KT 290V350 9000 FEW020 SCT028 BKN039 05/02 Q1022","observationTime":"2026-03-26T08:30:00.000Z","flightCategory":"VFR","latitude":42.777,"longitude":-1.65},"WIBB":{"rawOb":"METAR WIBB 260830Z 34006KT 9000 BKN012 33/22 Q1005 NOSIG","observationTime":"2026-03-26T08:30:00.000Z","flightCategory":"MVFR","latitude":0.461,"longitude":101.445},"YLHI":{"rawOb":"METAR YLHI 260830Z AUTO 26008KT 9999 // NCD 23/20 Q1008","observationTime":"2026-03-26T08:30:00.000Z","flightCategory":"VFR","latitude":-31.538,"longitude":159.077},"NZCH":{"rawOb":"METAR NZCH 260830Z AUTO 06027G37KT 5000 -RA HZ OVC012/// 16/14 Q1014","observationTime":"2026-03-26T08:30:00.000Z","flightCategory":"MVFR","latitude":-43.489,"longitude":172.528},"NZWN":{"rawOb":"METAR NZWN 260830Z AUTO 05015KT 9999 -DZ OVC065/// 18/13 Q1014","observationTime":"2026-03-26T08:30:00.000Z","flightCategory":"VFR","latitude":-41.331,"longitude":174.806},"KSNH":{"rawOb":"METAR KSNH 260830Z AUTO 19009KT 10SM FEW060 19/18 A3002 RMK A01","observationTime":"2026-03-26T08:30:00.000Z","flightCategory":"VFR","latitude":35.1731,"longitude":-88.2146},"UCFL":{"rawOb":"METAR UCFL 260830Z 12003MPS 090V150 9999 NSC 10/M05 Q1020","observationTime":"2026-03-26T08:30:00.000Z","flightCategory":"VFR","latitude":42.585,"longitude":76.702},"KPVW":{"rawOb":"METAR KPVW 260830Z AUTO 21010KT 10SM CLR 19/09 A2994 RMK AO2 T01850088 TSNO","observationTime":"2026-03-26T08:30:00.000Z","flightCategory":"VFR","latitude":34.169,"longitude":-101.723},"NZAA":{"rawOb":"METAR NZAA 260830Z AUTO 06021KT 2600 +RA BR SCT011/// BKN024/// OVC039/// 18/18 Q1012","observationTime":"2026-03-26T08:30:00.000Z","flightCategory":"IFR","latitude":-37.008,"longitude":174.792},"NIUE":{"rawOb":"METAR NIUE 260830Z AUTO 12007KT 9999 NCD 24/22 Q1010","observationTime":"2026-03-26T08:30:00.000Z","flightCategory":"VFR","latitude":-19.079,"longitude":-169.926},"VEAT":{"rawOb":"METAR VEAT 260830Z 30005KT 5000 HZ FEW020 33/22 Q1009 NOSIG","observationTime":"2026-03-26T08:30:00.000Z","flightCategory":"MVFR","latitude":23.887,"longitude":91.24},"OPST":{"rawOb":"METAR OPST 260830Z 31004KT 5000 HZ SCT040 BKN100 28/16 Q1014 NOSIG RH48","observationTime":"2026-03-26T08:30:00.000Z","flightCategory":"MVFR","latitude":32.536,"longitude":74.364},"VOSM":{"rawOb":"METAR VOSM 260830Z 20003KT 5000 HZ FEW020 34/14 Q1010 NOSIG","observationTime":"2026-03-26T08:30:00.000Z","flightCategory":"MVFR","latitude":11.783,"longitude":78.066},"KEKS":{"rawOb":"METAR KEKS 260830Z AUTO 00000KT 10SM SCT085 01/M01 A3002 RMK AO2","observationTime":"2026-03-26T08:30:00.000Z","flightCategory":"VFR","latitude":45.276,"longitude":-111.65},"UACC":{"rawOb":"METAR UACC 260830Z 09002MPS CAVOK 05/M01 Q1024 NOSIG RMK QFE737/0982","observationTime":"2026-03-26T08:30:00.000Z","flightCategory":"VFR","latitude":51.024,"longitude":71.468},"KSRB":{"rawOb":"METAR KSRB 260830Z AUTO 16006KT 10SM BKN050 OVC060 16/12 A3008 RMK AO2","observationTime":"2026-03-26T08:30:00.000Z","flightCategory":"VFR","latitude":36.0529,"longitude":-85.536},"UCFO":{"rawOb":"METAR UCFO 260830Z 29003MPS 240V350 CAVOK 23/03 Q1012 NOSIG","observationTime":"2026-03-26T08:30:00.000Z","flightCategory":"VFR","latitude":40.61,"longitude":72.791},"VAGD":{"rawOb":"METAR VAGD 260830Z 24002KT 5000 HZ FEW025 39/12 Q1011 NOSIG","observationTime":"2026-03-26T08:30:00.000Z","flightCategory":"MVFR","latitude":21.467,"longitude":80.2},"VOAT":{"rawOb":"METAR VOAT 260830Z 04005KT 6000 SCT015 33/24 Q1009","observationTime":"2026-03-26T08:30:00.000Z","flightCategory":"MVFR","latitude":10.824,"longitude":72.176},"UCFM":{"rawOb":"METAR UCFM 260830Z 25004MPS 220V280 CAVOK 20/03 Q1012 NOSIG","observationTime":"2026-03-26T08:30:00.000Z","flightCategory":"VFR","latitude":43.061,"longitude":74.478},"UAAT":{"rawOb":"METAR UAAT 260830Z 36007MPS 9999 NSC 17/00 Q1014 NOSIG RMK QFE710/0946","observationTime":"2026-03-26T08:30:00.000Z","flightCategory":"VFR","latitude":45.121,"longitude":78.445},"VOCL":{"rawOb":"METAR VOCL 260830Z 23010KT 6000 FEW012 33/24 Q1008 NOSIG","observationTime":"2026-03-26T08:30:00.000Z","flightCategory":"MVFR","latitude":11.137,"longitude":75.955},"VEDG":{"rawOb":"METAR VEDG 260830Z 24006KT 5000 HZ SCT018 SCT100 36/13 Q1008 NOSIG","observationTime":"2026-03-26T08:30:00.000Z","flightCategory":"MVFR","latitude":23.623,"longitude":87.243},"LEZG":{"rawOb":"METAR LEZG 260830Z 29034G45KT 9999 FEW050 09/01 Q1020 NOSIG","observationTime":"2026-03-26T08:30:00.000Z","flightCategory":"VFR","latitude":41.661,"longitude":-1.004},"LEVT":{"rawOb":"METAR LEVT 260830Z 36011KT 9000 -RA BKN021 BKN030 06/03 Q1024","observationTime":"2026-03-26T08:30:00.000Z","flightCategory":"MVFR","latitude":42.872,"longitude":-2.733},"VIJP":{"rawOb":"METAR VIJP 260830Z 16006KT 5000 HZ SCT100 33/10 Q1013 NOSIG","observationTime":"2026-03-26T08:30:00.000Z","flightCategory":"MVFR","latitude":26.824,"longitude":75.812},"LEJR":{"rawOb":"METAR LEJR 260830Z VRB01KT CAVOK 13/08 Q1013","observationTime":"2026-03-26T08:30:00.000Z","flightCategory":"VFR","latitude":36.751,"longitude":-6.056},"WAQQ":{"rawOb":"METAR WAQQ 260830Z VRB02KT 9999 SCT015 30/26 Q1008 NOSIG","observationTime":"2026-03-26T08:30:00.000Z","flightCategory":"VFR","latitude":3.327,"longitude":117.568},"EISG":{"rawOb":"METAR EISG 260830Z 23008KT 8000 BKN032 06/04 Q1022","observationTime":"2026-03-26T08:30:00.000Z","flightCategory":"MVFR","latitude":54.28,"longitude":-8.599},"EIWF":{"rawOb":"METAR EIWF 260830Z VRB03KT CAVOK 04/03 Q1026","observationTime":"2026-03-26T08:30:00.000Z","flightCategory":"VFR","latitude":52.187,"longitude":-7.087},"LEST":{"rawOb":"METAR LEST 260830Z 05012G22KT 010V090 9999 SCT029 08/03 Q1025 NOSIG","observationTime":"2026-03-26T08:30:00.000Z","flightCategory":"VFR","latitude":42.888,"longitude":-8.411},"LROP":{"rawOb":"METAR LROP 260830Z 07006KT 020V090 CAVOK 15/M01 Q1004 NOSIG","observationTime":"2026-03-26T08:30:00.000Z","flightCategory":"VFR","latitude":44.572,"longitude":26.102},"LEDA":{"rawOb":"METAR LEDA 260830Z 24006KT 190V280 CAVOK 09/00 Q1016","observationTime":"2026-03-26T08:30:00.000Z","flightCategory":"VFR","latitude":41.734,"longitude":0.538},"WILL":{"rawOb":"METAR WILL 260830Z COR 22005KT 140V290 8000 TS FEW017CB BKN020 28/24 Q1006 TEMPO FM0840 TL0940 3000 -TSRA FEW010CB BKN013","observationTime":"2026-03-26T08:30:00.000Z","flightCategory":"MVFR","latitude":-5.242,"longitude":105.179},"LESA":{"rawOb":"METAR LESA 260830Z 10014KT CAVOK 05/M00 Q1023","observationTime":"2026-03-26T08:30:00.000Z","flightCategory":"VFR","latitude":40.96,"longitude":-5.498},"VTSS":{"rawOb":"METAR VTSS 260830Z 03011KT 350V070 9999 FEW020 33/19 Q1006 NOSIG","observationTime":"2026-03-26T08:30:00.000Z","flightCategory":"VFR","latitude":6.933,"longitude":100.393},"DTNH":{"rawOb":"METAR DTNH 260830Z 26013KT 7000 SCT033 16/07 Q1011","observationTime":"2026-03-26T08:30:00.000Z","flightCategory":"MVFR","latitude":36.074,"longitude":10.436},"YSSY":{"rawOb":"METAR YSSY 260830Z AUTO 23006KT 9999 -SHRA FEW075 SCT100 OVC115 20/18 Q1004","observationTime":"2026-03-26T08:30:00.000Z","flightCategory":"VFR","latitude":-33.946,"longitude":151.173},"VEMN":{"rawOb":"METAR VEMN 260830Z 14004KT 5000 HZ SCT100 30/20 Q1010 NOSIG","observationTime":"2026-03-26T08:30:00.000Z","flightCategory":"MVFR","latitude":27.481,"longitude":95.014},"UDSG":{"rawOb":"METAR UDSG 260830Z 26008KT 9999 BKN036CB 08/05 Q1006 NOSIG","observationTime":"2026-03-26T08:30:00.000Z","flightCategory":"VFR","latitude":40.75,"longitude":43.859},"VAKP":{"rawOb":"METAR VAKP 260830Z 08008KT 7000 SCT030 SCT080 35/12 Q1013 NOSIG","observationTime":"2026-03-26T08:30:00.000Z","flightCategory":"MVFR","latitude":16.664,"longitude":74.287},"VOMD":{"rawOb":"METAR VOMD 260830Z 07008KT 6000 SCT020 36/20 Q1009 NOSIG","observationTime":"2026-03-26T08:30:00.000Z","flightCategory":"MVFR","latitude":9.835,"longitude":78.093},"LRSB":{"rawOb":"METAR LRSB 260830Z 15019KT CAVOK 14/00 Q1001","observationTime":"2026-03-26T08:30:00.000Z","flightCategory":"VFR","latitude":45.789,"longitude":24.091},"UDYZ":{"rawOb":"METAR UDYZ 260830Z VRB02KT 9999 SCT027CB 14/07 Q1004 NOSIG","observationTime":"2026-03-26T08:30:00.000Z","flightCategory":"VFR","latitude":40.147,"longitude":44.396},"YPPH":{"rawOb":"METAR YPPH 260830Z 09016KT CAVOK 31/15 Q1015","observationTime":"2026-03-26T08:30:00.000Z","flightCategory":"VFR","latitude":-31.927,"longitude":115.976},"VASD":{"rawOb":"METAR VASD 260830Z 07003KT 6000 NSC 34/08 Q1014 NOSIG","observationTime":"2026-03-26T08:30:00.000Z","flightCategory":"MVFR","latitude":19.689,"longitude":74.379},"WITT":{"rawOb":"METAR WITT 260830Z 04010KT 9999 FEW018 31/21 Q1006 NOSIG","observationTime":"2026-03-26T08:30:00.000Z","flightCategory":"VFR","latitude":5.524,"longitude":95.42},"VOBM":{"rawOb":"METAR VOBM 260830Z 08004KT 8000 SCT012 SCT018 34/16 Q1015","observationTime":"2026-03-26T08:30:00.000Z","flightCategory":"MVFR","latitude":15.861,"longitude":74.617},"VEMR":{"rawOb":"METAR VEMR 260830Z 26003KT 5000 HZ FEW020 31/18 Q1010 NOSIG","observationTime":"2026-03-26T08:30:00.000Z","flightCategory":"MVFR","latitude":25.884,"longitude":93.771},"YMML":{"rawOb":"METAR YMML 260830Z AUTO 23011KT 9999 -RA SCT045 SCT055 BKN070 10/08 Q1014","observationTime":"2026-03-26T08:30:00.000Z","flightCategory":"VFR","latitude":-37.666,"longitude":144.832},"VVVD":{"rawOb":"METAR VVVD 260830Z AUTO 21011KT 9999 NCD 28/22 Q1008","observationTime":"2026-03-26T08:30:00.000Z","flightCategory":"VFR","latitude":21.118,"longitude":107.414},"LPFL":{"rawOb":"METAR LPFL 260830Z 18005KT 9999 FEW012 BKN028 14/12 Q1029","observationTime":"2026-03-26T08:30:00.000Z","flightCategory":"MVFR","latitude":39.455,"longitude":-31.131},"LRTR":{"rawOb":"METAR LRTR 260830Z 17015KT CAVOK 15/M00 Q0998 NOSIG","observationTime":"2026-03-26T08:30:00.000Z","flightCategory":"VFR","latitude":45.811,"longitude":21.333},"LPHR":{"rawOb":"METAR LPHR 260830Z 02005KT 9999 FEW014 BKN023 14/10 Q1030","observationTime":"2026-03-26T08:30:00.000Z","flightCategory":"MVFR","latitude":38.521,"longitude":-28.714},"VOCP":{"rawOb":"METAR VOCP 260830Z 10011KT 6000 FEW020 36/12 Q1009 NOSIG","observationTime":"2026-03-26T08:30:00.000Z","flightCategory":"MVFR","latitude":14.513,"longitude":78.771},"LFRC":{"rawOb":"METAR LFRC 260830Z AUTO 35010KT 9999 BKN023 BKN029 BKN038 07/04 Q1023 TEMPO 4000 SHRA","observationTime":"2026-03-26T08:30:00.000Z","flightCategory":"MVFR","latitude":49.65,"longitude":-1.47},"LFRJ":{"rawOb":"METAR LFRJ 260830Z AUTO 34004KT 300V020 9999 SCT032/// BKN040/// BKN047/// ///TCU 08/04 Q1026 TEMPO 34015G25KT","observationTime":"2026-03-26T08:30:00.000Z","flightCategory":"VFR","latitude":48.527,"longitude":-4.138},"LFRK":{"rawOb":"METAR LFRK 260830Z AUTO 34008KT 310V010 9999 SCT026/// BKN036/// BKN048/// ///TCU 08/04 Q1022 TEMPO 4000 SHRA","observationTime":"2026-03-26T08:30:00.000Z","flightCategory":"VFR","latitude":49.18,"longitude":-0.456},"LPCS":{"rawOb":"METAR LPCS 260830Z 04014G24KT CAVOK 17/05 Q1016","observationTime":"2026-03-26T08:30:00.000Z","flightCategory":"VFR","latitude":38.725,"longitude":-9.355},"LFRN":{"rawOb":"METAR LFRN 260830Z AUTO 28008KT 9999 FEW032 SCT041 BKN054 07/05 Q1024 TEMPO 31015G25KT 3000 SHRA BKN025TCU","observationTime":"2026-03-26T08:30:00.000Z","flightCategory":"VFR","latitude":48.069,"longitude":-1.734},"LESO":{"rawOb":"METAR LESO 260830Z VRB01KT 9999 FEW060 10/05 Q1026","observationTime":"2026-03-26T08:30:00.000Z","flightCategory":"VFR","latitude":43.361,"longitude":-1.787},"KOLY":{"rawOb":"METAR KOLY 260830Z AUTO 20008G16KT 10SM BKN095 21/12 A2987 RMK AO2 LTG DSNT E T02100122","observationTime":"2026-03-26T08:30:00.000Z","flightCategory":"VFR","latitude":38.7213,"longitude":-88.1799},"YMHB":{"rawOb":"METAR YMHB 260830Z AUTO 19016KT 9999 // BKN056 OVC099 13/07 Q1012","observationTime":"2026-03-26T08:30:00.000Z","flightCategory":"VFR","latitude":-42.834,"longitude":147.503},"LERS":{"rawOb":"METAR LERS 260830Z 00000KT CAVOK 13/01 Q1016","observationTime":"2026-03-26T08:30:00.000Z","flightCategory":"VFR","latitude":41.15,"longitude":1.179},"LJPZ":{"rawOb":"METAR LJPZ 260830Z 05011G21KT 010V100 9999 -RA FEW029 SCT035 OVC040 08/02 Q0994","observationTime":"2026-03-26T08:30:00.000Z","flightCategory":"VFR","latitude":45.473,"longitude":13.615},"DTMB":{"rawOb":"METAR DTMB 260830Z 32011KT 6000 FEW023 15/09 Q1011","observationTime":"2026-03-26T08:30:00.000Z","flightCategory":"MVFR","latitude":35.758,"longitude":10.755},"UTDT":{"rawOb":"METAR UTDT 260830Z 36005MPS 9999 FEW050CB BKN120 26/06 Q1010 R35/CLRD70 RMK QFE718/0958","observationTime":"2026-03-26T08:30:00.000Z","flightCategory":"VFR","latitude":37.866,"longitude":68.865},"LEMH":{"rawOb":"METAR LEMH 260830Z 01023G33KT 9999 FEW032 11/03 Q1016","observationTime":"2026-03-26T08:30:00.000Z","flightCategory":"VFR","latitude":39.855,"longitude":4.216},"NWWW":{"rawOb":"METAR NWWW 260830Z AUTO VRB02KT 9999 -RADZ SCT014/// BKN047/// BKN076/// ///TCU 26/25 Q1011 TEMPO 4900 SHRA BKN014 FEW025CB","observationTime":"2026-03-26T08:30:00.000Z","flightCategory":"VFR","latitude":-22.015,"longitude":166.213},"WSSS":{"rawOb":"METAR WSSS 260830Z 36013KT 9999 FEW022 BKN300 32/22 Q1007 NOSIG","observationTime":"2026-03-26T08:30:00.000Z","flightCategory":"VFR","latitude":1.368,"longitude":103.982},"LCPH":{"rawOb":"METAR LCPH 260830Z 34009KT 310V020 9999 FEW030TCU SCT040 20/12 Q1002 NOSIG","observationTime":"2026-03-26T08:30:00.000Z","flightCategory":"VFR","latitude":34.715,"longitude":32.479},"YGLA":{"rawOb":"METAR YGLA 260830Z AUTO 01008KT 9999 // OVC115 26/22 Q1011","observationTime":"2026-03-26T08:30:00.000Z","flightCategory":"VFR","latitude":-23.87,"longitude":151.221},"VEIM":{"rawOb":"METAR VEIM 260830Z 29009KT 6000 FEW020 28/10 Q1013 NOSIG","observationTime":"2026-03-26T08:30:00.000Z","flightCategory":"MVFR","latitude":24.76,"longitude":93.897},"URWA":{"rawOb":"METAR URWA 260830Z 11008MPS CAVOK 22/06 Q1005 R09/CLRD70 NOSIG RMK QFE755/1007","observationTime":"2026-03-26T08:30:00.000Z","flightCategory":"VFR","latitude":46.286,"longitude":47.995},"VEHO":{"rawOb":"METAR VEHO 260830Z 08005KT 5000 HZ FEW020 SCT100 28/16 Q1010 NOSIG","observationTime":"2026-03-26T08:30:00.000Z","flightCategory":"MVFR","latitude":-99.99,"longitude":-99.99},"ZYTX":{"rawOb":"METAR ZYTX 260830Z 28002MPS 240V330 CAVOK 19/M02 Q1011 NOSIG","observationTime":"2026-03-26T08:30:00.000Z","flightCategory":"VFR","latitude":41.639,"longitude":123.485},"VOKN":{"rawOb":"METAR VOKN 260830Z 27008KT 6000 SCT012 34/23 Q1008 NOSIG","observationTime":"2026-03-26T08:30:00.000Z","flightCategory":"MVFR","latitude":11.917,"longitude":75.547},"VOCB":{"rawOb":"METAR VOCB 260830Z 09009KT 8000 NSC 35/13 Q1012 NOSIG","observationTime":"2026-03-26T08:30:00.000Z","flightCategory":"MVFR","latitude":11.03,"longitude":77.043},"VOML":{"rawOb":"METAR VOML 260830Z 25009KT 5000 HZ FEW015 SCT020 33/26 Q1008 NOSIG","observationTime":"2026-03-26T08:30:00.000Z","flightCategory":"MVFR","latitude":12.961,"longitude":74.89},"DIAP":{"rawOb":"METAR DIAP 260830Z 21005KT 180V240 9999 FEW012 29/25 Q1011 NOSIG","observationTime":"2026-03-26T08:30:00.000Z","flightCategory":"VFR","latitude":5.261,"longitude":-3.926},"LBGO":{"rawOb":"METAR LBGO 260830Z AUTO 17010KT 130V220 9999 NCD 17/05 Q1003 NOSIG","observationTime":"2026-03-26T08:30:00.000Z","flightCategory":"VFR","latitude":43.151,"longitude":25.713},"LBPD":{"rawOb":"METAR LBPD 260830Z AUTO VRB04KT 9999 FEW210/// 10/04 Q1005 NOSIG","observationTime":"2026-03-26T08:30:00.000Z","flightCategory":"VFR","latitude":42.064,"longitude":24.86},"LDSP":{"rawOb":"METAR LDSP 260830Z 12014KT 9999 FEW014 SCT030 BKN045 12/10 Q0992 TEMPO 30020G35KT 2000 TSRA FEW020CB BKN030","observationTime":"2026-03-26T08:30:00.000Z","flightCategory":"VFR","latitude":43.539,"longitude":16.301},"ZYTL":{"rawOb":"METAR ZYTL 260830Z 11004MPS 7000 NSC 13/03 Q1012 NOSIG","observationTime":"2026-03-26T08:30:00.000Z","flightCategory":"MVFR","latitude":38.961,"longitude":121.556},"LBWN":{"rawOb":"METAR LBWN 260830Z 10014KT CAVOK 10/04 Q1006 NOSIG","observationTime":"2026-03-26T08:30:00.000Z","flightCategory":"VFR","latitude":43.232,"longitude":27.825},"LBSF":{"rawOb":"METAR LBSF 260830Z 09014KT CAVOK 12/01 Q1003 NOSIG","observationTime":"2026-03-26T08:30:00.000Z","flightCategory":"VFR","latitude":42.694,"longitude":23.414},"ZWWW":{"rawOb":"METAR ZWWW 260830Z 04003MPS 010V080 CAVOK 10/M07 Q1027 NOSIG","observationTime":"2026-03-26T08:30:00.000Z","flightCategory":"VFR","latitude":43.907,"longitude":87.474},"VERP":{"rawOb":"METAR VERP 260830Z 01005KT 4000 HZ FEW025 35/11 Q1010 NOSIG","observationTime":"2026-03-26T08:30:00.000Z","flightCategory":"IFR","latitude":21.182,"longitude":81.738},"ZSSS":{"rawOb":"METAR ZSSS 260830Z 16004MPS 120V180 CAVOK 16/06 Q1014 NOSIG","observationTime":"2026-03-26T08:30:00.000Z","flightCategory":"VFR","latitude":31.209,"longitude":121.337},"ZSPD":{"rawOb":"METAR ZSPD 260830Z 11003MPS CAVOK 14/10 Q1015 NOSIG","observationTime":"2026-03-26T08:30:00.000Z","flightCategory":"VFR","latitude":31.146,"longitude":121.8},"LFOJ":{"rawOb":"METAR LFOJ 260830Z AUTO 34012KT 9999 FEW015 06/04 Q1021 TEMPO 32015G25KT 4000 -SHRA SCT030TCU","observationTime":"2026-03-26T08:30:00.000Z","flightCategory":"VFR","latitude":47.985,"longitude":1.754},"VOGA":{"rawOb":"METAR VOGA 260830Z 25010KT 6000 FEW080 37/20 Q1009 NOSIG","observationTime":"2026-03-26T08:30:00.000Z","flightCategory":"MVFR","latitude":15.7426,"longitude":73.8631},"LFBY":{"rawOb":"METAR LFBY 260830Z AUTO 06005KT 020V080 9999 // ////// 10/04 Q1025","observationTime":"2026-03-26T08:30:00.000Z","flightCategory":"VFR","latitude":43.69,"longitude":-1.07},"ZSHC":{"rawOb":"METAR ZSHC 260830Z 09004MPS 8000 SCT040 17/10 Q1013 NOSIG","observationTime":"2026-03-26T08:30:00.000Z","flightCategory":"MVFR","latitude":30.229,"longitude":120.434},"ZGGG":{"rawOb":"METAR ZGGG 260830Z 12005MPS 9999 FEW030 BKN060 29/20 Q1009 NOSIG","observationTime":"2026-03-26T08:30:00.000Z","flightCategory":"VFR","latitude":23.392,"longitude":113.307},"URMT":{"rawOb":"METAR URMT 260830Z 09003MPS 4000 BR OVC006 10/10 Q1004 R07/290155 NOSIG RMK QFE714","observationTime":"2026-03-26T08:30:00.000Z","flightCategory":"IFR","latitude":45.108,"longitude":42.1},"UBBZ":{"rawOb":"METAR UBBZ 260830Z 03006KT 330V080 9999 SCT010 15/08 Q1004 NOSIG RMK MT OBSC","observationTime":"2026-03-26T08:30:00.000Z","flightCategory":"VFR","latitude":39.094,"longitude":46.734},"ZBYN":{"rawOb":"METAR ZBYN 260830Z 29001MPS CAVOK 23/M07 Q1011 NOSIG","observationTime":"2026-03-26T08:30:00.000Z","flightCategory":"VFR","latitude":37.747,"longitude":112.628},"VOBL":{"rawOb":"METAR VOBL 260830Z 09014KT 8000 NSC 33/07 Q1014 NOSIG","observationTime":"2026-03-26T08:30:00.000Z","flightCategory":"MVFR","latitude":13.205,"longitude":77.704},"ZBTJ":{"rawOb":"METAR ZBTJ 260830Z 10003MPS 3000 HZ NSC 23/10 Q1010 NOSIG","observationTime":"2026-03-26T08:30:00.000Z","flightCategory":"IFR","latitude":39.124,"longitude":117.346},"ZBAD":{"rawOb":"METAR ZBAD 260830Z 18002MPS 130V240 4000 HZ NSC 24/09 Q1010 NOSIG","observationTime":"2026-03-26T08:30:00.000Z","flightCategory":"IFR","latitude":39.501,"longitude":116.412},"ZBAA":{"rawOb":"METAR ZBAA 260830Z 21004G09MPS 180V250 5000 HZ NSC 25/04 Q1009 NOSIG","observationTime":"2026-03-26T08:30:00.000Z","flightCategory":"MVFR","latitude":40.082,"longitude":116.603},"LEBZ":{"rawOb":"METAR LEBZ 260830Z 05004KT 020V080 CAVOK 14/08 Q1017","observationTime":"2026-03-26T08:30:00.000Z","flightCategory":"VFR","latitude":38.883,"longitude":-6.814},"LDZA":{"rawOb":"METAR LDZA 260830Z 03014KT 350V080 9999 -RA FEW014 OVC040 05/04 Q0997 BECMG 04018G28KT","observationTime":"2026-03-26T08:30:00.000Z","flightCategory":"VFR","latitude":45.729,"longitude":16.054},"ULLI":{"rawOb":"METAR ULLI 260830Z 18006MPS CAVOK 11/M01 Q1001 R88/090060 NOSIG","observationTime":"2026-03-26T08:30:00.000Z","flightCategory":"VFR","latitude":59.798,"longitude":30.267},"VIKG":{"rawOb":"METAR VIKG 260830Z 27005KT 6000 BKN035 35/13 Q1013 NOSIG","observationTime":"2026-03-26T08:30:00.000Z","flightCategory":"MVFR","latitude":26.591,"longitude":74.816},"VERC":{"rawOb":"METAR VERC 260830Z 29006KT 5000 HZ FEW020 31/06 Q1014 NOSIG","observationTime":"2026-03-26T08:30:00.000Z","flightCategory":"MVFR","latitude":23.314,"longitude":85.322},"URWW":{"rawOb":"METAR URWW 260830Z 06006MPS 9000 OVC004 08/08 Q1008 R05/290055 NOSIG RMK OBST OBSC","observationTime":"2026-03-26T08:30:00.000Z","flightCategory":"LIFR","latitude":48.788,"longitude":44.336},"VOBZ":{"rawOb":"METAR VOBZ 260830Z 19008KT 6000 FEW020 35/21 Q1009 NOSIG","observationTime":"2026-03-26T08:30:00.000Z","flightCategory":"MVFR","latitude":16.53,"longitude":80.797},"VELP":{"rawOb":"METAR VELP 260830Z 34005KT 4000 HZ FEW018 SCT025 31/14 Q1011 NOSIG","observationTime":"2026-03-26T08:30:00.000Z","flightCategory":"IFR","latitude":23.841,"longitude":92.62},"VANP":{"rawOb":"METAR VANP 260830Z VRB01KT 5000 HZ FEW020 SCT025 38/15 Q1011 NOSIG","observationTime":"2026-03-26T08:30:00.000Z","flightCategory":"MVFR","latitude":21.089,"longitude":79.055},"URWI":{"rawOb":"METAR URWI 260830Z 05004MPS 6000 -SHRA SCT004 BKN032CB 12/11 Q1005 R09/290150 TEMPO 0500 FG BKN002 BKN020CB RMK QBB120","observationTime":"2026-03-26T08:30:00.000Z","flightCategory":"MVFR","latitude":46.374,"longitude":44.331},"VECC":{"rawOb":"METAR VECC 260830Z 11008KT 3500 HZ SCT020 FEW030CB SCT100 32/24 Q1008 NOSIG","observationTime":"2026-03-26T08:30:00.000Z","flightCategory":"IFR","latitude":22.651,"longitude":88.445},"YHID":{"rawOb":"METAR YHID 260830Z AUTO 13012KT 9999 // NCD 28/24 Q1007","observationTime":"2026-03-26T08:30:00.000Z","flightCategory":"VFR","latitude":-10.584,"longitude":142.29},"VOTV":{"rawOb":"METAR VOTV 260830Z 22007KT 6000 FEW020 32/23 Q1008 NOSIG","observationTime":"2026-03-26T08:30:00.000Z","flightCategory":"MVFR","latitude":8.484,"longitude":76.919},"LFRS":{"rawOb":"METAR LFRS 260830Z AUTO 31007KT 280V340 CAVOK 08/03 Q1025 NOSIG","observationTime":"2026-03-26T08:30:00.000Z","flightCategory":"VFR","latitude":47.15,"longitude":-1.609},"LFPO":{"rawOb":"METAR LFPO 260830Z 34009KT 320V030 9999 FEW023 07/02 Q1021 NOSIG","observationTime":"2026-03-26T08:30:00.000Z","flightCategory":"VFR","latitude":48.717,"longitude":2.384},"LFPG":{"rawOb":"METAR LFPG 260830Z 34011KT 310V010 9999 FEW020 06/02 Q1020 NOSIG","observationTime":"2026-03-26T08:30:00.000Z","flightCategory":"VFR","latitude":49.015,"longitude":2.534},"LFBH":{"rawOb":"METAR LFBH 260830Z AUTO 34012KT CAVOK 09/04 Q1025 NOSIG","observationTime":"2026-03-26T08:30:00.000Z","flightCategory":"VFR","latitude":46.178,"longitude":-1.193},"LFBD":{"rawOb":"METAR LFBD 260830Z AUTO 01010KT 330V030 CAVOK 09/03 Q1025 NOSIG","observationTime":"2026-03-26T08:30:00.000Z","flightCategory":"VFR","latitude":44.831,"longitude":-0.691},"YPGV":{"rawOb":"METAR YPGV 260830Z AUTO 10008KT 9999 // NCD 29/23 Q1008","observationTime":"2026-03-26T08:30:00.000Z","flightCategory":"VFR","latitude":-12.274,"longitude":136.82},"LFSN":{"rawOb":"METAR LFSN 260830Z AUTO 31011KT 280V350 9999 SCT016 BKN023 BKN047 04/01 Q1017","observationTime":"2026-03-26T08:30:00.000Z","flightCategory":"MVFR","latitude":48.692,"longitude":6.231},"LFQB":{"rawOb":"METAR LFQB 260830Z AUTO 34009KT 9999 FEW011 OVC018 04/02 Q1019","observationTime":"2026-03-26T08:30:00.000Z","flightCategory":"MVFR","latitude":48.325,"longitude":4.02},"LFQA":{"rawOb":"METAR LFQA 260830Z AUTO 32012KT 9999 SCT013 SCT098 05/02 Q1019","observationTime":"2026-03-26T08:30:00.000Z","flightCategory":"VFR","latitude":49.21,"longitude":4.155},"LFOP":{"rawOb":"METAR LFOP 260830Z AUTO 33009KT 9999 BKN018 06/02 Q1021 NOSIG","observationTime":"2026-03-26T08:30:00.000Z","flightCategory":"MVFR","latitude":49.383,"longitude":1.182},"LFOH":{"rawOb":"METAR LFOH 260830Z AUTO 35013KT 9999 SCT023 BKN028 08/03 Q1022 NOSIG","observationTime":"2026-03-26T08:30:00.000Z","flightCategory":"MVFR","latitude":49.533,"longitude":0.091},"WIMM":{"rawOb":"METAR WIMM 260830Z 35012KT 9999 FEW018 31/25 Q1006 NOSIG","observationTime":"2026-03-26T08:30:00.000Z","flightCategory":"VFR","latitude":3.636,"longitude":98.874},"WIDD":{"rawOb":"METAR WIDD 260830Z 08013KT 9999 FEW014 29/23 Q1007 NOSIG","observationTime":"2026-03-26T08:30:00.000Z","flightCategory":"VFR","latitude":1.121,"longitude":104.119},"LFLX":{"rawOb":"METAR LFLX 260830Z AUTO 30011KT 9999 SCT031 SCT037 BKN056 06/03 Q1022 NOSIG","observationTime":"2026-03-26T08:30:00.000Z","flightCategory":"VFR","latitude":46.87,"longitude":1.741},"WIII":{"rawOb":"METAR WIII 260830Z 33010KT 9999 FEW020 29/25 Q1006 NOSIG","observationTime":"2026-03-26T08:30:00.000Z","flightCategory":"VFR","latitude":-6.125,"longitude":106.659},"WABB":{"rawOb":"METAR WABB 260830Z 26006KT 9999 FEW015 30/25 Q1007 NOSIG","observationTime":"2026-03-26T08:30:00.000Z","flightCategory":"VFR","latitude":-1.19,"longitude":136.108},"LFLW":{"rawOb":"METAR LFLW 260830Z AUTO 31010KT 250V340 9999 BKN016 BKN023 BKN028 02/M01 Q1019 NOSIG","observationTime":"2026-03-26T08:30:00.000Z","flightCategory":"MVFR","latitude":44.899,"longitude":2.421},"LFLV":{"rawOb":"METAR LFLV 260830Z AUTO 33007KT 280V360 9999 BKN019 OVC025 04/01 Q1020","observationTime":"2026-03-26T08:30:00.000Z","flightCategory":"MVFR","latitude":46.167,"longitude":3.399},"LFLU":{"rawOb":"METAR LFLU 260830Z AUTO 35019KT 9999 BKN032 BKN038 OVC074 05/00 Q1017","observationTime":"2026-03-26T08:30:00.000Z","flightCategory":"VFR","latitude":44.922,"longitude":4.97},"LFLP":{"rawOb":"METAR LFLP 260830Z AUTO 30004KT 250V330 9999 FEW045 BKN058 OVC074 02/00 Q1015 TEMPO 34020G30KT 3000 SHRAGS BKN020CB","observationTime":"2026-03-26T08:30:00.000Z","flightCategory":"VFR","latitude":45.93,"longitude":6.106},"YMAV":{"rawOb":"METAR YMAV 260830Z AUTO 26011KT 9999 // FEW038 BKN058 BKN066 12/07 Q1014","observationTime":"2026-03-26T08:30:00.000Z","flightCategory":"VFR","latitude":-38.029,"longitude":144.478},"LFCK":{"rawOb":"METAR LFCK 260830Z AUTO 31017KT 9999 BKN022 BKN033 06/01 Q1023 BECMG 30015G25KT","observationTime":"2026-03-26T08:30:00.000Z","flightCategory":"MVFR","latitude":43.556,"longitude":2.289},"LFSL":{"rawOb":"METAR LFSL 260830Z AUTO 34010KT 9999 SCT016 05/01 Q1022 NOSIG","observationTime":"2026-03-26T08:30:00.000Z","flightCategory":"VFR","latitude":45.04,"longitude":1.486},"LFMP":{"rawOb":"METAR LFMP 260830Z AUTO 31021G39KT 9999 BKN046 BKN052 09/M01 Q1019 NOSIG","observationTime":"2026-03-26T08:30:00.000Z","flightCategory":"VFR","latitude":42.737,"longitude":2.873},"WAAA":{"rawOb":"METAR WAAA 260830Z 31006KT 280V350 9999 FEW019 31/25 Q1006 NOSIG","observationTime":"2026-03-26T08:30:00.000Z","flightCategory":"VFR","latitude":-5.062,"longitude":119.554},"LFKF":{"rawOb":"METAR LFKF 260830Z AUTO 30017KT 9999 SCT028 BKN037 BKN048 10/02 Q1000 TEMPO 29015G25KT","observationTime":"2026-03-26T08:30:00.000Z","flightCategory":"VFR","latitude":41.501,"longitude":9.098},"LFRU":{"rawOb":"METAR LFRU 260830Z AUTO 33012KT 9999 FEW034/// SCT056/// ///TCU 09/03 Q1025","observationTime":"2026-03-26T08:30:00.000Z","flightCategory":"VFR","latitude":48.601,"longitude":-3.814},"FMEP":{"rawOb":"METAR FMEP 260830Z AUTO 16011KT CAVOK 30/22 Q1013 NOSIG","observationTime":"2026-03-26T08:30:00.000Z","flightCategory":"VFR","latitude":-21.32,"longitude":55.425},"LFPN":{"rawOb":"METAR LFPN 260830Z AUTO 35008KT 320V020 9999 FEW020 06/03 Q1020 NOSIG","observationTime":"2026-03-26T08:30:00.000Z","flightCategory":"VFR","latitude":48.752,"longitude":2.114},"YFRT":{"rawOb":"METAR YFRT 260830Z AUTO 14018KT 9999 // SCT038 21/12 Q1025","observationTime":"2026-03-26T08:30:00.000Z","flightCategory":"VFR","latitude":-30.848,"longitude":128.114},"LFJR":{"rawOb":"METAR LFJR 260830Z AUTO 31006KT 270V350 9999 FEW021 08/04 Q1024","observationTime":"2026-03-26T08:30:00.000Z","flightCategory":"VFR","latitude":47.562,"longitude":-0.317},"LFGA":{"rawOb":"METAR LFGA 260830Z AUTO 31010KT 9999 OVC056 05/M01 Q1015","observationTime":"2026-03-26T08:30:00.000Z","flightCategory":"VFR","latitude":48.11,"longitude":7.359},"LFAT":{"rawOb":"METAR LFAT 260830Z AUTO 34012KT 9999 BKN022 BKN130 BKN210 07/03 Q1021 NOSIG","observationTime":"2026-03-26T08:30:00.000Z","flightCategory":"MVFR","latitude":50.515,"longitude":1.623},"LFAC":{"rawOb":"METAR LFAC 260830Z AUTO 33013KT 9999 SCT024 BKN030 BKN035 07/02 Q1020","observationTime":"2026-03-26T08:30:00.000Z","flightCategory":"MVFR","latitude":50.962,"longitude":1.955},"YSRI":{"rawOb":"METAR YSRI 260830Z AUTO 11009KT 9999 // OVC125 21/18 Q1004","observationTime":"2026-03-26T08:30:00.000Z","flightCategory":"VFR","latitude":-33.601,"longitude":150.777},"LYKV":{"rawOb":"METAR LYKV 260830Z 14012KT 110V170 CAVOK 15/M00 Q0998 NOSIG","observationTime":"2026-03-26T08:30:00.000Z","flightCategory":"VFR","latitude":43.818,"longitude":20.587},"EPZG":{"rawOb":"METAR EPZG 260830Z 30009KT 260V330 9999 BKN016 05/01 Q1007","observationTime":"2026-03-26T08:30:00.000Z","flightCategory":"MVFR","latitude":52.137,"longitude":15.779},"EPWR":{"rawOb":"METAR EPWR 260830Z 32012KT 9999 FEW019 06/01 Q1007","observationTime":"2026-03-26T08:30:00.000Z","flightCategory":"VFR","latitude":51.1032,"longitude":16.8998},"EPSY":{"rawOb":"METAR EPSY 260830Z 32007KT 290V010 CAVOK 06/02 Q1004","observationTime":"2026-03-26T08:30:00.000Z","flightCategory":"VFR","latitude":53.482,"longitude":20.938},"EPSC":{"rawOb":"METAR EPSC 260830Z 26010KT 9999 BKN020 05/00 Q1005","observationTime":"2026-03-26T08:30:00.000Z","flightCategory":"MVFR","latitude":53.585,"longitude":14.902},"EPRA":{"rawOb":"METAR EPRA 260830Z 36009KT 330V030 8000 -RA OVC007 05/04 Q1003","observationTime":"2026-03-26T08:30:00.000Z","flightCategory":"IFR","latitude":51.39,"longitude":21.211},"LECV":{"rawOb":"METAR LECV 260830Z VRB02KT CAVOK 05/M01 Q1019","observationTime":"2026-03-26T08:30:00.000Z","flightCategory":"VFR","latitude":40.696,"longitude":-3.765},"LEEC":{"rawOb":"METAR LEEC 260830Z 04010KT CAVOK 16/09 Q1013","observationTime":"2026-03-26T08:30:00.000Z","flightCategory":"VFR","latitude":37.313,"longitude":-5.999},"EPMO":{"rawOb":"METAR EPMO 260830Z 34009KT 300V020 CAVOK 08/03 Q1004","observationTime":"2026-03-26T08:30:00.000Z","flightCategory":"VFR","latitude":52.452,"longitude":20.642},"EPLB":{"rawOb":"METAR EPLB 260830Z 33009KT 9999 -RA FEW045 09/07 Q1001","observationTime":"2026-03-26T08:30:00.000Z","flightCategory":"VFR","latitude":51.239,"longitude":22.714},"UWGG":{"rawOb":"METAR UWGG 260830Z 18003MPS 140V210 CAVOK 08/M07 Q1017 R18L/090070 NOSIG","observationTime":"2026-03-26T08:30:00.000Z","flightCategory":"VFR","latitude":56.225,"longitude":43.786},"EPKT":{"rawOb":"METAR EPKT 260830Z 36010KT 7000 -RA FEW003 BKN007 03/03 Q1003","observationTime":"2026-03-26T08:30:00.000Z","flightCategory":"IFR","latitude":50.478,"longitude":19.085},"YBHM":{"rawOb":"METAR YBHM 260830Z AUTO 12012KT 9999 // NCD 26/22 Q1011","observationTime":"2026-03-26T08:30:00.000Z","flightCategory":"VFR","latitude":-20.357,"longitude":148.949},"UUWW":{"rawOb":"METAR UUWW 260830Z 18005MPS CAVOK 08/M01 Q1014 R19/150055 NOSIG","observationTime":"2026-03-26T08:30:00.000Z","flightCategory":"VFR","latitude":55.592,"longitude":37.261},"EPBY":{"rawOb":"METAR EPBY 260830Z 30011KT 9999 BKN016 05/01 Q1005","observationTime":"2026-03-26T08:30:00.000Z","flightCategory":"MVFR","latitude":53.0962,"longitude":17.9949},"UHWW":{"rawOb":"METAR UHWW 260830Z 23004MPS 9999 OVC015 07/04 Q1013 R25L/0///70 NOSIG RMK QFE758","observationTime":"2026-03-26T08:30:00.000Z","flightCategory":"MVFR","latitude":43.399,"longitude":132.146},"UWLL":{"rawOb":"METAR UWLL 260830Z 35002MPS CAVOK 06/M01 Q1018 R20/120050 NOSIG RMK QFE753/1004","observationTime":"2026-03-26T08:30:00.000Z","flightCategory":"VFR","latitude":54.274,"longitude":48.236},"NTAA":{"rawOb":"METAR NTAA 260830Z AUTO 06007KT 040V100 9999 ///CB 27/22 Q1011 TEMPO 05020G35KT 2000 SHRA","observationTime":"2026-03-26T08:30:00.000Z","flightCategory":"VFR","latitude":-17.554,"longitude":-149.607},"UHSS":{"rawOb":"METAR UHSS 260830Z 23002MPS 9999 NSC 02/M01 Q1017 R19/70D NOSIG RMK QFE761/1015","observationTime":"2026-03-26T08:30:00.000Z","flightCategory":"VFR","latitude":46.887,"longitude":142.719},"UHMM":{"rawOb":"METAR UHMM 260830Z 22002MPS 9999 BKN036 M01/M03 Q1021 R10/250255 NOSIG RMK QFE751 R28/29002MPS","observationTime":"2026-03-26T08:30:00.000Z","flightCategory":"VFR","latitude":59.911,"longitude":150.725},"LERT":{"rawOb":"METAR LERT 260830Z 09004KT 060V130 CAVOK 14/07 Q1013 NOSIG","observationTime":"2026-03-26T08:30:00.000Z","flightCategory":"VFR","latitude":36.645,"longitude":-6.349},"KJAU":{"rawOb":"METAR KJAU 260830Z AUTO 00000KT 10SM CLR 14/09 A3008 RMK A01","observationTime":"2026-03-26T08:30:00.000Z","flightCategory":"VFR","latitude":36.3351,"longitude":-84.1635},"KEDU":{"rawOb":"METAR KEDU 260830Z AUTO 00000KT 9SM 13/10 A3002 RMK AO1","observationTime":"2026-03-26T08:30:00.000Z","flightCategory":"VFR","latitude":38.5301,"longitude":-121.7883},"LFPB":{"rawOb":"METAR LFPB 260830Z AUTO 32008KT 270V360 9999 FEW022 07/02 Q1021 TEMPO SCT025TCU","observationTime":"2026-03-26T08:30:00.000Z","flightCategory":"VFR","latitude":48.967,"longitude":2.428},"UNOO":{"rawOb":"METAR UNOO 260830Z 23004MPS 9999 BKN033CB 06/02 Q1023 R25/190063 NOSIG RMK QFE759","observationTime":"2026-03-26T08:30:00.000Z","flightCategory":"VFR","latitude":54.964,"longitude":73.32},"UNBB":{"rawOb":"METAR UNBB 260830Z 20005MPS 9999 BKN040 03/M04 Q1023 R24/810360 NOSIG RMK QFE745","observationTime":"2026-03-26T08:30:00.000Z","flightCategory":"VFR","latitude":53.362,"longitude":83.54},"LFOB":{"rawOb":"METAR LFOB 260830Z AUTO 34012KT 9999 FEW019 07/03 Q1021 NOSIG","observationTime":"2026-03-26T08:30:00.000Z","flightCategory":"VFR","latitude":49.454,"longitude":2.113},"YPPD":{"rawOb":"METAR YPPD 260830Z AUTO 06026KT 9999 // NCD 28/25 Q1004","observationTime":"2026-03-26T08:30:00.000Z","flightCategory":"VFR","latitude":-20.372,"longitude":118.632},"LFMT":{"rawOb":"METAR LFMT 260830Z AUTO 33022G32KT CAVOK 10/M02 Q1017 NOSIG","observationTime":"2026-03-26T08:30:00.000Z","flightCategory":"VFR","latitude":43.577,"longitude":3.963},"UERR":{"rawOb":"METAR UERR 260830Z 22003MPS 9999 -SHSN FEW013 OVC024CB 01/M02 Q0992 R25/290140 NOSIG RMK QFE713/0951","observationTime":"2026-03-26T08:30:00.000Z","flightCategory":"MVFR","latitude":62.538,"longitude":114.056},"CYSJ":{"rawOb":"SPECI CYSJ 260830Z 14003KT 090V180 10SM -SN SCT012 OVC048 01/M02 A3012 RMK SC4SC4 SLP208","observationTime":"2026-03-26T08:30:00.000Z","flightCategory":"VFR","latitude":45.309,"longitude":-65.886},"LYBT":{"rawOb":"METAR LYBT 260830Z 20004KT 160V220 CAVOK 15/01 Q0998 BECMG 14014KT","observationTime":"2026-03-26T08:30:00.000Z","flightCategory":"VFR","latitude":44.935,"longitude":20.258},"LFSD":{"rawOb":"METAR LFSD 260830Z AUTO 33012KT 9999 SCT021 BKN042 BKN052 04/02 Q1018","observationTime":"2026-03-26T08:30:00.000Z","flightCategory":"VFR","latitude":47.269,"longitude":5.09},"LFPM":{"rawOb":"METAR LFPM 260830Z AUTO 35012KT 9999 FEW021 07/03 Q1020","observationTime":"2026-03-26T08:30:00.000Z","flightCategory":"VFR","latitude":48.611,"longitude":2.68},"LFHP":{"rawOb":"METAR LFHP 260830Z AUTO 34020G31KT 9999 FEW022 BKN032 BKN038 00/M04 Q1016","observationTime":"2026-03-26T08:30:00.000Z","flightCategory":"VFR","latitude":45.075,"longitude":3.764},"EPWA":{"rawOb":"METAR EPWA 260830Z 34010KT 9999 FEW019 07/03 Q1004 NOSIG","observationTime":"2026-03-26T08:30:00.000Z","flightCategory":"VFR","latitude":52.163,"longitude":20.961},"LFOA":{"rawOb":"METAR LFOA 260830Z AUTO 30006KT 270V340 9999 BKN012 OVC056 04/02 Q1021 BECMG FEW028 BKN060","observationTime":"2026-03-26T08:30:00.000Z","flightCategory":"MVFR","latitude":47.052,"longitude":2.642},"LFMV":{"rawOb":"METAR LFMV 260830Z AUTO 35030G42KT 9999 FEW037 BKN056 BKN078 07/M01 Q1015 BECMG 33020G30KT","observationTime":"2026-03-26T08:30:00.000Z","flightCategory":"VFR","latitude":43.911,"longitude":4.903},"UUDD":{"rawOb":"METAR UUDD 260830Z 14004MPS CAVOK 08/M02 Q1014 R13R/CLRD65 NOSIG","observationTime":"2026-03-26T08:30:00.000Z","flightCategory":"VFR","latitude":55.409,"longitude":37.906},"EPRZ":{"rawOb":"METAR EPRZ 260830Z VRB02KT 9999 -RA BKN034 09/05 Q1001","observationTime":"2026-03-26T08:30:00.000Z","flightCategory":"VFR","latitude":50.112,"longitude":22.025},"VEBS":{"rawOb":"METAR VEBS 260830Z 18004KT 5000 HZ FEW018 36/23 Q1008 NOSIG","observationTime":"2026-03-26T08:30:00.000Z","flightCategory":"MVFR","latitude":20.244,"longitude":85.818},"EPPO":{"rawOb":"METAR EPPO 260830Z 31011KT 9999 SCT017 05/01 Q1006","observationTime":"2026-03-26T08:30:00.000Z","flightCategory":"VFR","latitude":52.417,"longitude":16.835},"EPLL":{"rawOb":"METAR EPLL 260830Z 35008KT 310V020 9999 SCT022 06/00 Q1005","observationTime":"2026-03-26T08:30:00.000Z","flightCategory":"VFR","latitude":51.724,"longitude":19.401},"KGRY":{"rawOb":"METAR KGRY 260830Z AUTO 16005KT 10SM SCT025 22/18 A3010 RMK A01","observationTime":"2026-03-26T08:30:00.000Z","flightCategory":"VFR","latitude":27.6247,"longitude":-90.4411},"EPKK":{"rawOb":"METAR EPKK 260830Z 01013KT 8000 -RA FEW011 BKN030 04/02 Q1002","observationTime":"2026-03-26T08:30:00.000Z","flightCategory":"MVFR","latitude":50.078,"longitude":19.797},"LFKC":{"rawOb":"METAR LFKC 260830Z AUTO 18010KT 150V220 9999 FEW046/// SCT060/// BKN100/// ///TCU 11/02 Q1000 BECMG 33018G28KT BKN050","observationTime":"2026-03-26T08:30:00.000Z","flightCategory":"VFR","latitude":42.531,"longitude":8.793},"YPJT":{"rawOb":"METAR YPJT 260830Z AUTO 12009KT 9999 // SCT061 30/16 Q1016","observationTime":"2026-03-26T08:30:00.000Z","flightCategory":"VFR","latitude":-32.101,"longitude":115.879},"EPGD":{"rawOb":"METAR EPGD 260830Z 27012KT 9999 BKN020 05/00 Q1003","observationTime":"2026-03-26T08:30:00.000Z","flightCategory":"MVFR","latitude":54.379,"longitude":18.466},"LYBE":{"rawOb":"METAR LYBE 260830Z 15009KT CAVOK 15/M01 Q0998 NOSIG","observationTime":"2026-03-26T08:30:00.000Z","flightCategory":"VFR","latitude":44.824,"longitude":20.291},"UOOO":{"rawOb":"METAR UOOO 260830Z 16007MPS CAVOK M21/M25 Q1003 R19/39//60 NOSIG RMK QFE736/0982","observationTime":"2026-03-26T08:30:00.000Z","flightCategory":"VFR","latitude":69.308,"longitude":87.322},"VOHB":{"rawOb":"METAR VOHB 260830Z 02004KT 8000 FEW015 34/17 Q1013","observationTime":"2026-03-26T08:30:00.000Z","flightCategory":"MVFR","latitude":15.362,"longitude":75.085},"VOTK":{"rawOb":"METAR VOTK 260830Z 12006KT 6000 FEW018 34/22 Q1009 NOSIG","observationTime":"2026-03-26T08:30:00.000Z","flightCategory":"MVFR","latitude":8.722,"longitude":78.028},"URMN":{"rawOb":"METAR URMN 260830Z 05003MPS 9999 OVC018 12/09 Q1003 R24/210155 NOSIG RMK MT OBSC QFE716","observationTime":"2026-03-26T08:30:00.000Z","flightCategory":"MVFR","latitude":43.514,"longitude":43.646},"FAOR":{"rawOb":"METAR FAOR 260830Z 31004KT 280V340 9999 BKN029 23/16 Q1026 NOSIG","observationTime":"2026-03-26T08:30:00.000Z","flightCategory":"MVFR","latitude":-26.139,"longitude":28.246},"LEAB":{"rawOb":"METAR LEAB 260830Z VRB03KT CAVOK 07/M00 Q1018 NOSIG","observationTime":"2026-03-26T08:30:00.000Z","flightCategory":"VFR","latitude":38.952,"longitude":-1.863},"VASU":{"rawOb":"METAR VASU 260830Z 34010KT 6000 NSC 36/18 Q1011 NOSIG","observationTime":"2026-03-26T08:30:00.000Z","flightCategory":"MVFR","latitude":21.114,"longitude":72.742},"VEAY":{"rawOb":"METAR VEAY 260830Z 30008KT 5000 HZ NSC 33/08 Q1009 NOSIG","observationTime":"2026-03-26T08:30:00.000Z","flightCategory":"MVFR","latitude":26.7484,"longitude":82.1624},"BIKF":{"rawOb":"METAR BIKF 260830Z 09036KT 0400 R10///// / BLSN OVC400 M01/M01 Q0987","observationTime":"2026-03-26T08:30:00.000Z","flightCategory":"LIFR","latitude":63.987,"longitude":-22.614},"YBCS":{"rawOb":"METAR YBCS 260830Z AUTO 14013KT 9999 // NCD 27/22 Q1010","observationTime":"2026-03-26T08:30:00.000Z","flightCategory":"VFR","latitude":-16.874,"longitude":145.745},"LFRL":{"rawOb":"METAR LFRL 260830Z AUTO 32009KT 9999 FEW027 SCT033 BKN040 09/05 Q1026 TEMPO 33015G25KT 4000 SHRA BKN025TCU","observationTime":"2026-03-26T08:30:00.000Z","flightCategory":"VFR","latitude":48.279,"longitude":-4.439},"YBTL":{"rawOb":"METAR YBTL 260830Z AUTO 06007KT 9999 // NCD 27/23 Q1011","observationTime":"2026-03-26T08:30:00.000Z","flightCategory":"VFR","latitude":-19.248,"longitude":146.766},"VTBD":{"rawOb":"METAR VTBD 260830Z 15007KT 110V210 9999 FEW020 37/22 Q1006 NOSIG","observationTime":"2026-03-26T08:30:00.000Z","flightCategory":"VFR","latitude":13.913,"longitude":100.607},"YPDN":{"rawOb":"METAR YPDN 260830Z AUTO 35005KT 9999 // FEW060 31/25 Q1008","observationTime":"2026-03-26T08:30:00.000Z","flightCategory":"VFR","latitude":-12.424,"longitude":130.893},"YPTN":{"rawOb":"METAR YPTN 260830Z AUTO 13009KT 9999 // NCD 32/21 Q1008","observationTime":"2026-03-26T08:30:00.000Z","flightCategory":"VFR","latitude":-14.523,"longitude":132.383},"LESB":{"rawOb":"METAR LESB 260830Z AUTO 06013KT 030V090 9999 FEW034 SCT038 BKN042 11/06 Q1016","observationTime":"2026-03-26T08:30:00.000Z","flightCategory":"VFR","latitude":39.599,"longitude":2.703},"VOTR":{"rawOb":"METAR VOTR 260830Z 08004KT 5000 HZ FEW020 36/23 Q1009 NOSIG","observationTime":"2026-03-26T08:30:00.000Z","flightCategory":"MVFR","latitude":10.765,"longitude":78.71},"VEGT":{"rawOb":"METAR VEGT 260830Z 29005KT 4000 HZ FEW020 29/20 Q1010 NOSIG","observationTime":"2026-03-26T08:30:00.000Z","flightCategory":"IFR","latitude":26.107,"longitude":91.587},"URKK":{"rawOb":"METAR URKK 260830Z 21004MPS 9999 BKN036 13/10 Q1005 R23L/290060 NOSIG RMK QFE751","observationTime":"2026-03-26T08:30:00.000Z","flightCategory":"VFR","latitude":45.033,"longitude":39.15},"VOTP":{"rawOb":"METAR VOTP 260830Z 06006KT 6000 FEW020 35/20 Q1010 NOSIG","observationTime":"2026-03-26T08:30:00.000Z","flightCategory":"MVFR","latitude":13.633,"longitude":79.543},"WBGG":{"rawOb":"METAR WBGG 260830Z 01006KT 300V100 9999 FEW020 30/24 Q1007 NOSIG","observationTime":"2026-03-26T08:30:00.000Z","flightCategory":"VFR","latitude":1.484,"longitude":110.34},"LFRB":{"rawOb":"METAR LFRB 260830Z AUTO 33009KT 9999 SCT033 BKN054 08/03 Q1026 TEMPO 34015G25KT 4000 -SHRA","observationTime":"2026-03-26T08:30:00.000Z","flightCategory":"VFR","latitude":48.444,"longitude":-4.412},"LELL":{"rawOb":"METAR LELL 260830Z 06003KT CAVOK 10/01 Q1016","observationTime":"2026-03-26T08:30:00.000Z","flightCategory":"VFR","latitude":41.521,"longitude":2.105},"WBKK":{"rawOb":"METAR WBKK 260830Z VRB06KT 9999 FEW015 30/24 Q1006 NOSIG","observationTime":"2026-03-26T08:30:00.000Z","flightCategory":"VFR","latitude":5.937,"longitude":116.051},"VEDO":{"rawOb":"METAR VEDO 260830Z 27011KT 7000 NSC 34/08 Q1010 NOSIG","observationTime":"2026-03-26T08:30:00.000Z","flightCategory":"MVFR","latitude":24.446,"longitude":86.707},"WBSB":{"rawOb":"METAR WBSB 260830Z 35010KT 9999 FEW015CB BKN300 29/24 Q1008 NOSIG","observationTime":"2026-03-26T08:30:00.000Z","flightCategory":"VFR","latitude":4.944,"longitude":114.928},"VEPT":{"rawOb":"METAR VEPT 260830Z 32008KT 6000 NSC 34/07 Q1009 NOSIG","observationTime":"2026-03-26T08:30:00.000Z","flightCategory":"MVFR","latitude":25.591,"longitude":85.088},"YPKU":{"rawOb":"METAR YPKU 260830Z AUTO 06009KT 020V090 8000 SHRA SCT054 SCT068 OVC096 26/24 Q1009","observationTime":"2026-03-26T08:30:00.000Z","flightCategory":"MVFR","latitude":-15.781,"longitude":128.71},"WMKK":{"rawOb":"METAR WMKK 260830Z 23005KT 160V320 9000 FEW018 32/23 Q1006 NOSIG","observationTime":"2026-03-26T08:30:00.000Z","flightCategory":"VFR","latitude":2.747,"longitude":101.714},"VIGG":{"rawOb":"METAR VIGG 260830Z 24003KT 6000 FEW035 BKN080 26/13 Q1016","observationTime":"2026-03-26T08:30:00.000Z","flightCategory":"MVFR","latitude":32.165,"longitude":76.263},"LEVS":{"rawOb":"METAR LEVS 260830Z VRB04KT CAVOK 08/M03 Q1020","observationTime":"2026-03-26T08:30:00.000Z","flightCategory":"VFR","latitude":40.371,"longitude":-3.785},"WMKP":{"rawOb":"METAR WMKP 260830Z 25008KT 220V300 8000 FEW020 33/22 Q1005 NOSIG","observationTime":"2026-03-26T08:30:00.000Z","flightCategory":"MVFR","latitude":5.297,"longitude":100.277},"VOBG":{"rawOb":"METAR VOBG 260830Z 09012KT 8000 NSC 33/10 Q1015 NOSIG","observationTime":"2026-03-26T08:30:00.000Z","flightCategory":"MVFR","latitude":12.949,"longitude":77.663},"VOPB":{"rawOb":"METAR VOPB 260830Z 08010KT 6000 FEW016 31/23 Q1008 NOSIG","observationTime":"2026-03-26T08:30:00.000Z","flightCategory":"MVFR","latitude":11.641,"longitude":92.73},"LZPP":{"rawOb":"METAR LZPP 260830Z 01021KT 9999 -RA SCT015 OVC049 05/03 Q1000","observationTime":"2026-03-26T08:30:00.000Z","flightCategory":"VFR","latitude":48.613,"longitude":17.832},"VABB":{"rawOb":"METAR VABB 260830Z 30013KT 4000 FU NSC 34/24 Q1010 NOSIG","observationTime":"2026-03-26T08:30:00.000Z","flightCategory":"IFR","latitude":19.1,"longitude":72.859},"UUEE":{"rawOb":"METAR UUEE 260830Z 17005MPS 140V200 CAVOK 09/M05 Q1013 R24L/250145 R24C/250145 NOSIG","observationTime":"2026-03-26T08:30:00.000Z","flightCategory":"VFR","latitude":55.973,"longitude":37.415},"VEBI":{"rawOb":"METAR VEBI 260830Z 29006KT 4500 HZ SCT020 SCT090 25/14 Q1014 NOSIG","observationTime":"2026-03-26T08:30:00.000Z","flightCategory":"IFR","latitude":25.704,"longitude":91.979},"VEGY":{"rawOb":"METAR VEGY 260830Z 30012KT 7000 NSC 35/04 Q1009 NOSIG","observationTime":"2026-03-26T08:30:00.000Z","flightCategory":"MVFR","latitude":24.744,"longitude":84.951},"VADU":{"rawOb":"METAR VADU 260830Z 20006KT 6000 NSC 31/23 Q1011 NOSIG","observationTime":"2026-03-26T08:30:00.000Z","flightCategory":"MVFR","latitude":20.714,"longitude":70.923},"LETU":{"rawOb":"METAR LETU 260830Z AUTO 32018G29KT 9999 FEW034/// SCT040/// BKN057/// 08/01 Q1022","observationTime":"2026-03-26T08:30:00.000Z","flightCategory":"VFR","latitude":-99.99,"longitude":-99.99},"YCIN":{"rawOb":"METAR YCIN 260830Z AUTO 32009KT 9999 // NCD 31/24 Q1008","observationTime":"2026-03-26T08:30:00.000Z","flightCategory":"VFR","latitude":-17.574,"longitude":123.831},"VORY":{"rawOb":"METAR VORY 260830Z 22008KT 6000 FEW020 34/19 Q1009 NOSIG","observationTime":"2026-03-26T08:30:00.000Z","flightCategory":"MVFR","latitude":17.11,"longitude":81.818},"LEBR":{"rawOb":"METAR LEBR 260830Z AUTO 32019G30KT 9999 FEW018/// BKN057/// 08/02 Q1021","observationTime":"2026-03-26T08:30:00.000Z","flightCategory":"VFR","latitude":42.2,"longitude":-1.43},"LELO":{"rawOb":"METAR LELO 260830Z 26015KT 9999 FEW020 BKN035 07/02 Q1024","observationTime":"2026-03-26T08:30:00.000Z","flightCategory":"VFR","latitude":42.452,"longitude":-2.331},"LEBT":{"rawOb":"METAR LEBT 260830Z AUTO 33007KT 260V050 CAVOK 14/M02 Q1017","observationTime":"2026-03-26T08:30:00.000Z","flightCategory":"VFR","latitude":39.58,"longitude":-0.45},"VOPC":{"rawOb":"METAR VOPC 260830Z 09010KT 6000 FEW020 33/23 Q1010 NOSIG","observationTime":"2026-03-26T08:30:00.000Z","flightCategory":"MVFR","latitude":11.969,"longitude":79.81},"LESU":{"rawOb":"METAR LESU 260830Z 33006KT 290V010 CAVOK 10/M13 Q1014","observationTime":"2026-03-26T08:30:00.000Z","flightCategory":"VFR","latitude":42.337,"longitude":1.406},"LEHC":{"rawOb":"METAR LEHC 260830Z 29022KT 260V320 CAVOK 08/M02 Q1016","observationTime":"2026-03-26T08:30:00.000Z","flightCategory":"VFR","latitude":42.082,"longitude":-0.324},"UBBF":{"rawOb":"METAR UBBF 260830Z 34012KT 9999 SCT016 14/11 Q1003 NOSIG","observationTime":"2026-03-26T08:30:00.000Z","flightCategory":"VFR","latitude":39.595,"longitude":47.196},"VHHH":{"rawOb":"METAR VHHH 260830Z 21010KT 180V240 9999 FEW020 SCT040 27/20 Q1010 NOSIG","observationTime":"2026-03-26T08:30:00.000Z","flightCategory":"VFR","latitude":22.309,"longitude":113.922},"LEBA":{"rawOb":"METAR LEBA 260830Z 09009KT CAVOK 14/07 Q1015","observationTime":"2026-03-26T08:30:00.000Z","flightCategory":"VFR","latitude":37.842,"longitude":-4.849},"YBSU":{"rawOb":"METAR YBSU 260830Z AUTO 36007KT 9999 // NCD 25/22 Q1008","observationTime":"2026-03-26T08:30:00.000Z","flightCategory":"VFR","latitude":-26.603,"longitude":153.091},"GMTT":{"rawOb":"METAR GMTT 260830Z 10005KT CAVOK 17/12 Q1010 NOSIG","observationTime":"2026-03-26T08:30:00.000Z","flightCategory":"VFR","latitude":35.727,"longitude":-5.917},"UMIO":{"rawOb":"METAR UMIO 260830Z 17005G08MPS 140V200 CAVOK 11/M01 Q1008 NOSIG RMK QFE739/0985","observationTime":"2026-03-26T08:30:00.000Z","flightCategory":"VFR","latitude":54.44,"longitude":30.297},"USSS":{"rawOb":"METAR USSS 260830Z 17002MPS 130V210 9999 FEW011 10/07 Q1022 R26L/120060 NOSIG RMK QFE745/0994","observationTime":"2026-03-26T08:30:00.000Z","flightCategory":"VFR","latitude":56.745,"longitude":60.792},"GMMX":{"rawOb":"METAR GMMX 260830Z 08007KT 9999 FEW023 SCT080 16/13 Q1012 NOSIG","observationTime":"2026-03-26T08:30:00.000Z","flightCategory":"VFR","latitude":31.607,"longitude":-8.036},"USRR":{"rawOb":"METAR USRR 260830Z 25008MPS CAVOK 07/M04 Q1014 R25/CLRD// RMK QFE755","observationTime":"2026-03-26T08:30:00.000Z","flightCategory":"VFR","latitude":61.342,"longitude":73.422},"GMMN":{"rawOb":"METAR GMMN 260830Z VRB02KT 6000 SCT010 16/15 Q1011 NOSIG","observationTime":"2026-03-26T08:30:00.000Z","flightCategory":"MVFR","latitude":33.367,"longitude":-7.59},"USPP":{"rawOb":"METAR USPP 260830Z VRB01MPS CAVOK 11/M03 Q1021 R21/090070 NOSIG RMK QFE755","observationTime":"2026-03-26T08:30:00.000Z","flightCategory":"VFR","latitude":57.914,"longitude":56.021},"LUKK":{"rawOb":"METAR LUKK 260830Z 18009KT 140V210 CAVOK 14/01 Q1006 NOSIG","observationTime":"2026-03-26T08:30:00.000Z","flightCategory":"VFR","latitude":46.928,"longitude":28.931},"UGTB":{"rawOb":"METAR UGTB 260830Z 19003KT 140V220 9999 FEW008 BKN011 OVC013 13/11 Q1005 NOSIG","observationTime":"2026-03-26T08:30:00.000Z","flightCategory":"MVFR","latitude":41.669,"longitude":44.955},"KVYS":{"rawOb":"METAR KVYS 260830Z AUTO 15007KT 10SM CLR 14/10 A2974 RMK AO2 T01370096","observationTime":"2026-03-26T08:30:00.000Z","flightCategory":"VFR","latitude":41.3518,"longitude":-89.1496},"UGSB":{"rawOb":"METAR UGSB 260830Z 27004KT 9999 SCT017 BKN038 11/10 Q1007 NOSIG","observationTime":"2026-03-26T08:30:00.000Z","flightCategory":"VFR","latitude":41.61,"longitude":41.6},"UGKO":{"rawOb":"METAR UGKO 260830Z 29003KT 250V330 9999 SCT005 BKN007 10/09 Q1006 NOSIG","observationTime":"2026-03-26T08:30:00.000Z","flightCategory":"IFR","latitude":42.177,"longitude":42.483},"GMME":{"rawOb":"METAR GMME 260830Z 20007KT 4000 BR SCT008 BKN016 16/15 Q1010 NOSIG","observationTime":"2026-03-26T08:30:00.000Z","flightCategory":"IFR","latitude":34.051,"longitude":-6.752},"LFMU":{"rawOb":"METAR LFMU 260830Z AUTO 32021KT CAVOK 10/M01 Q1019 BECMG 32025G37KT","observationTime":"2026-03-26T08:30:00.000Z","flightCategory":"VFR","latitude":43.322,"longitude":3.353},"GMAD":{"rawOb":"METAR GMAD 260830Z COR 18008KT 6000 BKN004 17/17 Q1010 NOSIG","observationTime":"2026-03-26T08:30:00.000Z","flightCategory":"LIFR","latitude":30.325,"longitude":-9.413},"ETOU":{"rawOb":"SPECI ETOU 260830Z AUTO 34011G16KT 9999 SCT027 BKN034 BKN048 06/M02 A2994 RMK AO2 SLP144 $","observationTime":"2026-03-26T08:30:00.000Z","flightCategory":"VFR","latitude":50.048,"longitude":8.329},"LFMN":{"rawOb":"METAR LFMN 260830Z 32019KT CAVOK 13/M12 Q1000 BECMG 33010KT","observationTime":"2026-03-26T08:30:00.000Z","flightCategory":"VFR","latitude":43.658,"longitude":7.216},"YBMA":{"rawOb":"METAR YBMA 260830Z AUTO 08004KT 9999 // OVC099 31/18 Q1012","observationTime":"2026-03-26T08:30:00.000Z","flightCategory":"VFR","latitude":-20.678,"longitude":139.488},"LFMK":{"rawOb":"METAR LFMK 260830Z AUTO 29022KT 9999 SCT027 08/02 Q1021 TEMPO 30020G35KT","observationTime":"2026-03-26T08:30:00.000Z","flightCategory":"VFR","latitude":43.214,"longitude":2.31},"LFBF":{"rawOb":"METAR LFBF 260830Z AUTO 31013KT 9999 // FEW026 08/02 Q1024","observationTime":"2026-03-26T08:30:00.000Z","flightCategory":"VFR","latitude":43.546,"longitude":1.367},"LFBE":{"rawOb":"METAR LFBE 260830Z AUTO 32005KT 280V360 CAVOK 07/02 Q1024 TEMPO 34015KT","observationTime":"2026-03-26T08:30:00.000Z","flightCategory":"VFR","latitude":44.826,"longitude":0.516},"UGMS":{"rawOb":"METAR UGMS 260830Z AUTO 24005KT 200V340 //// ////// 11/05 Q1006","observationTime":"2026-03-26T08:30:00.000Z","flightCategory":"null","latitude":43.055,"longitude":42.75},"USDD":{"rawOb":"METAR USDD 260830Z 29010G15MPS 9999 SCT031CB 04/M01 Q1005 R22/CLRD60 NOSIG RMK QFE749/0999","observationTime":"2026-03-26T08:30:00.000Z","flightCategory":"VFR","latitude":66.591,"longitude":66.611},"YBBN":{"rawOb":"METAR YBBN 260830Z AUTO 01014KT 9999 // NCD 26/23 Q1008","observationTime":"2026-03-26T08:30:00.000Z","flightCategory":"VFR","latitude":-27.391,"longitude":153.13},"UGAM":{"rawOb":"METAR UGAM 260830Z VRB02KT 9999 SCT050 13/11 Q1004","observationTime":"2026-03-26T08:30:00.000Z","flightCategory":"VFR","latitude":42.527,"longitude":43.135},"WAPP":{"rawOb":"METAR WAPP 260830Z 23003KT 190V280 9999 SCT017 29/25 Q1007 NOSIG","observationTime":"2026-03-26T08:30:00.000Z","flightCategory":"VFR","latitude":-3.71,"longitude":128.089},"VAUD":{"rawOb":"METAR VAUD 260830Z 27010KT 6000 FEW030 35/06 Q1013 NOSIG","observationTime":"2026-03-26T08:30:00.000Z","flightCategory":"MVFR","latitude":24.618,"longitude":73.896},"USCC":{"rawOb":"METAR USCC 260830Z 12003MPS CAVOK 12/07 Q1021 R27/000060 NOSIG RMK QFE746","observationTime":"2026-03-26T08:30:00.000Z","flightCategory":"VFR","latitude":55.306,"longitude":61.503},"KLOM":{"rawOb":"METAR KLOM 260830Z AUTO 22006KT 10SM OVC100 09/05 A3003 RMK AO2 T00900048","observationTime":"2026-03-26T08:30:00.000Z","flightCategory":"VFR","latitude":40.1376,"longitude":-75.2684},"VQPR":{"rawOb":"METAR VQPR 260830Z VRB03KT 9999 SCT035 BKN065 19/05 Q1017","observationTime":"2026-03-26T08:30:00.000Z","flightCategory":"VFR","latitude":27.403,"longitude":89.425},"VOSR":{"rawOb":"METAR VOSR 260830Z 27010KT 6000 NSC 33/21 Q1009 NOSIG","observationTime":"2026-03-26T08:30:00.000Z","flightCategory":"MVFR","latitude":16.001,"longitude":73.534},"UWUU":{"rawOb":"METAR UWUU 260830Z 09002MPS CAVOK 08/04 Q1019 R32L/0///95 NOSIG","observationTime":"2026-03-26T08:30:00.000Z","flightCategory":"VFR","latitude":54.57,"longitude":55.87},"OTBD":{"rawOb":"METAR OTBD 260830Z 14019KT CAVOK 27/23 Q1003 NOSIG","observationTime":"2026-03-26T08:30:00.000Z","flightCategory":"VFR","latitude":25.261,"longitude":51.565},"PFCB":{"rawOb":"METAR PFCB 260830Z AUTO 01004KT 10SM CLR M01/M11 A3010 RMK AO2 T10071114","observationTime":"2026-03-26T08:30:00.000Z","flightCategory":"VFR","latitude":60.0785,"longitude":-147.9947},"VTCC":{"rawOb":"METAR VTCC 260830Z 17005KT 100V240 4500 FU FEW035 37/09 Q1007 NOSIG","observationTime":"2026-03-26T08:30:00.000Z","flightCategory":"IFR","latitude":18.771,"longitude":98.963},"HRYR":{"rawOb":"METAR HRYR 260830Z 12003KT 6000 SCT023 22/17 Q1022 NOSIG","observationTime":"2026-03-26T08:30:00.000Z","flightCategory":"MVFR","latitude":-1.969,"longitude":30.14},"LQBK":{"rawOb":"METAR LQBK 260830Z 33009KT 9999 FEW033 10/04 Q0995 NOSIG","observationTime":"2026-03-26T08:30:00.000Z","flightCategory":"VFR","latitude":44.937,"longitude":17.299},"LQMO":{"rawOb":"METAR LQMO 260830Z 17023KT 9999 -RA BKN045 14/03 Q0997","observationTime":"2026-03-26T08:30:00.000Z","flightCategory":"VFR","latitude":43.285,"longitude":17.84},"LQSA":{"rawOb":"METAR LQSA 260830Z 14012G23KT 090V190 9999 BKN055 12/M01 Q0995 NOSIG","observationTime":"2026-03-26T08:30:00.000Z","flightCategory":"VFR","latitude":43.825,"longitude":18.331},"LQTZ":{"rawOb":"METAR LQTZ 260830Z 14011KT 110V180 9999 SCT065 14/01 Q0995","observationTime":"2026-03-26T08:30:00.000Z","flightCategory":"VFR","latitude":44.461,"longitude":18.728},"VEBU":{"rawOb":"METAR VEBU 260830Z 34004KT 5000 HZ NSC 38/09 Q1010 NOSIG","observationTime":"2026-03-26T08:30:00.000Z","flightCategory":"MVFR","latitude":21.988,"longitude":82.111},"UWOO":{"rawOb":"METAR UWOO 260830Z 08004MPS CAVOK 07/03 Q1018 R08/120057 NOSIG RMK QFE753/1004","observationTime":"2026-03-26T08:30:00.000Z","flightCategory":"VFR","latitude":51.795,"longitude":55.457},"PASY":{"rawOb":"SPECI PASY 260830Z AUTO 15020KT M M OVC006 04/04 A3003 RMK AO2 CIG 003V006 SLP173 RVRNO PWINO FZRANO $","observationTime":"2026-03-26T08:30:00.000Z","flightCategory":"null","latitude":52.711,"longitude":174.107},"K18H":{"rawOb":"METAR K18H 260830Z AUTO 14009KT 120V180 10SM SCT031 BKN039 25/16 A3005 RMK A01","observationTime":"2026-03-26T08:30:00.000Z","flightCategory":"VFR","latitude":26.1283,"longitude":-92.0333},"TFFJ":{"rawOb":"METAR TFFJ 260830Z AUTO 10011KT 070V140 CAVOK 25/20 Q1014","observationTime":"2026-03-26T08:30:00.000Z","flightCategory":"VFR","latitude":17.904,"longitude":-62.844},"EIDW":{"rawOb":"METAR EIDW 260830Z 24004KT 200V280 9999 -RADZ FEW010 BKN080 04/03 Q1024 NOSIG","observationTime":"2026-03-26T08:30:00.000Z","flightCategory":"VFR","latitude":53.422,"longitude":-6.298},"VOHY":{"rawOb":"METAR VOHY 260830Z 26007KT 6000 NSC 36/13 Q1013 NOSIG","observationTime":"2026-03-26T08:30:00.000Z","flightCategory":"MVFR","latitude":17.453,"longitude":78.468},"VAOZ":{"rawOb":"METAR VAOZ 260830Z 18005KT 6000 FEW040 36/10 Q1014 NOSIG","observationTime":"2026-03-26T08:30:00.000Z","flightCategory":"MVFR","latitude":20.119,"longitude":73.914},"EINN":{"rawOb":"METAR EINN 260830Z 23006KT 9999 FEW015 BKN027 07/05 Q1025 NOSIG","observationTime":"2026-03-26T08:30:00.000Z","flightCategory":"MVFR","latitude":52.702,"longitude":-8.925},"YBRK":{"rawOb":"METAR YBRK 260830Z AUTO 01009KT 9999 // SCT105 27/20 Q1010","observationTime":"2026-03-26T08:30:00.000Z","flightCategory":"VFR","latitude":-23.375,"longitude":150.477},"EICK":{"rawOb":"METAR EICK 260830Z 25007KT 220V280 9999 FEW028 BKN090 06/03 Q1026 NOSIG","observationTime":"2026-03-26T08:30:00.000Z","flightCategory":"VFR","latitude":51.848,"longitude":-8.479},"VTBS":{"rawOb":"METAR VTBS 260830Z 19007KT 160V220 9999 FEW020 35/22 Q1006 NOSIG","observationTime":"2026-03-26T08:30:00.000Z","flightCategory":"VFR","latitude":13.686,"longitude":100.767},"VOMM":{"rawOb":"METAR VOMM 260830Z 11007KT 6000 FEW020 32/24 Q1010 NOSIG","observationTime":"2026-03-26T08:30:00.000Z","flightCategory":"MVFR","latitude":12.994,"longitude":80.18},"UWKD":{"rawOb":"METAR UWKD 260830Z 07002MPS 040V100 CAVOK 07/M02 Q1019 R11/CLRD70 NOSIG RMK QFE754/1006","observationTime":"2026-03-26T08:30:00.000Z","flightCategory":"VFR","latitude":55.61,"longitude":49.275},"KPXE":{"rawOb":"METAR KPXE 260830Z AUTO 00000KT 2SM BR CLR 10/10 A3019 RMK AO2 VIS 1 1/4V4","observationTime":"2026-03-26T08:30:00.000Z","flightCategory":"IFR","latitude":32.5072,"longitude":-83.7656},"OPMT":{"rawOb":"METAR OPMT 260830Z 05016KT 5000 DRDU SCT040 OVC100 25/16 Q1014 TEMPO 36015G25KT 2000 BLDU","observationTime":"2026-03-26T08:30:00.000Z","flightCategory":"MVFR","latitude":30.203,"longitude":71.419},"VAJB":{"rawOb":"METAR VAJB 260830Z VRB03KT 6000 FEW030 34/10 Q1012 NOSIG","observationTime":"2026-03-26T08:30:00.000Z","flightCategory":"MVFR","latitude":23.178,"longitude":80.05},"VIAR":{"rawOb":"METAR VIAR 260830Z 32006KT 6000 FEW100 28/16 Q1013 NOSIG","observationTime":"2026-03-26T08:30:00.000Z","flightCategory":"MVFR","latitude":31.707,"longitude":74.801},"UUOO":{"rawOb":"METAR UUOO 260830Z 09004MPS CAVOK 10/M01 Q1013 R12/010070 NOSIG RMK QFE746","observationTime":"2026-03-26T08:30:00.000Z","flightCategory":"VFR","latitude":51.814,"longitude":39.228},"LEBB":{"rawOb":"METAR LEBB 260830Z 03008KT 330V070 9999 -RA SCT029 BKN065 11/06 Q1026 TEMPO RA","observationTime":"2026-03-26T08:30:00.000Z","flightCategory":"VFR","latitude":43.298,"longitude":-2.906},"KU55":{"rawOb":"METAR KU55 260830Z AUTO 16011KT 10SM SCT032 07/M03 A3014 RMK A01","observationTime":"2026-03-26T08:30:00.000Z","flightCategory":"VFR","latitude":37.8511,"longitude":-112.3912},"LKTB":{"rawOb":"METAR LKTB 260830Z 35018KT 9999 -RA FEW016 BKN020 OVC049 04/01 Q1003 NOSIG","observationTime":"2026-03-26T08:30:00.000Z","flightCategory":"MVFR","latitude":49.151,"longitude":16.694},"LKPR":{"rawOb":"METAR LKPR 260830Z 30008KT 9999 SCT021 BKN034 04/01 Q1008 NOSIG","observationTime":"2026-03-26T08:30:00.000Z","flightCategory":"VFR","latitude":50.101,"longitude":14.26},"RKSI":{"rawOb":"METAR RKSI 260830Z 29007KT 260V320 3000 0400SW PRFG BKN002 06/06 Q1014 NOSIG","observationTime":"2026-03-26T08:30:00.000Z","flightCategory":"LIFR","latitude":37.469,"longitude":126.451},"VILK":{"rawOb":"METAR VILK 260830Z 32010KT 5000 DU NSC 35/09 Q1010 NOSIG","observationTime":"2026-03-26T08:30:00.000Z","flightCategory":"MVFR","latitude":26.761,"longitude":80.889},"RJAA":{"rawOb":"METAR RJAA 260830Z 02009KT 9999 -RA FEW005 SCT010 BKN030 12/11 Q1010 NOSIG","observationTime":"2026-03-26T08:30:00.000Z","flightCategory":"MVFR","latitude":35.765,"longitude":140.386},"RJBB":{"rawOb":"METAR RJBB 260830Z 03011KT 9999 FEW020 SCT045 14/09 Q1011 NOSIG","observationTime":"2026-03-26T08:30:00.000Z","flightCategory":"VFR","latitude":34.434,"longitude":135.233},"RJCC":{"rawOb":"METAR RJCC 260830Z 18013KT 9999 FEW040 SCT060 05/M06 Q1017","observationTime":"2026-03-26T08:30:00.000Z","flightCategory":"VFR","latitude":42.774,"longitude":141.693},"RJFF":{"rawOb":"METAR RJFF 260830Z 32011KT CAVOK 15/08 Q1013 NOSIG","observationTime":"2026-03-26T08:30:00.000Z","flightCategory":"VFR","latitude":33.584,"longitude":130.452},"RJGG":{"rawOb":"METAR RJGG 260830Z 31017KT 9999 FEW020 14/09 Q1009 NOSIG","observationTime":"2026-03-26T08:30:00.000Z","flightCategory":"VFR","latitude":34.858,"longitude":136.805},"RJTT":{"rawOb":"METAR RJTT 260830Z 03016KT 9999 FEW015 BKN030 BKN110 13/10 Q1010 NOSIG","observationTime":"2026-03-26T08:30:00.000Z","flightCategory":"MVFR","latitude":35.553,"longitude":139.781},"ROAH":{"rawOb":"METAR ROAH 260830Z 01014KT 9999 FEW025 21/13 Q1012","observationTime":"2026-03-26T08:30:00.000Z","flightCategory":"VFR","latitude":26.196,"longitude":127.646},"RCKH":{"rawOb":"METAR RCKH 260830Z 27010KT 9999 FEW025 BKN050 26/21 Q1010 NOSIG RMK 28010KT/R09 A2984","observationTime":"2026-03-26T08:30:00.000Z","flightCategory":"VFR","latitude":22.577,"longitude":120.35},"RCTP":{"rawOb":"METAR RCTP 260830Z 02008KT 9999 FEW020 BKN045 22/17 Q1011 NOSIG RMK A2988","observationTime":"2026-03-26T08:30:00.000Z","flightCategory":"VFR","latitude":25.078,"longitude":121.233},"KM04":{"rawOb":"METAR KM04 260830Z AUTO 19005KT 10SM 18/12 A2999 RMK A01","observationTime":"2026-03-26T08:30:00.000Z","flightCategory":"VFR","latitude":35.5819,"longitude":-89.5858},"LCLK":{"rawOb":"METAR LCLK 260830Z 01008KT 340V040 9999 FEW025 FEW030CB SCT035 19/11 Q1001 NOSIG RMK CB TO SE","observationTime":"2026-03-26T08:30:00.000Z","flightCategory":"VFR","latitude":34.874,"longitude":33.617},"LKMT":{"rawOb":"METAR LKMT 260830Z 08008KT 9999 -RA BKN008 OVC012 03/02 Q1004 NOSIG","observationTime":"2026-03-26T08:30:00.000Z","flightCategory":"IFR","latitude":49.696,"longitude":18.111},"UTDL":{"rawOb":"METAR UTDL 260830Z 07008MPS 9999 NSC 23/M02 Q1010 R08/CLRD70 NOSIG RMK QFE719/0958","observationTime":"2026-03-26T08:30:00.000Z","flightCategory":"VFR","latitude":40.215,"longitude":69.695},"KJVL":{"rawOb":"METAR KJVL 260830Z AUTO 13003KT 10SM CLR 07/05 A2973 RMK AO2","observationTime":"2026-03-26T08:30:00.000Z","flightCategory":"VFR","latitude":42.6213,"longitude":-89.0419},"KOJA":{"rawOb":"METAR KOJA 260830Z AUTO 19008KT 10SM CLR 20/14 A2988 RMK AO2 T02010144","observationTime":"2026-03-26T08:30:00.000Z","flightCategory":"VFR","latitude":35.5484,"longitude":-98.6702},"KBQP":{"rawOb":"METAR KBQP 260830Z AUTO 00000KT CLR 18/12 A3007 RMK AO2 T01760124 PWINO","observationTime":"2026-03-26T08:30:00.000Z","flightCategory":"null","latitude":32.7583,"longitude":-91.8793},"KE16":{"rawOb":"METAR KE16 260830Z AUTO 01003KT 8SM CLR 11/07 A3010 RMK AO2","observationTime":"2026-03-26T08:30:00.000Z","flightCategory":"VFR","latitude":37.0797,"longitude":-121.598},"KIPJ":{"rawOb":"METAR KIPJ 260830Z AUTO 00000KT 10SM SCT070 BKN085 12/07 A3017 RMK AO2 T01160071","observationTime":"2026-03-26T08:30:00.000Z","flightCategory":"VFR","latitude":35.4861,"longitude":-81.1564},"LKKV":{"rawOb":"METAR LKKV 260830Z 29011KT 9999 BKN024 BKN029 01/M02 Q1008","observationTime":"2026-03-26T08:30:00.000Z","flightCategory":"MVFR","latitude":50.202,"longitude":12.91},"LFPV":{"rawOb":"METAR LFPV 260830Z AUTO 35007KT 290V020 9999 BKN020 06/02 Q1020 NOSIG","observationTime":"2026-03-26T08:30:00.000Z","flightCategory":"MVFR","latitude":48.77,"longitude":2.205},"KRNH":{"rawOb":"METAR KRNH 260830Z AUTO 34004KT 10SM CLR 08/05 A2972 RMK AO2 T00800049","observationTime":"2026-03-26T08:30:00.000Z","flightCategory":"VFR","latitude":45.1476,"longitude":-92.5335},"LFSO":{"rawOb":"METAR LFSO 260830Z AUTO 31010KT 9999 OVC012 03/01 Q1016 TEMPO 32015G25KT 3500 SHRA BKN010TCU BKN020 OVC040","observationTime":"2026-03-26T08:30:00.000Z","flightCategory":"MVFR","latitude":48.583,"longitude":5.955},"USNN":{"rawOb":"METAR USNN 260830Z 27003MPS CAVOK 07/M04 Q1014 R21/0///65 NOSIG RMK QFE756","observationTime":"2026-03-26T08:30:00.000Z","flightCategory":"VFR","latitude":60.959,"longitude":76.497},"LFRM":{"rawOb":"METAR LFRM 260830Z AUTO 30007KT 260V330 CAVOK 07/02 Q1023 TEMPO SCT030TCU","observationTime":"2026-03-26T08:30:00.000Z","flightCategory":"VFR","latitude":47.949,"longitude":0.202},"KCNI":{"rawOb":"METAR KCNI 260830Z AUTO 00000KT 10SM SCT060 11/08 A3019 RMK AO2 T01130082","observationTime":"2026-03-26T08:30:00.000Z","flightCategory":"VFR","latitude":34.31,"longitude":-84.424},"LFQQ":{"rawOb":"METAR LFQQ 260830Z AUTO 29010KT 9999 ///TCU 06/03 Q1019 TEMPO VRB20G35KT 4000 SHRAGS SCT014 BKN020CB","observationTime":"2026-03-26T08:30:00.000Z","flightCategory":"VFR","latitude":50.562,"longitude":3.089},"KCQB":{"rawOb":"METAR KCQB 260830Z AUTO 18007KT 10SM CLR 20/15 A2989 RMK AO2 T01970151","observationTime":"2026-03-26T08:30:00.000Z","flightCategory":"VFR","latitude":35.7223,"longitude":-96.8187},"ULAA":{"rawOb":"METAR ULAA 260830Z 20005MPS 150V250 CAVOK 10/01 Q1003 R26/CLRD70 NOSIG RMK QFE751/1001","observationTime":"2026-03-26T08:30:00.000Z","flightCategory":"VFR","latitude":64.599,"longitude":40.712},"LFOE":{"rawOb":"METAR LFOE 260830Z AUTO 33006KT 290V010 CAVOK 07/03 Q1021 TEMPO SCT025TCU","observationTime":"2026-03-26T08:30:00.000Z","flightCategory":"VFR","latitude":49.025,"longitude":1.222},"VGHS":{"rawOb":"METAR VGHS 260830Z 24003KT 4000 HZ FEW015 SCT100 32/18 Q1009 NOSIG","observationTime":"2026-03-26T08:30:00.000Z","flightCategory":"IFR","latitude":23.846,"longitude":90.4},"LFLN":{"rawOb":"METAR LFLN 260830Z AUTO 32010KT 9999 OVC014 04/02 Q1019 TEMPO BKN009 FEW020TCU","observationTime":"2026-03-26T08:30:00.000Z","flightCategory":"MVFR","latitude":46.412,"longitude":4.025},"LFBL":{"rawOb":"METAR LFBL 260830Z AUTO 35011KT 310V020 9999 OVC012 04/01 Q1022 BECMG BKN025","observationTime":"2026-03-26T08:30:00.000Z","flightCategory":"MVFR","latitude":45.863,"longitude":1.179},"LFBC":{"rawOb":"METAR LFBC 260830Z AUTO 04008KT 360V070 9999 ////// 09/03 Q1026","observationTime":"2026-03-26T08:30:00.000Z","flightCategory":"VFR","latitude":44.533,"longitude":-1.125},"LFSB":{"rawOb":"METAR LFSB 260830Z AUTO 29004KT 9999 -RA FEW024 SCT040 BKN047 04/01 Q1015 TEMPO FEW020TCU","observationTime":"2026-03-26T08:30:00.000Z","flightCategory":"VFR","latitude":47.614,"longitude":7.51},"LFRG":{"rawOb":"METAR LFRG 260830Z AUTO 34009KT 290V020 9999 BKN023 BKN033 07/02 Q1022 TEMPO 4000 SHRA BKN025TCU","observationTime":"2026-03-26T08:30:00.000Z","flightCategory":"MVFR","latitude":49.365,"longitude":0.154},"FMEE":{"rawOb":"METAR FMEE 260830Z AUTO 05008KT 9999 FEW054 32/24 Q1013 TEMPO 1900 SHRA BKN020TCU","observationTime":"2026-03-26T08:30:00.000Z","flightCategory":"VFR","latitude":-20.887,"longitude":55.51},"LFMY":{"rawOb":"METAR LFMY 260830Z AUTO 33028G42KT 300V360 9999 FEW036 SCT044 08/M01 Q1013 NOSIG","observationTime":"2026-03-26T08:30:00.000Z","flightCategory":"VFR","latitude":43.604,"longitude":5.108},"KNSE":{"rawOb":"SPECI KNSE 260830Z AUTO 00000KT 1/4SM FG VV001 14/14 A3013 RMK AO2 T01390139 $","observationTime":"2026-03-26T08:30:00.000Z","flightCategory":"LIFR","latitude":30.728,"longitude":-87.022},"LFBM":{"rawOb":"METAR LFBM 260830Z AUTO 23003KT 190V280 CAVOK 08/04 Q1026 NOSIG","observationTime":"2026-03-26T08:30:00.000Z","flightCategory":"VFR","latitude":43.912,"longitude":-0.507},"LYTV":{"rawOb":"METAR LYTV 260830Z 15018G29KT 9999 FEW023 BKN083 14/10 Q1000 NOSIG","observationTime":"2026-03-26T08:30:00.000Z","flightCategory":"VFR","latitude":42.405,"longitude":18.723},"LFBG":{"rawOb":"METAR LFBG 260830Z AUTO 35012KT CAVOK 08/02 Q1025 NOSIG","observationTime":"2026-03-26T08:30:00.000Z","flightCategory":"VFR","latitude":45.665,"longitude":-0.316},"LFMH":{"rawOb":"METAR LFMH 260830Z AUTO 35016KT 9999 -RA BKN017/// BKN024/// BKN029/// ///TCU 02/M00 Q1018","observationTime":"2026-03-26T08:30:00.000Z","flightCategory":"MVFR","latitude":45.533,"longitude":4.293},"LFLY":{"rawOb":"METAR LFLY 260830Z AUTO 32015KT 9999 FEW027 BKN072 05/00 Q1018 TEMPO 34015G30KT 4000 SHRA SCT020TCU BKN032","observationTime":"2026-03-26T08:30:00.000Z","flightCategory":"VFR","latitude":45.726,"longitude":4.938},"LFRZ":{"rawOb":"METAR LFRZ 260830Z AUTO 32006KT 270V010 CAVOK 08/03 Q1025 NOSIG","observationTime":"2026-03-26T08:30:00.000Z","flightCategory":"VFR","latitude":47.312,"longitude":-2.163},"LFLS":{"rawOb":"METAR LFLS 260830Z AUTO 34015KT 9999 2100 -SNRA SCT018 BKN028 BKN039 03/M00 Q1016 TEMPO 34020G30KT 1200 SHSN BKN011 SCT018CB","observationTime":"2026-03-26T08:30:00.000Z","flightCategory":"MVFR","latitude":45.363,"longitude":5.329},"LERI":{"rawOb":"METAR LERI 260830Z 00000KT CAVOK 15/09 Q1017 NOSIG","observationTime":"2026-03-26T08:30:00.000Z","flightCategory":"VFR","latitude":37.958,"longitude":-1.229},"LFRV":{"rawOb":"METAR LFRV 260830Z AUTO 32007KT 290V350 CAVOK 08/03 Q1025","observationTime":"2026-03-26T08:30:00.000Z","flightCategory":"VFR","latitude":47.722,"longitude":-2.727},"LFMI":{"rawOb":"METAR LFMI 260830Z AUTO 34029G39KT CAVOK 10/M01 Q1014 NOSIG","observationTime":"2026-03-26T08:30:00.000Z","flightCategory":"VFR","latitude":43.516,"longitude":4.935},"UIBB":{"rawOb":"METAR UIBB 260830Z 26010G15MPS 220V290 9999 DRSN BKN039CB 03/M04 Q1013 R30/250150 NOSIG RMK QFE717/0956","observationTime":"2026-03-26T08:30:00.000Z","flightCategory":"VFR","latitude":56.365,"longitude":101.716},"LFBX":{"rawOb":"METAR LFBX 260830Z AUTO 32009KT 290V360 CAVOK 07/02 Q1024","observationTime":"2026-03-26T08:30:00.000Z","flightCategory":"VFR","latitude":45.196,"longitude":0.815},"LFBS":{"rawOb":"METAR LFBS 260830Z AUTO 36003KT 330V050 9999 FEW046 SCT062 BKN072 08/05 Q1025","observationTime":"2026-03-26T08:30:00.000Z","flightCategory":"VFR","latitude":44.368,"longitude":-1.132},"UATE":{"rawOb":"METAR UATE 260830Z 13005MPS CAVOK 22/04 Q1004 NOSIG RMK QFE751/1001","observationTime":"2026-03-26T08:30:00.000Z","flightCategory":"VFR","latitude":43.86,"longitude":51.092},"LFBA":{"rawOb":"METAR LFBA 260830Z AUTO 31008KT 270V340 CAVOK 08/02 Q1025 NOSIG","observationTime":"2026-03-26T08:30:00.000Z","flightCategory":"VFR","latitude":44.176,"longitude":0.593},"LFML":{"rawOb":"METAR LFML 260830Z AUTO 33038G52KT 9999 FEW048 09/M00 Q1012 NOSIG","observationTime":"2026-03-26T08:30:00.000Z","flightCategory":"VFR","latitude":43.438,"longitude":5.216},"LDDU":{"rawOb":"METAR LDDU 260830Z 14023KT 9999 -RA SCT023 BKN060 13/08 Q0999 TEMPO 15020G30KT","observationTime":"2026-03-26T08:30:00.000Z","flightCategory":"VFR","latitude":42.56,"longitude":18.269},"UHHH":{"rawOb":"METAR UHHH 260830Z 17002MPS 5000 -SHRA SCT025CB 05/04 Q1009 R88/190050 NOSIG RMK QFE750/1001","observationTime":"2026-03-26T08:30:00.000Z","flightCategory":"MVFR","latitude":48.527,"longitude":135.184},"LEMO":{"rawOb":"METAR LEMO 260830Z 04009KT 010V070 CAVOK 15/09 Q1013 NOSIG","observationTime":"2026-03-26T08:30:00.000Z","flightCategory":"VFR","latitude":37.175,"longitude":-5.616},"LEGT":{"rawOb":"METAR LEGT 260830Z 05011KT CAVOK 08/M01 Q1020","observationTime":"2026-03-26T08:30:00.000Z","flightCategory":"VFR","latitude":40.299,"longitude":-3.723},"LFLC":{"rawOb":"METAR LFLC 260830Z AUTO 34012KT 9999 BKN025 OVC033 04/M00 Q1020 TEMPO FEW030TCU BECMG 34015G25KT","observationTime":"2026-03-26T08:30:00.000Z","flightCategory":"MVFR","latitude":45.787,"longitude":3.169},"LFLB":{"rawOb":"METAR LFLB 260830Z AUTO 02008KT 9999 FEW030 BKN043 BKN058 05/02 Q1016 TEMPO 36020G40KT 3000 SHRAGS BKN013 BKN020CB","observationTime":"2026-03-26T08:30:00.000Z","flightCategory":"VFR","latitude":45.637,"longitude":5.883},"LFKJ":{"rawOb":"METAR LFKJ 260830Z AUTO 07007KT 010V120 9999 -RA BKN036/// BKN046/// OVC056/// ///TCU 08/03 Q1002 TEMPO VRB18G35KT FEW060CB BKN060 OVC080","observationTime":"2026-03-26T08:30:00.000Z","flightCategory":"VFR","latitude":41.924,"longitude":8.803},"LYPG":{"rawOb":"METAR LYPG 260830Z 13018KT 9999 FEW030 BKN040 15/07 Q1001 NOSIG","observationTime":"2026-03-26T08:30:00.000Z","flightCategory":"VFR","latitude":42.359,"longitude":19.252},"UATG":{"rawOb":"METAR UATG 260830Z 13009MPS 8000 NSC 20/M01 Q1009 NOSIG RMK QFE758/1011","observationTime":"2026-03-26T08:30:00.000Z","flightCategory":"MVFR","latitude":47.122,"longitude":51.829},"LFKB":{"rawOb":"METAR LFKB 260830Z AUTO 30015G26KT 260V340 9999 FEW054 SCT064 BKN180 14/M01 Q0997 BECMG 32025G40KT","observationTime":"2026-03-26T08:30:00.000Z","flightCategory":"VFR","latitude":42.553,"longitude":9.484},"LFGJ":{"rawOb":"METAR LFGJ 260830Z AUTO 33010KT 300V360 9999 BKN020 OVC058 05/01 Q1017 TEMPO SCT020TCU","observationTime":"2026-03-26T08:30:00.000Z","flightCategory":"MVFR","latitude":47.044,"longitude":5.427},"LFBZ":{"rawOb":"METAR LFBZ 260830Z AUTO 04004KT 340V080 9999 FEW036/// ///TCU 10/04 Q1025 TEMPO 34015G25KT 4000 -SHRA BECMG SCT035","observationTime":"2026-03-26T08:30:00.000Z","flightCategory":"VFR","latitude":43.469,"longitude":-1.534},"UIUU":{"rawOb":"METAR UIUU 260830Z 29003MPS 9999 SCT050CB 08/M04 Q1014 R26/60D NOSIG RMK QFE717/0956","observationTime":"2026-03-26T08:30:00.000Z","flightCategory":"VFR","latitude":51.808,"longitude":107.443},"WAMM":{"rawOb":"METAR WAMM 260830Z 01009KT 9999 FEW020 30/23 Q1011 NOSIG","observationTime":"2026-03-26T08:30:00.000Z","flightCategory":"VFR","latitude":1.541,"longitude":124.926},"LEGA":{"rawOb":"METAR LEGA 260830Z VRB02KT CAVOK 12/06 Q1015","observationTime":"2026-03-26T08:30:00.000Z","flightCategory":"VFR","latitude":37.136,"longitude":-3.633},"VDSA":{"rawOb":"METAR VDSA 260830Z 11004KT 9999 SCT015 35/21 Q1006","observationTime":"2026-03-26T08:30:00.000Z","flightCategory":"VFR","latitude":13.371,"longitude":104.225},"VDSV":{"rawOb":"METAR VDSV 260830Z 24012KT 9999 SCT015 30/24 Q1007","observationTime":"2026-03-26T08:30:00.000Z","flightCategory":"VFR","latitude":10.582,"longitude":103.637},"VYYY":{"rawOb":"METAR VYYY 260830Z 24004KT 7000 FEW020 37/23 Q1007 NOSIG","observationTime":"2026-03-26T08:30:00.000Z","flightCategory":"MVFR","latitude":16.906,"longitude":96.137},"URKA":{"rawOb":"METAR URKA 260830Z VRB01MPS 9999 BKN010 12/10 Q1005 R21/010065 TEMPO 0500 FG SCT003 RMK QFE749/0999","observationTime":"2026-03-26T08:30:00.000Z","flightCategory":"MVFR","latitude":44.995,"longitude":37.341},"LZZI":{"rawOb":"METAR LZZI 260830Z 04006KT 360V060 9999 -RA FEW008 OVC017 04/02 Q1002","observationTime":"2026-03-26T08:30:00.000Z","flightCategory":"MVFR","latitude":49.231,"longitude":18.613},"LEAO":{"rawOb":"METAR LEAO 260830Z 05008KT 350V110 CAVOK 10/M01 Q1019","observationTime":"2026-03-26T08:30:00.000Z","flightCategory":"VFR","latitude":38.953,"longitude":-3.741},"VYMD":{"rawOb":"METAR VYMD 260830Z 36004KT 6000 HZ NSC 39/13 Q1006","observationTime":"2026-03-26T08:30:00.000Z","flightCategory":"MVFR","latitude":21.702,"longitude":95.978},"GECE":{"rawOb":"METAR GECE 260830Z AUTO 16006KT 120V200 CAVOK 15/12 Q1013","observationTime":"2026-03-26T08:30:00.000Z","flightCategory":"VFR","latitude":35.893,"longitude":-5.306},"LETO":{"rawOb":"METAR LETO 260830Z 05013KT CAVOK 08/M02 Q1020 NOSIG","observationTime":"2026-03-26T08:30:00.000Z","flightCategory":"VFR","latitude":40.489,"longitude":-3.451},"VLVT":{"rawOb":"METAR VLVT 260830Z 34004KT 9999 SCT020 37/30 Q1005 NOSIG","observationTime":"2026-03-26T08:30:00.000Z","flightCategory":"VFR","latitude":17.987,"longitude":102.564},"LYVR":{"rawOb":"METAR LYVR 260830Z 15015KT 130V190 CAVOK 16/01 Q0998 NOSIG","observationTime":"2026-03-26T08:30:00.000Z","flightCategory":"VFR","latitude":45.147,"longitude":21.31},"UARR":{"rawOb":"METAR UARR 260830Z 12005MPS 9999 SCT027 15/07 Q1015 NOSIG RMK QFE758/1010","observationTime":"2026-03-26T08:30:00.000Z","flightCategory":"VFR","latitude":51.151,"longitude":51.541},"UAOO":{"rawOb":"METAR UAOO 260830Z 10008MPS CAVOK 24/M04 Q1011 NOSIG RMK QFE746/0995","observationTime":"2026-03-26T08:30:00.000Z","flightCategory":"VFR","latitude":44.707,"longitude":65.593},"URMM":{"rawOb":"METAR URMM 260830Z 07002MPS 9999 FEW013 BKN053 13/10 Q1004 R11/010070 NOSIG RMK MT OBSC QFE725/0967","observationTime":"2026-03-26T08:30:00.000Z","flightCategory":"VFR","latitude":44.225,"longitude":43.082},"YPWR":{"rawOb":"METAR YPWR 260830Z AUTO 18018KT 9999 // NCD 21/08 Q1020","observationTime":"2026-03-26T08:30:00.000Z","flightCategory":"VFR","latitude":-31.156,"longitude":136.805},"LFBP":{"rawOb":"METAR LFBP 260830Z AUTO VRB03KT 9999 FEW035 BKN042 BKN048 09/04 Q1025 NOSIG","observationTime":"2026-03-26T08:30:00.000Z","flightCategory":"VFR","latitude":43.385,"longitude":-0.416},"LFBO":{"rawOb":"METAR LFBO 260830Z AUTO 30016KT 9999 FEW025 07/01 Q1024 NOSIG","observationTime":"2026-03-26T08:30:00.000Z","flightCategory":"VFR","latitude":43.621,"longitude":1.379},"LYNI":{"rawOb":"METAR LYNI 260830Z 17009KT 120V220 9999 FEW050 15/02 Q1001 NOSIG","observationTime":"2026-03-26T08:30:00.000Z","flightCategory":"VFR","latitude":43.338,"longitude":21.863},"LFBI":{"rawOb":"METAR LFBI 260830Z AUTO 34009KT 310V010 CAVOK 07/02 Q1024 NOSIG","observationTime":"2026-03-26T08:30:00.000Z","flightCategory":"VFR","latitude":46.584,"longitude":0.309},"WIHH":{"rawOb":"METAR WIHH 260830Z 33008KT 5000 HZ BKN014 29/24 Q1006 RMK RA TO TO S","observationTime":"2026-03-26T08:30:00.000Z","flightCategory":"MVFR","latitude":-6.267,"longitude":106.891},"LFTW":{"rawOb":"METAR LFTW 260830Z AUTO 33027G38KT CAVOK 09/M03 Q1015 NOSIG","observationTime":"2026-03-26T08:30:00.000Z","flightCategory":"VFR","latitude":43.757,"longitude":4.416},"LFTH":{"rawOb":"METAR LFTH 260830Z AUTO 33025G46KT 290V010 7000 NSC 10/M05 Q1005 NOSIG","observationTime":"2026-03-26T08:30:00.000Z","flightCategory":"MVFR","latitude":43.094,"longitude":6.146},"LFST":{"rawOb":"METAR LFST 260830Z AUTO 30013KT 9999 FEW019 OVC060 05/02 Q1015 NOSIG","observationTime":"2026-03-26T08:30:00.000Z","flightCategory":"VFR","latitude":48.549,"longitude":7.64},"WARR":{"rawOb":"METAR WARR 260830Z 31014KT 9999 SCT020 31/25 Q1006 NOSIG","observationTime":"2026-03-26T08:30:00.000Z","flightCategory":"VFR","latitude":-7.38,"longitude":112.787},"LFOT":{"rawOb":"METAR LFOT 260830Z AUTO 32009KT 280V340 CAVOK 07/02 Q1023 NOSIG","observationTime":"2026-03-26T08:30:00.000Z","flightCategory":"VFR","latitude":47.444,"longitude":0.728},"LFVP":{"rawOb":"METAR LFVP 260830Z AUTO 27016KT CAVOK M03/M08 Q1026","observationTime":"2026-03-26T08:30:00.000Z","flightCategory":"VFR","latitude":46.764,"longitude":-56.169},"LFMD":{"rawOb":"METAR LFMD 260830Z AUTO 30010KT 260V340 CAVOK 13/M09 Q1001 NOSIG","observationTime":"2026-03-26T08:30:00.000Z","flightCategory":"VFR","latitude":43.544,"longitude":6.953},"LFYR":{"rawOb":"METAR LFYR 260830Z AUTO 32007KT 280V360 9999 FEW024 07/02 Q1022","observationTime":"2026-03-26T08:30:00.000Z","flightCategory":"VFR","latitude":47.32,"longitude":1.688},"LFSX":{"rawOb":"METAR LFSX 260830Z AUTO 31009KT 9999 FEW017 BKN023 OVC028 03/00 Q1016","observationTime":"2026-03-26T08:30:00.000Z","flightCategory":"MVFR","latitude":47.783,"longitude":6.364},"WADD":{"rawOb":"METAR WADD 260830Z 16013KT 9999 SCT017 31/26 Q1006 NOSIG","observationTime":"2026-03-26T08:30:00.000Z","flightCategory":"VFR","latitude":-8.748,"longitude":115.167},"LFSI":{"rawOb":"METAR LFSI 260830Z AUTO 32011KT 9999 BKN016 OVC021 05/01 Q1018","observationTime":"2026-03-26T08:30:00.000Z","flightCategory":"MVFR","latitude":48.631,"longitude":4.904},"KOKH":{"rawOb":"METAR KOKH 260829Z AUTO 17006KT 10SM SCT100 04/02 A3039 RMK AO2","observationTime":"2026-03-26T08:29:00.000Z","flightCategory":"VFR","latitude":48.2515,"longitude":-122.674},"CYFC":{"rawOb":"SPECI CYFC 260828Z AUTO 10005KT 9SM -SN OVC040 M01/M12 A3009 RMK SLP194","observationTime":"2026-03-26T08:28:00.000Z","flightCategory":"VFR","latitude":45.873,"longitude":-66.539},"KHEI":{"rawOb":"SPECI KHEI 260828Z AUTO 02013G20KT 10SM OVC008 01/M01 A2998 RMK AO2 CIG 007V013 T00111006","observationTime":"2026-03-26T08:28:00.000Z","flightCategory":"IFR","latitude":46.0108,"longitude":-102.6518},"LIRE":{"rawOb":"SPECI LIRE 260828Z 29023KT 260V330 9999 RA SCT020 FEW022TCU 10/04 Q0996 RMK BKN VIS MIN 9999 WIND THR13 31018KT WIND THR31 29023KT BLU","observationTime":"2026-03-26T08:28:00.000Z","flightCategory":"VFR","latitude":41.656,"longitude":12.449},"K98D":{"rawOb":"METAR K98D 260827Z AUTO 01013KT 10SM CLR 10/02 A2977 RMK AO2","observationTime":"2026-03-26T08:27:00.000Z","flightCategory":"VFR","latitude":44.7008,"longitude":-100.101},"ETHS":{"rawOb":"SPECI ETHS 260827Z 28010KT 8000 -SHRA FEW010 BKN013TCU 03/01 Q1009 GRN BLU TEMPO YLO","observationTime":"2026-03-26T08:27:00.000Z","flightCategory":"MVFR","latitude":52.918,"longitude":10.184},"CWSA":{"rawOb":"SPECI CWSA 260826Z AUTO 22007KT 3SM BR FEW130 SCT150 02/M00 A3036 RMK SLP284","observationTime":"2026-03-26T08:26:00.000Z","flightCategory":"MVFR","latitude":43.933,"longitude":-60.002},"EHEH":{"rawOb":"METAR EHEH 260825Z AUTO 29007KT 240V340 9999 FEW033 05/01 Q1016 BLU TEMPO 30010G20KT 4000 SHRA SHRAGS FEW015 SCT025CB","observationTime":"2026-03-26T08:25:00.000Z","flightCategory":"VFR","latitude":51.45,"longitude":5.377},"EBBE":{"rawOb":"METAR EBBE 260825Z 28010KT 8000 VCSH FEW010 FEW015TCU SCT030 BKN130 04/02 Q1017 BLU BLU TEMPO GRN","observationTime":"2026-03-26T08:25:00.000Z","flightCategory":"MVFR","latitude":50.759,"longitude":4.768},"KUCY":{"rawOb":"METAR KUCY 260825Z AUTO 19007KT 10SM CLR 17/13 A2996 RMK A01","observationTime":"2026-03-26T08:25:00.000Z","flightCategory":"VFR","latitude":36.3778,"longitude":-88.9878},"EHGR":{"rawOb":"METAR EHGR 260825Z AUTO 31010KT 270V360 9999 FEW027 BKN034 OVC041 06/01 Q1016 BLU TEMPO 3000 SHRAGS SHRASN FEW012 SCT016 BKN018CB","observationTime":"2026-03-26T08:25:00.000Z","flightCategory":"VFR","latitude":51.565,"longitude":4.935},"EBBL":{"rawOb":"METAR EBBL 260825Z 30008KT 9999 FEW010 BKN023 05/02 Q1016 WHT BLU TEMPO GRN","observationTime":"2026-03-26T08:25:00.000Z","flightCategory":"MVFR","latitude":51.168,"longitude":5.47},"K2DP":{"rawOb":"SPECI K2DP 260825Z AUTO 00000KT 7SM FEW002 BKN055 06/05 A3017 RMK AO2 SLP223 $","observationTime":"2026-03-26T08:25:00.000Z","flightCategory":"VFR","latitude":35.672,"longitude":-75.892},"KMEV":{"rawOb":"METAR KMEV 260825Z AUTO 06004KT 10SM FEW042 FEW050 03/M02 A3012 RMK AO2","observationTime":"2026-03-26T08:25:00.000Z","flightCategory":"VFR","latitude":38.9963,"longitude":-119.75},"EHSC":{"rawOb":"METAR EHSC 260825Z AUTO 32028KT 9999 ///////// 05/01 Q1018 W09/H25","observationTime":"2026-03-26T08:25:00.000Z","flightCategory":"VFR","latitude":51.926,"longitude":3.67},"EHSA":{"rawOb":"METAR EHSA 260825Z AUTO 32024KT 9999 ///////// 05/01 Q1018 W09/H26","observationTime":"2026-03-26T08:25:00.000Z","flightCategory":"VFR","latitude":51.998,"longitude":3.275},"EHPG":{"rawOb":"METAR EHPG 260825Z AUTO 33021G34KT 270V020 9999 // FEW015 05/02 Q1017 RE//","observationTime":"2026-03-26T08:25:00.000Z","flightCategory":"VFR","latitude":52.36,"longitude":3.342},"EHMG":{"rawOb":"METAR EHMG 260825Z AUTO 31035KT 9999 FEW020 SCT049 05/M03 Q1015 W///H40","observationTime":"2026-03-26T08:25:00.000Z","flightCategory":"VFR","latitude":53.614,"longitude":4.96},"EHMA":{"rawOb":"METAR EHMA 260825Z AUTO 32022G32KT 9999 FEW010 SCT049 05/M02 Q1012 W///H33","observationTime":"2026-03-26T08:25:00.000Z","flightCategory":"VFR","latitude":53.492,"longitude":5.942},"EHGG":{"rawOb":"METAR EHGG 260825Z AUTO 31007KT 270V350 9999 FEW043/// 06/02 Q1013 TEMPO 7000 SHRAGS FEW020CB","observationTime":"2026-03-26T08:25:00.000Z","flightCategory":"VFR","latitude":53.12,"longitude":6.579},"EBFN":{"rawOb":"METAR EBFN 260825Z 33014KT 9999 FEW029 SCT033 07/01 Q1019 BLU BLU TEMPO WHT","observationTime":"2026-03-26T08:25:00.000Z","flightCategory":"VFR","latitude":51.09,"longitude":2.653},"EHLE":{"rawOb":"METAR EHLE 260825Z AUTO 31014G25KT 270V350 9999 FEW020 04/M01 Q1015 TEMPO 33015G25KT 6000 -SHRAGS FEW020CB","observationTime":"2026-03-26T08:25:00.000Z","flightCategory":"VFR","latitude":52.456,"longitude":5.522},"EHKV":{"rawOb":"METAR EHKV 260825Z AUTO 34020KT 9999 -RA FEW005 SCT022 BKN030 03/M01 Q1017 W///H42","observationTime":"2026-03-26T08:25:00.000Z","flightCategory":"MVFR","latitude":53.269,"longitude":3.628},"EHJR":{"rawOb":"METAR EHJR 260825Z AUTO 34028KT //// // ///////// 05/01 Q1016 RE// W08/H36","observationTime":"2026-03-26T08:25:00.000Z","flightCategory":"null","latitude":53.218,"longitude":3.22},"EHJA":{"rawOb":"METAR EHJA 260825Z AUTO 33032KT 9999 FEW021/// SCT028/// 04/M02 Q1016 W///H45","observationTime":"2026-03-26T08:25:00.000Z","flightCategory":"VFR","latitude":53.824,"longitude":2.945},"EHHW":{"rawOb":"METAR EHHW 260825Z AUTO ///33KT 9999 FEW019/// SCT032/// 05/M01 Q1012","observationTime":"2026-03-26T08:25:00.000Z","flightCategory":"VFR","latitude":54.037,"longitude":6.042},"EHFD":{"rawOb":"METAR EHFD 260825Z AUTO 32030KT 9999 FEW018/// SCT032/// 03/M02 Q1012 REDZ W///H54","observationTime":"2026-03-26T08:25:00.000Z","flightCategory":"VFR","latitude":54.854,"longitude":4.696},"EHDV":{"rawOb":"METAR EHDV 260825Z AUTO 30023KT 9999 -RA FEW011/// SCT039/// 05/M01 Q1016","observationTime":"2026-03-26T08:25:00.000Z","flightCategory":"VFR","latitude":54.326,"longitude":2.936},"EHAK":{"rawOb":"METAR EHAK 260825Z AUTO 34033KT 280V030 //// // FEW004/// SCT010/// BKN028/// 03/M01 Q1012 RE// W///H59","observationTime":"2026-03-26T08:25:00.000Z","flightCategory":"null","latitude":55.399,"longitude":3.81},"EHWO":{"rawOb":"METAR EHWO 260825Z AUTO 33005KT 260V050 9999 NCD 06/02 Q1017 BLU TEMPO 33015G25KT 3000 SHRAGS FEW008 SCT025CB","observationTime":"2026-03-26T08:25:00.000Z","flightCategory":"VFR","latitude":51.448,"longitude":4.342},"EHAM":{"rawOb":"METAR EHAM 260825Z 33009KT 290V010 9999 FEW024 06/02 Q1016 BECMG 33017KT","observationTime":"2026-03-26T08:25:00.000Z","flightCategory":"VFR","latitude":52.315,"longitude":4.79},"EHVL":{"rawOb":"METAR EHVL 260825Z AUTO 33022KT 9999 NCD 06/00 Q1015 BLU","observationTime":"2026-03-26T08:25:00.000Z","flightCategory":"VFR","latitude":53.297,"longitude":5.086},"EHDL":{"rawOb":"METAR EHDL 260825Z AUTO 32012KT 260V020 8000 SHRA SCT005 BKN006 BKN008 FEW015CB 02/00 Q1015 REUP YLO","observationTime":"2026-03-26T08:25:00.000Z","flightCategory":"IFR","latitude":52.061,"longitude":5.887},"EBDT":{"rawOb":"METAR EBDT 260825Z 29009KT 9999 SCT035 05/01 Q1017 BLU BLU TEMPO GRN","observationTime":"2026-03-26T08:25:00.000Z","flightCategory":"VFR","latitude":51.005,"longitude":5.067},"EHRD":{"rawOb":"METAR EHRD 260825Z AUTO 33014KT 280V010 9999 FEW035/// 07/00 Q1016 REDZ TEMPO 32015G25KT 6000 -SHRAGS FEW020CB","observationTime":"2026-03-26T08:25:00.000Z","flightCategory":"VFR","latitude":51.954,"longitude":4.444},"EHKD":{"rawOb":"METAR EHKD 260825Z AUTO 34012KT 290V040 9999 FEW009 SCT049 BKN054 04/M00 Q1016 BLU TEMPO 34020G30KT 4000 SHRASN FEW015 SCT022CB BKN040","observationTime":"2026-03-26T08:25:00.000Z","flightCategory":"VFR","latitude":52.927,"longitude":4.781},"EHVK":{"rawOb":"METAR EHVK 260825Z AUTO 30007KT 240V340 9999 FEW021 SCT084 05/01 Q1016 BLU TEMPO 32008G18KT 4000 SHRAGS","observationTime":"2026-03-26T08:25:00.000Z","flightCategory":"VFR","latitude":51.658,"longitude":5.707},"EHBK":{"rawOb":"METAR EHBK 260825Z AUTO 26008KT 220V320 9999 FEW032/// SCT041/// 04/01 Q1016 NOSIG","observationTime":"2026-03-26T08:25:00.000Z","flightCategory":"VFR","latitude":50.905,"longitude":5.762},"KSMP":{"rawOb":"SPECI KSMP 260825Z AUTO VRB06G20KT 10SM UP BKN013 OVC022 M04/M05 A3022 RMK AO2 P0000 T10391050","observationTime":"2026-03-26T08:25:00.000Z","flightCategory":"MVFR","latitude":47.2764,"longitude":-121.3383},"EBCV":{"rawOb":"METAR EBCV 260825Z AUTO 28008KT 9999 FEW029/// BKN065/// 05/02 Q1019 BLU","observationTime":"2026-03-26T08:25:00.000Z","flightCategory":"VFR","latitude":50.576,"longitude":3.831},"EBLB":{"rawOb":"METAR EBLB 260825Z AUTO 32008KT 9999 BKN007/// 00/M01 Q1014 GRN","observationTime":"2026-03-26T08:25:00.000Z","flightCategory":"IFR","latitude":50.482,"longitude":6.181},"EHLW":{"rawOb":"METAR EHLW 260825Z AUTO 35018KT 310V010 9999 FEW015CB SCT027 BKN036 03/01 Q1014 REUP BLU TEMPO 33020G33KT 3000 SHRAGS FEW018 SCT025CB","observationTime":"2026-03-26T08:25:00.000Z","flightCategory":"VFR","latitude":53.223,"longitude":5.752},"KTTS":{"rawOb":"SPECI KTTS 260825Z AUTO 00000KT 3SM BR SCT029 BKN043 BKN240 19/18 A3007 RMK AO2 SLP187 $","observationTime":"2026-03-26T08:25:00.000Z","flightCategory":"MVFR","latitude":28.5987,"longitude":-80.6816},"EHFS":{"rawOb":"METAR EHFS 260825Z AUTO 01016KT 340V040 9999 FEW032/// 04/00 Q1018","observationTime":"2026-03-26T08:25:00.000Z","flightCategory":"VFR","latitude":51.441,"longitude":3.596},"CYLL":{"rawOb":"SPECI CYLL 260824Z AUTO 04004KT 9SM -SN OVC019 M17/M19 A3025 RMK SLP310","observationTime":"2026-03-26T08:24:00.000Z","flightCategory":"MVFR","latitude":53.312,"longitude":-110.074},"LIRU":{"rawOb":"SPECI LIRU 260824Z 01004KT 9000 -RA SCT025TCU 06/04 Q0996 RETSRA","observationTime":"2026-03-26T08:24:00.000Z","flightCategory":"VFR","latitude":41.953,"longitude":12.5},"RKNW":{"rawOb":"SPECI RKNW 260823Z 23006KT 9999 SKC 20/M02 A2986","observationTime":"2026-03-26T08:23:00.000Z","flightCategory":"VFR","latitude":37.337,"longitude":127.947},"CYAM":{"rawOb":"SPECI CYAM 260823Z 00000KT 3/4SM R12/P6000FT/N BR OVC002 M03/M03 A2974 RMK FG4ST4 FROIN SLP084","observationTime":"2026-03-26T08:23:00.000Z","flightCategory":"LIFR","latitude":46.484,"longitude":-84.504},"BIVO":{"rawOb":"METAR BIVO 260822Z 23007KT 9999 FEW040 M12/M16 Q1012","observationTime":"2026-03-26T08:22:00.000Z","flightCategory":"VFR","latitude":65.72,"longitude":-14.85},"KONA":{"rawOb":"METAR KONA 260822Z AUTO 00000KT 10SM CLR 07/05 A2967 RMK AO2","observationTime":"2026-03-26T08:22:00.000Z","flightCategory":"VFR","latitude":44.076,"longitude":-91.707},"TNCM":{"rawOb":"SPECI TNCM 260820Z 10011KT 3000 +SHRA BKN016 24/22 Q1015","observationTime":"2026-03-26T08:20:00.000Z","flightCategory":"IFR","latitude":18.041,"longitude":-63.109},"LGKR":{"rawOb":"METAR LGKR 260820Z 19007KT 9999 -DZ FEW018 SCT025 16/10 Q1005 NOSIG","observationTime":"2026-03-26T08:20:00.000Z","flightCategory":"VFR","latitude":39.61,"longitude":19.913},"LGIR":{"rawOb":"METAR LGIR 260820Z 31014KT 9999 SCT025 17/08 Q1008 NOSIG","observationTime":"2026-03-26T08:20:00.000Z","flightCategory":"VFR","latitude":35.337,"longitude":25.173},"LGAV":{"rawOb":"METAR LGAV 260820Z VRB03KT CAVOK 17/01 Q1007 NOSIG","observationTime":"2026-03-26T08:20:00.000Z","flightCategory":"VFR","latitude":37.936,"longitude":23.945},"EGOW":{"rawOb":"METAR EGOW 260820Z 33009KT 9999 FEW020 07/01 Q1023 RMK BLU","observationTime":"2026-03-26T08:20:00.000Z","flightCategory":"VFR","latitude":53.582,"longitude":-3.055},"ESND":{"rawOb":"METAR ESND 260820Z AUTO 25007KT 9999 OVC064/// 01/M01 Q0988","observationTime":"2026-03-26T08:20:00.000Z","flightCategory":"VFR","latitude":62.047,"longitude":14.416},"ENGC":{"rawOb":"METAR ENGC 260820Z 34039KT 9999 SCT045 04/M06 Q1005 W06/S6","observationTime":"2026-03-26T08:20:00.000Z","flightCategory":"VFR","latitude":61.033,"longitude":2.033},"EGXS":{"rawOb":"METAR EGXS 260820Z 30016KT 9999 SKC 04/M00 Q1020 RMK BLU","observationTime":"2026-03-26T08:20:00.000Z","flightCategory":"VFR","latitude":53.475,"longitude":0.152},"K40B":{"rawOb":"METAR K40B 260820Z AUTO VRB03KT RMK AO1 SLPNO 57043","observationTime":"2026-03-26T08:20:00.000Z","flightCategory":"null","latitude":46.616,"longitude":-69.533},"ESST":{"rawOb":"METAR ESST 260820Z AUTO 00000KT 9999 OVC053/// 04/04 Q0990","observationTime":"2026-03-26T08:20:00.000Z","flightCategory":"VFR","latitude":60.158,"longitude":12.992},"ETNH":{"rawOb":"METAR ETNH 260820Z 30017G27KT 9999 SCT020 BKN060 05/M02 Q1007 BLU BLU TEMPO WHT","observationTime":"2026-03-26T08:20:00.000Z","flightCategory":"VFR","latitude":54.312,"longitude":9.538},"EGBJ":{"rawOb":"METAR EGBJ 260820Z 31007KT 9999 FEW015 06/02 Q1023","observationTime":"2026-03-26T08:20:00.000Z","flightCategory":"VFR","latitude":51.892,"longitude":-2.161},"EGYM":{"rawOb":"METAR EGYM 260820Z 32012KT CAVOK 04/M00 Q1021 NOSIG RMK BLU BLU","observationTime":"2026-03-26T08:20:00.000Z","flightCategory":"VFR","latitude":52.648,"longitude":0.567},"LGRP":{"rawOb":"METAR LGRP 260820Z 30011KT 9999 FEW018 17/07 Q1003 NOSIG","observationTime":"2026-03-26T08:20:00.000Z","flightCategory":"VFR","latitude":36.405,"longitude":28.086},"K1HN":{"rawOb":"SPECI K1HN 260820Z AUTO 34013KT 10SM OVC009 M05/M07 A3005 RMK AO2 SLP197 $","observationTime":"2026-03-26T08:20:00.000Z","flightCategory":"IFR","latitude":47.97,"longitude":-102.22},"ETSB":{"rawOb":"METAR ETSB 260820Z 31010KT 9999 BKN013 BKN020 02/M02 Q1013 GRN GRN TEMPO AMB","observationTime":"2026-03-26T08:20:00.000Z","flightCategory":"MVFR","latitude":50.175,"longitude":7.06},"EGWC":{"rawOb":"METAR EGWC 260820Z AUTO 35006KT //// ///////// ///// Q////","observationTime":"2026-03-26T08:20:00.000Z","flightCategory":"null","latitude":52.64,"longitude":-2.311},"ETNW":{"rawOb":"METAR ETNW 260820Z 29015KT 9999 FEW011 BKN015 BKN070 04/01 Q1010 WHT BLU+ TEMPO YLO","observationTime":"2026-03-26T08:20:00.000Z","flightCategory":"MVFR","latitude":52.457,"longitude":9.427},"EGQK":{"rawOb":"METAR EGQK 260820Z AUTO 25006KT 9999 // OVC042/// 03/M01 Q1018","observationTime":"2026-03-26T08:20:00.000Z","flightCategory":"VFR","latitude":57.646,"longitude":-3.563},"ETNS":{"rawOb":"METAR ETNS 260820Z 31018KT 9999 SCT025 BKN060 05/M02 Q1007 BLU BLU TEMPO WHT","observationTime":"2026-03-26T08:20:00.000Z","flightCategory":"VFR","latitude":54.457,"longitude":9.52},"K1IN":{"rawOb":"SPECI K1IN 260820Z AUTO 35014KT 10SM OVC006 M08/M09 M RMK AO2 SLPNO $","observationTime":"2026-03-26T08:20:00.000Z","flightCategory":"IFR","latitude":48.34,"longitude":-102.3},"ETSL":{"rawOb":"METAR ETSL 260820Z 35010KT 9999 SCT012 SCT030 BKN050 02/M01 Q1009 BLU BLU BECMG GRN","observationTime":"2026-03-26T08:20:00.000Z","flightCategory":"VFR","latitude":48.185,"longitude":10.861},"EGDR":{"rawOb":"METAR EGDR 260820Z AUTO 33011KT 9999 BKN029/// 08/02 Q1025","observationTime":"2026-03-26T08:20:00.000Z","flightCategory":"MVFR","latitude":50.084,"longitude":-5.257},"EGOM":{"rawOb":"METAR EGOM 260820Z AUTO 26009KT 9999 FEW001/// M00/M01 Q1020","observationTime":"2026-03-26T08:20:00.000Z","flightCategory":"VFR","latitude":55.05,"longitude":-2.554},"ETNT":{"rawOb":"METAR ETNT 260820Z 32014G26KT 9999 FEW020TCU SCT200 06/M03 Q1011 BLU+BLU+ TEMPO YLO","observationTime":"2026-03-26T08:20:00.000Z","flightCategory":"VFR","latitude":53.548,"longitude":7.667},"EGOP":{"rawOb":"METAR EGOP 260820Z AUTO 32010KT 9999 FEW042/// BKN110/// 07/04 Q1024","observationTime":"2026-03-26T08:20:00.000Z","flightCategory":"VFR","latitude":51.714,"longitude":-4.367},"EGQM":{"rawOb":"METAR EGQM 260820Z AUTO 29013KT 9999 NCD 05/M03 Q1019","observationTime":"2026-03-26T08:20:00.000Z","flightCategory":"VFR","latitude":55.421,"longitude":-1.601},"ETWM":{"rawOb":"METAR ETWM 260820Z 34005KT 9999 VCSH FEW010 FEW012CB 03/01 Q1013 RERASN BLU+","observationTime":"2026-03-26T08:20:00.000Z","flightCategory":"VFR","latitude":52.725,"longitude":7.33},"EGXV":{"rawOb":"METAR EGXV 260820Z AUTO 33009KT 9999 NCD 04/M02 Q1020","observationTime":"2026-03-26T08:20:00.000Z","flightCategory":"VFR","latitude":53.876,"longitude":-0.435},"ENHK":{"rawOb":"METAR ENHK 260820Z 11009KT 9999 SCT027 02/M03 Q0988","observationTime":"2026-03-26T08:20:00.000Z","flightCategory":"VFR","latitude":70.487,"longitude":22.14},"EGXZ":{"rawOb":"METAR EGXZ 260820Z AUTO 31008KT 9999 NCD 04/M02 Q1021","observationTime":"2026-03-26T08:20:00.000Z","flightCategory":"VFR","latitude":54.205,"longitude":-1.39},"ETSH":{"rawOb":"METAR ETSH 260820Z 31006KT 9999 FEW015 SCT018 BKN022 04/01 Q1009 WHT WHT TEMPO BLU","observationTime":"2026-03-26T08:20:00.000Z","flightCategory":"MVFR","latitude":51.768,"longitude":13.168},"EGYH":{"rawOb":"METAR EGYH 260820Z AUTO 33013KT 9999 NCD 04/00 Q1021","observationTime":"2026-03-26T08:20:00.000Z","flightCategory":"VFR","latitude":52.873,"longitude":0.139},"ENRO":{"rawOb":"METAR ENRO 260820Z 30015KT 9999 -SN BKN020 00/M02 Q0988","observationTime":"2026-03-26T08:20:00.000Z","flightCategory":"MVFR","latitude":62.578,"longitude":11.342},"ETHF":{"rawOb":"METAR ETHF 260820Z 31011KT 9999 SCT022 SCT200 05/M01 Q1012 BLU+BLU+ TEMPO WHT","observationTime":"2026-03-26T08:20:00.000Z","flightCategory":"VFR","latitude":51.114,"longitude":9.286},"EGOV":{"rawOb":"METAR EGOV 260820Z 33006KT 9999 FEW027 BKN110 07/01 Q1023 NOSIG RMK BLU BLU","observationTime":"2026-03-26T08:20:00.000Z","flightCategory":"VFR","latitude":53.252,"longitude":-4.536},"EGOS":{"rawOb":"METAR EGOS 260820Z 30005KT 9999 FEW029 05/01 Q1023 NOSIG RMK BLU BLU","observationTime":"2026-03-26T08:20:00.000Z","flightCategory":"VFR","latitude":52.795,"longitude":-2.665},"EGXW":{"rawOb":"METAR EGXW 260820Z 31008KT 9999 FEW040 04/M02 Q1021 NOSIG RMK BLU BLU","observationTime":"2026-03-26T08:20:00.000Z","flightCategory":"VFR","latitude":53.175,"longitude":-0.523},"EGXT":{"rawOb":"METAR EGXT 260820Z 31009KT 9999 SKC 04/M01 Q1021 RMK BLU","observationTime":"2026-03-26T08:20:00.000Z","flightCategory":"VFR","latitude":52.611,"longitude":-0.461},"EGXE":{"rawOb":"METAR EGXE 260820Z 28010KT 9999 FEW020 04/M01 Q1021 RMK BLU","observationTime":"2026-03-26T08:20:00.000Z","flightCategory":"VFR","latitude":54.297,"longitude":-1.533},"EGWU":{"rawOb":"METAR EGWU 260820Z 35007KT 9999 FEW020 05/01 Q1022 NOSIG RMK BLU BLU","observationTime":"2026-03-26T08:20:00.000Z","flightCategory":"VFR","latitude":51.549,"longitude":-0.417},"EGVP":{"rawOb":"METAR EGVP 260820Z 30005KT 9999 FEW017 05/01 Q1023 NOSIG RMK BLU BLU","observationTime":"2026-03-26T08:20:00.000Z","flightCategory":"VFR","latitude":51.139,"longitude":-1.569},"EGVO":{"rawOb":"METAR EGVO 260820Z 32009KT 9999 FEW018 05/02 Q1022 NOSIG RMK BLU BLU","observationTime":"2026-03-26T08:20:00.000Z","flightCategory":"VFR","latitude":51.239,"longitude":-0.945},"EGVN":{"rawOb":"METAR EGVN 260820Z 32008KT 9999 FEW020 05/02 Q1022 NOSIG RMK BLU BLU","observationTime":"2026-03-26T08:20:00.000Z","flightCategory":"VFR","latitude":51.758,"longitude":-1.578},"EGUW":{"rawOb":"METAR EGUW 260820Z 32014KT 9999 FEW030 04/M00 Q1020 NOSIG RMK BLU BLU","observationTime":"2026-03-26T08:20:00.000Z","flightCategory":"VFR","latitude":52.124,"longitude":0.957},"EGUB":{"rawOb":"METAR EGUB 260820Z 29004KT 9999 FEW035 04/02 Q1022 NOSIG RMK BLU BLU","observationTime":"2026-03-26T08:20:00.000Z","flightCategory":"VFR","latitude":51.62,"longitude":-1.099},"ETGG":{"rawOb":"METAR ETGG 260820Z AUTO 30025G35KT 9999 // ////// 05/M02 Q1006 ///","observationTime":"2026-03-26T08:20:00.000Z","flightCategory":"VFR","latitude":54.827,"longitude":9.506},"EGQS":{"rawOb":"METAR EGQS 260820Z 27011KT 9999 -SHRASN BKN040 04/M01 Q1018 NOSIG RMK BLU BLU","observationTime":"2026-03-26T08:20:00.000Z","flightCategory":"VFR","latitude":57.711,"longitude":-3.324},"EGDM":{"rawOb":"METAR EGDM 260820Z 33005KT 9999 FEW015 06/02 Q1022 NOSIG RMK BLU BLU","observationTime":"2026-03-26T08:20:00.000Z","flightCategory":"VFR","latitude":51.153,"longitude":-1.75},"ETMN":{"rawOb":"METAR ETMN 260820Z 32015KT 9999 FEW020 SCT035 BKN070 05/M01 Q1009 BLU BLU TEMPO YLO","observationTime":"2026-03-26T08:20:00.000Z","flightCategory":"VFR","latitude":53.765,"longitude":8.658},"ENRM":{"rawOb":"METAR ENRM 260820Z 00000KT CAVOK 04/03 Q0987","observationTime":"2026-03-26T08:20:00.000Z","flightCategory":"VFR","latitude":64.835,"longitude":11.141},"ENLK":{"rawOb":"METAR ENLK 260820Z 01015KT 9999 SCT018 SCT030 04/01 Q0986","observationTime":"2026-03-26T08:20:00.000Z","flightCategory":"VFR","latitude":68.155,"longitude":13.615},"EGDY":{"rawOb":"METAR EGDY 260820Z 31009KT 9999 FEW015 07/03 Q1023 NOSIG RMK BLU BLU","observationTime":"2026-03-26T08:20:00.000Z","flightCategory":"VFR","latitude":51.006,"longitude":-2.643},"LXGB":{"rawOb":"METAR LXGB 260820Z 06004KT CAVOK 15/11 Q1013 NOSIG","observationTime":"2026-03-26T08:20:00.000Z","flightCategory":"VFR","latitude":36.151,"longitude":-5.35},"KHEY":{"rawOb":"SPECI KHEY 260820Z AUTO 00000KT 10SM CLR 14/14 A3012 RMK AO2 SLP200","observationTime":"2026-03-26T08:20:00.000Z","flightCategory":"VFR","latitude":31.348,"longitude":-85.655},"ETNL":{"rawOb":"METAR ETNL 260820Z 28012KT 9999 FEW014 BKN018 05/01 Q1005 WHT BLU TEMPO GRN","observationTime":"2026-03-26T08:20:00.000Z","flightCategory":"MVFR","latitude":53.916,"longitude":12.279},"ETHL":{"rawOb":"METAR ETHL 260820Z 33008KT 9999 FEW006 BKN012 BKN025 01/M01 Q1010 GRN BLU TEMPO YLO","observationTime":"2026-03-26T08:20:00.000Z","flightCategory":"MVFR","latitude":48.218,"longitude":9.91},"LCRA":{"rawOb":"METAR LCRA 260820Z 22007KT 9999 FEW060 SCT220 19/08 Q1002 NOSIG","observationTime":"2026-03-26T08:20:00.000Z","flightCategory":"VFR","latitude":34.59,"longitude":32.988},"KMWS":{"rawOb":"METAR KMWS 260820Z 02001KT 14/M04","observationTime":"2026-03-26T08:20:00.000Z","flightCategory":"null","latitude":34.226,"longitude":-118.057},"ETSI":{"rawOb":"METAR ETSI 260820Z 35011KT 9999 SCT017 SCT025 BKN035 04/M01 Q1010 BLU BLU TEMPO WHT","observationTime":"2026-03-26T08:20:00.000Z","flightCategory":"VFR","latitude":48.716,"longitude":11.534},"ETHN":{"rawOb":"METAR ETHN 260820Z COR 33009KT 9999 BKN012 02/M01 Q1011 GRN GRN BECMG BLU","observationTime":"2026-03-26T08:20:00.000Z","flightCategory":"MVFR","latitude":49.398,"longitude":9.958},"FACV":{"rawOb":"SPECI FACV 260819Z 08001KT 9999 FEW045 26/M02 Q1017","observationTime":"2026-03-26T08:19:00.000Z","flightCategory":"VFR","latitude":-31.482,"longitude":19.762},"KLOR":{"rawOb":"SPECI KLOR 260819Z AUTO 00000KT 7SM CLR 12/12 A3012 RMK AO2 SLP182","observationTime":"2026-03-26T08:19:00.000Z","flightCategory":"VFR","latitude":31.36,"longitude":-85.749},"CYQI":{"rawOb":"SPECI CYQI 260819Z 21015G23KT 10SM -RA BKN005 OVC020 03/02 A3018 RMK SF7SF1 SLP225","observationTime":"2026-03-26T08:19:00.000Z","flightCategory":"IFR","latitude":43.831,"longitude":-66.088},"KANJ":{"rawOb":"SPECI KANJ 260819Z AUTO 00000KT 3SM BR SCT005 OVC120 M03/M04 A2973 RMK AO2 T10331039","observationTime":"2026-03-26T08:19:00.000Z","flightCategory":"MVFR","latitude":46.48,"longitude":-84.3581},"CYQF":{"rawOb":"SPECI CYQF 260819Z AUTO 01003KT 3/4SM -SN VV016 M13/M15 A3018 RMK SLP296","observationTime":"2026-03-26T08:19:00.000Z","flightCategory":"LIFR","latitude":52.179,"longitude":-113.903},"KRNO":{"rawOb":"SPECI KRNO 260818Z 28012KT 10SM SCT180 14/01 A3011 RMK AO2 WSHFT 0758 T01440011","observationTime":"2026-03-26T08:18:00.000Z","flightCategory":"VFR","latitude":39.5077,"longitude":-119.7683},"CYUX":{"rawOb":"SPECI CYUX 260817Z AUTO 04027KT 1/8SM +SN BLSN FEW001 SCT029 SCT130 BKN150 M22/M25 A2976 RMK PCPN 0.5MM PAST HR SLP081","observationTime":"2026-03-26T08:17:00.000Z","flightCategory":"LIFR","latitude":68.772,"longitude":-81.233},"CYXR":{"rawOb":"SPECI CYXR 260817Z AUTO 34016G23KT 9SM OVC011 M05/M06 A2975 RMK ICE PRESRR SLP092","observationTime":"2026-03-26T08:17:00.000Z","flightCategory":"MVFR","latitude":47.698,"longitude":-79.852},"CYPL":{"rawOb":"SPECI CYPL 260817Z AUTO 04003KT 010V070 9SM SCT018 BKN071 OVC093 M13/M18 A2997 RMK SLP185","observationTime":"2026-03-26T08:17:00.000Z","flightCategory":"VFR","latitude":51.449,"longitude":-90.218},"GMAG":{"rawOb":"SPECI GMAG 260817Z 24008KT 4000 BR BKN013 SCT020 15/15 Q1011 NOSIG","observationTime":"2026-03-26T08:17:00.000Z","flightCategory":"IFR","latitude":29.031,"longitude":-10.051},"KINL":{"rawOb":"SPECI KINL 260816Z AUTO 02005KT 4SM BR OVC005 M01/M01 A2978 RMK AO2 FZRAE10 CIG 004V008 P0000 I1000 T10061011","observationTime":"2026-03-26T08:16:00.000Z","flightCategory":"IFR","latitude":48.5594,"longitude":-93.3955},"LHPA":{"rawOb":"METAR LHPA 260815Z 34014KT 9999 BKN013 BKN026 06/04 Q1000 TEMPO -RA RMK GRN","observationTime":"2026-03-26T08:15:00.000Z","flightCategory":"MVFR","latitude":47.362,"longitude":17.494},"KBIX":{"rawOb":"SPECI KBIX 260815Z 16004KT 10SM OVC010 21/18 A3007 RMK AO2A SLP186","observationTime":"2026-03-26T08:15:00.000Z","flightCategory":"MVFR","latitude":30.415,"longitude":-88.922},"LHPP":{"rawOb":"METAR LHPP 260815Z AUTO 03007KT 9999 -SHRA NSC 08/05 Q0997","observationTime":"2026-03-26T08:15:00.000Z","flightCategory":"VFR","latitude":45.991,"longitude":18.241},"LHPR":{"rawOb":"METAR LHPR 260815Z AUTO 33010KT 300V360 9999 -SHRA OVC014 07/04 Q0999 NOSIG","observationTime":"2026-03-26T08:15:00.000Z","flightCategory":"MVFR","latitude":47.627,"longitude":17.808},"LHNY":{"rawOb":"METAR LHNY 260815Z AUTO 09006KT 060V120 CAVOK 13/M00 Q1000","observationTime":"2026-03-26T08:15:00.000Z","flightCategory":"VFR","latitude":47.984,"longitude":21.6916},"LHSM":{"rawOb":"METAR LHSM 260815Z AUTO 01015KT 9999 -SHRA FEW017 BKN039 07/04 Q0999 NOSIG","observationTime":"2026-03-26T08:15:00.000Z","flightCategory":"VFR","latitude":46.689,"longitude":17.161},"LHDC":{"rawOb":"METAR LHDC 260815Z AUTO 15007KT 110V200 CAVOK 14/02 Q0999 NOSIG","observationTime":"2026-03-26T08:15:00.000Z","flightCategory":"VFR","latitude":47.489,"longitude":21.615},"LHKE":{"rawOb":"METAR LHKE 260815Z 28003KT 190V350 CAVOK 11/02 Q0998 NOSIG RMK BLU","observationTime":"2026-03-26T08:15:00.000Z","flightCategory":"VFR","latitude":46.917,"longitude":19.749},"PAPG":{"rawOb":"SPECI PAPG 260815Z AUTO VRB03KT 9SM -SN FEW018 SCT025 OVC050 M02/M03 A3007 RMK AO2 P0000 FZRANO TSNO $","observationTime":"2026-03-26T08:15:00.000Z","flightCategory":"VFR","latitude":56.805,"longitude":-132.935},"LHSN":{"rawOb":"METAR LHSN 260815Z 13008KT CAVOK 10/03 Q0998 NOSIG RMK BLU","observationTime":"2026-03-26T08:15:00.000Z","flightCategory":"VFR","latitude":47.123,"longitude":20.235},"K1R8":{"rawOb":"METAR K1R8 260815Z AUTO 00000KT 1/4SM FG OVC001 14/14 A3012 RMK AO2","observationTime":"2026-03-26T08:15:00.000Z","flightCategory":"LIFR","latitude":30.8691,"longitude":-87.8184},"KGGP":{"rawOb":"METAR KGGP 260814Z AUTO 22010KT 10SM SCT070 BKN085 16/13 A2985 RMK AO2","observationTime":"2026-03-26T08:14:00.000Z","flightCategory":"VFR","latitude":40.7127,"longitude":-86.3674},"KPWT":{"rawOb":"SPECI KPWT 260814Z AUTO 00000KT 10SM CLR M02/M02 A3039 RMK AO2 FZRANO","observationTime":"2026-03-26T08:14:00.000Z","flightCategory":"VFR","latitude":47.4942,"longitude":-122.7594},"CYMT":{"rawOb":"SPECI CYMT 260813Z AUTO 08005KT 2SM -SN OVC024 M13/M15 A2972 RMK SLP099","observationTime":"2026-03-26T08:13:00.000Z","flightCategory":"IFR","latitude":49.779,"longitude":-74.527},"KVWU":{"rawOb":"METAR KVWU 260813Z AUTO 32007KT 5SM BR BKN009 OVC025 02/02 A2982 RMK AO2","observationTime":"2026-03-26T08:13:00.000Z","flightCategory":"IFR","latitude":48.1502,"longitude":-94.5121},"KILE":{"rawOb":"SPECI KILE 260812Z AUTO 17009KT 10SM BKN017 19/19 A3003 RMK AO2","observationTime":"2026-03-26T08:12:00.000Z","flightCategory":"MVFR","latitude":31.084,"longitude":-97.6885},"K1LN":{"rawOb":"SPECI K1LN 260811Z AUTO 01013KT 9SM -SN OVC010 M09/M11 A3007 RMK AO2 SNE0755SNB01 SLP212 $","observationTime":"2026-03-26T08:11:00.000Z","flightCategory":"MVFR","latitude":48.79,"longitude":-102.27},"VCBI":{"rawOb":"METAR VCBI 260810Z 25008KT 9999 FEW018 33/24 Q1008 NOSIG","observationTime":"2026-03-26T08:10:00.000Z","flightCategory":"VFR","latitude":7.181,"longitude":79.884},"ETIK":{"rawOb":"SPECI ETIK 260810Z AUTO 32008KT 9999 SCT017 OVC045 05/01 A2986 RMK AO2 SLP121 $","observationTime":"2026-03-26T08:10:00.000Z","flightCategory":"VFR","latitude":49.472,"longitude":10.39},"KLWT":{"rawOb":"SPECI KLWT 260810Z AUTO 09010KT 1/2SM SN FZFG FEW004 OVC007 M01/M01 A3003 RMK AO2 P0002 T10061011","observationTime":"2026-03-26T08:10:00.000Z","flightCategory":"LIFR","latitude":47.0544,"longitude":-109.4565},"KJMS":{"rawOb":"SPECI KJMS 260810Z AUTO 35019G25KT 10SM BKN007 BKN055 OVC070 M01/M02 A2990 RMK AO2 T10111022","observationTime":"2026-03-26T08:10:00.000Z","flightCategory":"IFR","latitude":46.9259,"longitude":-98.6704},"VCRI":{"rawOb":"METAR VCRI 260810Z 07008KT 020V130 9999 SCT018 35/22 Q1008","observationTime":"2026-03-26T08:10:00.000Z","flightCategory":"VFR","latitude":6.287,"longitude":81.125},"KLHW":{"rawOb":"SPECI KLHW 260810Z AUTO 00000KT 10SM BKN004 12/11 A3016 RMK AO2 BKN V SCT SLP216 $","observationTime":"2026-03-26T08:10:00.000Z","flightCategory":"LIFR","latitude":31.8872,"longitude":-81.5625},"SBOI":{"rawOb":"SPECI SBOI 260810Z AUTO VRB02KT 9999 // FEW002/// SCT010/// 24/24 Q1010","observationTime":"2026-03-26T08:10:00.000Z","flightCategory":"VFR","latitude":3.861,"longitude":-51.796},"KNPA":{"rawOb":"SPECI KNPA 260810Z AUTO 00000KT 10SM BKN011 14/13 A3011 RMK AO2 T01390133 $","observationTime":"2026-03-26T08:10:00.000Z","flightCategory":"MVFR","latitude":30.356,"longitude":-87.323},"KVBG":{"rawOb":"SPECI KVBG 260810Z AUTO 00000KT 6SM BR SCT002 11/10 A3000 RMK AO2 SLP161 TSNO $","observationTime":"2026-03-26T08:10:00.000Z","flightCategory":"VFR","latitude":34.733,"longitude":-120.583},"KGRK":{"rawOb":"SPECI KGRK 260810Z AUTO 16010KT 10SM BKN015 20/18 A3001 RMK AO2 BKN V FEW SLP151","observationTime":"2026-03-26T08:10:00.000Z","flightCategory":"MVFR","latitude":31.0779,"longitude":-97.8323},"KHLR":{"rawOb":"SPECI KHLR 260810Z AUTO 16007KT 10SM BKN015 20/17 A3000 RMK AO2 BKN V SCT SLP150","observationTime":"2026-03-26T08:10:00.000Z","flightCategory":"MVFR","latitude":31.1361,"longitude":-97.7149},"KCMA":{"rawOb":"SPECI KCMA 260809Z AUTO 05007KT 6SM BR SCT006 15/14 A2993 RMK AO2 T01500139","observationTime":"2026-03-26T08:09:00.000Z","flightCategory":"VFR","latitude":34.2114,"longitude":-119.0876},"CYAY":{"rawOb":"SPECI CYAY 260808Z AUTO 22015G23KT 9SM CLR M06/M09 A2994 RMK SLP144","observationTime":"2026-03-26T08:08:00.000Z","flightCategory":"VFR","latitude":51.39,"longitude":-56.081},"KCEU":{"rawOb":"SPECI KCEU 260808Z AUTO 00000KT 10SM BKN027 OVC075 13/08 A3018 RMK AO2 T01280083","observationTime":"2026-03-26T08:08:00.000Z","flightCategory":"MVFR","latitude":34.6722,"longitude":-82.8814},"OERK":{"rawOb":"SPECI OERK 260808Z 29014KT 3000 TSRA FEW030CB OVC035 24/14 Q1006 NOSIG","observationTime":"2026-03-26T08:08:00.000Z","flightCategory":"IFR","latitude":24.945,"longitude":46.702},"OERR":{"rawOb":"SPECI OERR 260807Z 27010KT 8000 RA BKN030 12/11 Q1000 NOSIG","observationTime":"2026-03-26T08:07:00.000Z","flightCategory":"MVFR","latitude":30.907,"longitude":41.138},"NZCM":{"rawOb":"SPECI NZCM 260807Z AUTO 07026G34KT 1300 -SN BR BKN010 OVC045 M22/M26 A2900 RMK AO2 PK WND 08034/0801 SNB0807 SLP825 T12221261","observationTime":"2026-03-26T08:07:00.000Z","flightCategory":"LIFR","latitude":-77.85,"longitude":166.667},"CYGW":{"rawOb":"SPECI CYGW 260807Z AUTO 14006KT 9SM CLR M26/M28 A3004 RMK SLP177","observationTime":"2026-03-26T08:07:00.000Z","flightCategory":"VFR","latitude":55.283,"longitude":-77.76},"KPSM":{"rawOb":"SPECI KPSM 260806Z 17005KT 6SM BR SCT045 BKN075 04/02 A3002 RMK AO2A RAE05 SLP169","observationTime":"2026-03-26T08:06:00.000Z","flightCategory":"VFR","latitude":43.0677,"longitude":-70.8127},"CYYJ":{"rawOb":"SPECI CYYJ 260806Z VRB02KT 30SM FEW250 02/M00 A3034 RMK CI1 CI TR SLP277","observationTime":"2026-03-26T08:06:00.000Z","flightCategory":"VFR","latitude":48.642,"longitude":-123.433},"KRND":{"rawOb":"SPECI KRND 260805Z AUTO 16009KT 10SM OVC014 20/16 A3002 RMK AO2 CIG 013 RWY15R SLP158 $","observationTime":"2026-03-26T08:05:00.000Z","flightCategory":"MVFR","latitude":29.537,"longitude":-98.268},"KOXD":{"rawOb":"METAR KOXD 260804Z AUTO 19005KT 10SM CLR 15/09 A2992 RMK AO2","observationTime":"2026-03-26T08:04:00.000Z","flightCategory":"VFR","latitude":39.5047,"longitude":-84.7838},"BIHN":{"rawOb":"METAR BIHN 260804Z 07010KT 9999 BR FEW010 SCT024 OVC034 M03/M08 Q1011","observationTime":"2026-03-26T08:04:00.000Z","flightCategory":"VFR","latitude":64.301,"longitude":-15.227},"BIIS":{"rawOb":"METAR BIIS 260804Z 03030G42KT 1500 VCSH OVC030 M02/M07 Q1000","observationTime":"2026-03-26T08:04:00.000Z","flightCategory":"LIFR","latitude":66.056,"longitude":-23.143},"KMML":{"rawOb":"SPECI KMML 260803Z AUTO 36016KT 10SM -RA BKN085 OVC100 11/08 A2975 RMK AO2 WSHFT 0743 P0000","observationTime":"2026-03-26T08:03:00.000Z","flightCategory":"VFR","latitude":44.4504,"longitude":-95.8215},"RJTE":{"rawOb":"SPECI RJTE 260803Z 04008KT 5000 -RA BR FEW010 BKN020 BKN060 13/11 Q1009 RMK 2ST010 5SC020 7SC060 A2981","observationTime":"2026-03-26T08:03:00.000Z","flightCategory":"MVFR","latitude":34.989,"longitude":139.831},"CYYR":{"rawOb":"SPECI CYYR 260803Z 29006KT 15SM -SHSN SCT032 BKN045 M20/M26 A3011 RMK SC3SC3 DENSITY ALT -4504FT VIS LWR W QUAD SLP203","observationTime":"2026-03-26T08:03:00.000Z","flightCategory":"VFR","latitude":53.32,"longitude":-60.417},"KHCO":{"rawOb":"METAR KHCO 260803Z AUTO 33001G02KT M04/M05 RMK AO2","observationTime":"2026-03-26T08:03:00.000Z","flightCategory":"null","latitude":48.7524,"longitude":-96.9376},"PAHX":{"rawOb":"METAR PAHX 260802Z AUTO 35004KT 10SM CLR M12/M19 A3045 RMK AO2 SLP313 T11221194 411221122 FZRANO","observationTime":"2026-03-26T08:02:00.000Z","flightCategory":"VFR","latitude":62.688,"longitude":-159.566},"K1ON":{"rawOb":"SPECI K1ON 260802Z AUTO 36016KT 7SM OVC010 M10/M12 A3010 RMK AO2 SNB0755E0756 SLP220 $","observationTime":"2026-03-26T08:02:00.000Z","flightCategory":"MVFR","latitude":48.82,"longitude":-101.28},"SBIP":{"rawOb":"SPECI SBIP 260801Z AUTO 00000KT 0750 FG VV002 21/21 Q1017","observationTime":"2026-03-26T08:01:00.000Z","flightCategory":"LIFR","latitude":-19.471,"longitude":-42.488},"PAFS":{"rawOb":"METAR PAFS 260801Z AUTO 33004KT 10SM CLR A3037 RMK AO2 SLPNO FZRANO $","observationTime":"2026-03-26T08:01:00.000Z","flightCategory":"VFR","latitude":63.015,"longitude":-154.367},"KMRF":{"rawOb":"METAR KMRF 260801Z AUTO 34005KT 10SM CLR 11/M01 A3011 RMK AO2 SLP131 T01061011 $","observationTime":"2026-03-26T08:01:00.000Z","flightCategory":"VFR","latitude":30.3707,"longitude":-104.0117},"VLSK":{"rawOb":"METAR VLSK 260800Z 27008KT 8000 SCT023 38/20 Q1009 NOSIG","observationTime":"2026-03-26T08:00:00.000Z","flightCategory":"MVFR","latitude":16.557,"longitude":104.76},"VLLN":{"rawOb":"METAR VLLN 260800Z 04002KT 7000 NSC 32/20 Q1010 NOSIG","observationTime":"2026-03-26T08:00:00.000Z","flightCategory":"MVFR","latitude":20.963,"longitude":101.403},"VLLB":{"rawOb":"METAR VLLB 260800Z 22004KT 9999 FEW020 37/22 Q1005 NOSIG","observationTime":"2026-03-26T08:00:00.000Z","flightCategory":"VFR","latitude":19.897,"longitude":102.161},"BIAR":{"rawOb":"METAR BIAR 260800Z VRB03KT 9999 FEW040 M09/M13 Q1010","observationTime":"2026-03-26T08:00:00.000Z","flightCategory":"VFR","latitude":65.655,"longitude":-18.069},"BIEG":{"rawOb":"METAR BIEG 260800Z VRB02KT 9999 FEW043 BKN140 M13/M16 Q1013","observationTime":"2026-03-26T08:00:00.000Z","flightCategory":"VFR","latitude":65.275,"longitude":-14.409},"BIRK":{"rawOb":"METAR BIRK 260800Z 09023G35KT 0500 SN VV005 M02/M04 Q0991","observationTime":"2026-03-26T08:00:00.000Z","flightCategory":"LIFR","latitude":64.129,"longitude":-21.941},"LBIA":{"rawOb":"METAR LBIA 260800Z 14002KT 9999 BKN200 11/05 Q1006","observationTime":"2026-03-26T08:00:00.000Z","flightCategory":"VFR","latitude":42.456,"longitude":26.352},"WSAP":{"rawOb":"METAR WSAP 260800Z 36008KT 9999 SCT022 BKN300 33/21 Q1007","observationTime":"2026-03-26T08:00:00.000Z","flightCategory":"VFR","latitude":1.36,"longitude":103.909},"SADP":{"rawOb":"METAR SADP 260800Z COR 00000KT 9000 NSC 11/09 Q1016","observationTime":"2026-03-26T08:00:00.000Z","flightCategory":"VFR","latitude":-34.61,"longitude":-58.613},"HUMA":{"rawOb":"METAR HUMA 260800Z 23010KT 9999 FEW020 FEW023CB 23/17 Q////","observationTime":"2026-03-26T08:00:00.000Z","flightCategory":"VFR","latitude":-0.555,"longitude":30.6},"SBGO":{"rawOb":"METAR SBGO 260800Z 00000KT 9999 FEW020 BKN080 20/19 Q1017","observationTime":"2026-03-26T08:00:00.000Z","flightCategory":"VFR","latitude":-16.632,"longitude":-49.221},"SBMN":{"rawOb":"METAR SBMN 260800Z VRB03KT 9999 FEW009 BKN100 23/22 Q1009","observationTime":"2026-03-26T08:00:00.000Z","flightCategory":"VFR","latitude":-3.146,"longitude":-59.986},"CTRA":{"rawOb":"METAR CTRA 260800Z AUTO 04006KT M06/M07 RMK AO1 SOG 48 1024 SLP135 T10611074","observationTime":"2026-03-26T08:00:00.000Z","flightCategory":"null","latitude":49.664,"longitude":-93.733},"HUAR":{"rawOb":"METAR HUAR 260800Z 27003KT CAVOK 25/18 Q1018","observationTime":"2026-03-26T08:00:00.000Z","flightCategory":"VFR","latitude":3.049,"longitude":30.913},"HUGU":{"rawOb":"METAR HUGU 260800Z 23004KT 9999 SCT024 26/20 Q1017","observationTime":"2026-03-26T08:00:00.000Z","flightCategory":"VFR","latitude":2.798,"longitude":32.275},"NFNA":{"rawOb":"METAR NFNA 260800Z 10005KT 9999 SCT018TCU SCT300 27/26 Q1009","observationTime":"2026-03-26T08:00:00.000Z","flightCategory":"VFR","latitude":-18.043,"longitude":178.559},"CWRU":{"rawOb":"METAR CWRU 260800Z AUTO 14053KT 04/01 RMK AO1 4PAST HR 3020 SLP249 P0002 T00370012 50004","observationTime":"2026-03-26T08:00:00.000Z","flightCategory":"null","latitude":50.112,"longitude":-127.941},"CWQS":{"rawOb":"METAR CWQS 260800Z AUTO 14014KT 04/M00 RMK AO1 1008 PK WND 15022/0703 SLP157 T00381003 50002","observationTime":"2026-03-26T08:00:00.000Z","flightCategory":"null","latitude":53.316,"longitude":-132.772},"CWWL":{"rawOb":"METAR CWWL 260800Z AUTO 12013G19KT 03/ RMK AO1 0PAST HR 1017 PK WND 12033/0711 SLP159 P0004 T0030 50012","observationTime":"2026-03-26T08:00:00.000Z","flightCategory":"null","latitude":53.493,"longitude":-130.638},"CWJO":{"rawOb":"METAR CWJO 260800Z AUTO 09006KT M09/M11 RMK AO1 2PAST HR 8054 SLP123 P0001 T10931113 50002","observationTime":"2026-03-26T08:00:00.000Z","flightCategory":"null","latitude":48.425,"longitude":-71.143},"SLCB":{"rawOb":"METAR SLCB 260800Z 00000KT 9999 FEW027 BKN070 BKN200 15/13 Q1025 NOSIG","observationTime":"2026-03-26T08:00:00.000Z","flightCategory":"VFR","latitude":-17.421,"longitude":-66.179},"SLVR":{"rawOb":"METAR SLVR 260800Z 16008KT 9999 FEW012 BKN020 BKN070 24/23 Q1012 NOSIG","observationTime":"2026-03-26T08:00:00.000Z","flightCategory":"MVFR","latitude":-17.645,"longitude":-63.135},"NFTF":{"rawOb":"METAR NFTF 260800Z 10007KT 9999 FEW009 FEW016TCU 26/22 Q1013","observationTime":"2026-03-26T08:00:00.000Z","flightCategory":"VFR","latitude":-21.241,"longitude":-175.15},"FBSK":{"rawOb":"METAR FBSK 260800Z VRB04KT 9999 SCT025 25/19 Q1021 NOSIG","observationTime":"2026-03-26T08:00:00.000Z","flightCategory":"VFR","latitude":-24.555,"longitude":25.918},"FBMN":{"rawOb":"METAR FBMN 260800Z 06011KT 020V090 CAVOK 26/21 Q1019","observationTime":"2026-03-26T08:00:00.000Z","flightCategory":"VFR","latitude":-19.973,"longitude":23.431},"FBKE":{"rawOb":"METAR FBKE 260800Z 07009KT 050V110 9999 FEW020 SCT070 27/20 Q1020","observationTime":"2026-03-26T08:00:00.000Z","flightCategory":"VFR","latitude":-17.833,"longitude":25.162},"FAUP":{"rawOb":"METAR FAUP 260800Z 34012KT 9999 FEW040 BKN100 25/20 Q1018 NOSIG","observationTime":"2026-03-26T08:00:00.000Z","flightCategory":"VFR","latitude":-28.399,"longitude":21.26},"FAPE":{"rawOb":"METAR FAPE 260800Z 24012KT 9999 FEW035 24/16 Q1015 NOSIG","observationTime":"2026-03-26T08:00:00.000Z","flightCategory":"VFR","latitude":-33.985,"longitude":25.617},"DTTZ":{"rawOb":"METAR DTTZ 260800Z 23010KT 190V270 CAVOK 18/01 Q1010","observationTime":"2026-03-26T08:00:00.000Z","flightCategory":"VFR","latitude":33.94,"longitude":8.111},"DTTX":{"rawOb":"METAR DTTX 260800Z 24009KT 9999 FEW020 19/05 Q1010","observationTime":"2026-03-26T08:00:00.000Z","flightCategory":"VFR","latitude":34.718,"longitude":10.691},"DTTG":{"rawOb":"METAR DTTG 260800Z 24017KT 9999 FEW030 17/03 Q1012","observationTime":"2026-03-26T08:00:00.000Z","flightCategory":"VFR","latitude":33.733,"longitude":9.918},"DTTF":{"rawOb":"METAR DTTF 260800Z 23008KT 9999 FEW033 17/05 Q1011","observationTime":"2026-03-26T08:00:00.000Z","flightCategory":"VFR","latitude":34.422,"longitude":8.822},"DTKA":{"rawOb":"METAR DTKA 260800Z 31018KT 9999 SCT020 15/08 Q1011","observationTime":"2026-03-26T08:00:00.000Z","flightCategory":"VFR","latitude":36.98,"longitude":8.877},"SBPJ":{"rawOb":"METAR SBPJ 260800Z 10003KT 9999 FEW013 FEW030TCU BKN080 24/21 Q1013","observationTime":"2026-03-26T08:00:00.000Z","flightCategory":"VFR","latitude":-10.291,"longitude":-48.357},"NFFN":{"rawOb":"METAR NFFN 260800Z 00000KT 9999 FEW030 SCT300 27/25 Q1009 NOSIG","observationTime":"2026-03-26T08:00:00.000Z","flightCategory":"VFR","latitude":-17.755,"longitude":177.443},"FALE":{"rawOb":"METAR FALE 260800Z 17006KT 120V200 9000 OVC013 25/22 Q1014 NOSIG","observationTime":"2026-03-26T08:00:00.000Z","flightCategory":"MVFR","latitude":-29.602,"longitude":31.13},"FAKN":{"rawOb":"METAR FAKN 260800Z 31001KT 9999 FEW020 26/20 Q1020 NOSIG","observationTime":"2026-03-26T08:00:00.000Z","flightCategory":"VFR","latitude":-25.383,"longitude":31.106},"FAKM":{"rawOb":"METAR FAKM 260800Z 01002KT 9999 FEW060CB BKN090 23/19 Q1022 NOSIG","observationTime":"2026-03-26T08:00:00.000Z","flightCategory":"VFR","latitude":-28.803,"longitude":24.765},"FAHS":{"rawOb":"METAR FAHS 260800Z AUTO 01005KT //// // ////// 28/22 Q1018","observationTime":"2026-03-26T08:00:00.000Z","flightCategory":"null","latitude":-24.381,"longitude":31.044},"FAGG":{"rawOb":"METAR FAGG 260800Z 23004KT 130V290 9999 FEW025 22/15 Q1014","observationTime":"2026-03-26T08:00:00.000Z","flightCategory":"VFR","latitude":-34.006,"longitude":22.379},"HEMM":{"rawOb":"METAR HEMM 260800Z 29010KT 9999 SCT020 SCT022 18/11 Q1009 NOSIG","observationTime":"2026-03-26T08:00:00.000Z","flightCategory":"VFR","latitude":31.325,"longitude":27.222},"HEAX":{"rawOb":"METAR HEAX 260800Z 31012KT 9999 SCT020 SCT022 17/12 Q1006 NOSIG","observationTime":"2026-03-26T08:00:00.000Z","flightCategory":"VFR","latitude":30.918,"longitude":29.696},"HEAL":{"rawOb":"METAR HEAL 260800Z 32015KT 9999 SCT020 18/12 Q1007 NOSIG","observationTime":"2026-03-26T08:00:00.000Z","flightCategory":"VFR","latitude":30.924,"longitude":28.461},"FAEL":{"rawOb":"METAR FAEL 260800Z 22016KT CAVOK 22/16 Q1016","observationTime":"2026-03-26T08:00:00.000Z","flightCategory":"VFR","latitude":-33.036,"longitude":27.826},"HESN":{"rawOb":"METAR HESN 260800Z 30017KT 2000 SA NSC 19/03 Q1012 NOSIG","observationTime":"2026-03-26T08:00:00.000Z","flightCategory":"IFR","latitude":23.964,"longitude":32.82},"FACT":{"rawOb":"METAR FACT 260800Z 31005KT 250V020 CAVOK 21/14 Q1014 NOSIG","observationTime":"2026-03-26T08:00:00.000Z","flightCategory":"VFR","latitude":-33.965,"longitude":18.602},"HEGN":{"rawOb":"METAR HEGN 260800Z 29018KT 9999 SCT020 19/03 Q1007 NOSIG","observationTime":"2026-03-26T08:00:00.000Z","flightCategory":"VFR","latitude":27.179,"longitude":33.801},"CWIX":{"rawOb":"METAR CWIX 260800Z AUTO M10/M12 RMK AO1 SLP117 T10971116 58053","observationTime":"2026-03-26T08:00:00.000Z","flightCategory":"null","latitude":48.598,"longitude":-71.716},"HEPS":{"rawOb":"METAR HEPS 260800Z 24008KT 9999 SCT025 SCT030 15/11 Q1004 NOSIG","observationTime":"2026-03-26T08:00:00.000Z","flightCategory":"VFR","latitude":31.279,"longitude":32.238},"HESH":{"rawOb":"METAR HESH 260800Z 25013KT 9999 SCT020 20/05 Q1005 NOSIG","observationTime":"2026-03-26T08:00:00.000Z","flightCategory":"VFR","latitude":27.977,"longitude":34.395},"HEAT":{"rawOb":"METAR HEAT 260800Z 31015KT CAVOK 16/06 Q1012 NOSIG","observationTime":"2026-03-26T08:00:00.000Z","flightCategory":"VFR","latitude":27.049,"longitude":31.014},"HEBL":{"rawOb":"METAR HEBL 260800Z 34012KT 2000 SA NSC 19/03 Q1014 NOSIG","observationTime":"2026-03-26T08:00:00.000Z","flightCategory":"IFR","latitude":22.376,"longitude":31.612},"FAMM":{"rawOb":"METAR FAMM 260800Z 34006KT 9999 FEW020 25/18 Q1023 NOSIG","observationTime":"2026-03-26T08:00:00.000Z","flightCategory":"VFR","latitude":-25.798,"longitude":25.548},"FALA":{"rawOb":"METAR FALA 260800Z VRB02KT 7000 NSC 24/17 Q1024 NOSIG","observationTime":"2026-03-26T08:00:00.000Z","flightCategory":"MVFR","latitude":-25.939,"longitude":27.926},"HESX":{"rawOb":"METAR HESX 260800Z 25013KT 9999 FEW020 SCT025 14/09 Q1006 NOSIG","observationTime":"2026-03-26T08:00:00.000Z","flightCategory":"VFR","latitude":30.108,"longitude":30.896},"SAAP":{"rawOb":"METAR SAAP 260800Z 18003KT CAVOK 15/13 Q1016","observationTime":"2026-03-26T08:00:00.000Z","flightCategory":"VFR","latitude":-31.79,"longitude":-60.483},"LPLA":{"rawOb":"METAR LPLA 260800Z VRB02KT 9999 FEW022 BKN025 14/09 Q1030","observationTime":"2026-03-26T08:00:00.000Z","flightCategory":"MVFR","latitude":38.762,"longitude":-27.091},"HESG":{"rawOb":"METAR HESG 260800Z 29021KT CAVOK 19/04 Q1009 NOSIG","observationTime":"2026-03-26T08:00:00.000Z","flightCategory":"VFR","latitude":26.343,"longitude":31.743},"CXTV":{"rawOb":"METAR CXTV 260800Z AUTO 20012KT M20/M23 RMK AO1 SOG 73 6014 PK WND 20019/0707 SLP343 T11991229","observationTime":"2026-03-26T08:00:00.000Z","flightCategory":"null","latitude":68.746,"longitude":-133.502},"CXTN":{"rawOb":"METAR CXTN 260800Z AUTO M23/M26 RMK AO1 SOG 48 5003 SLP340 T12311255","observationTime":"2026-03-26T08:00:00.000Z","flightCategory":"null","latitude":69.199,"longitude":-122.359},"HEMA":{"rawOb":"METAR HEMA 260800Z 29014KT 9999 FEW020 20/03 Q1008 NOSIG","observationTime":"2026-03-26T08:00:00.000Z","flightCategory":"VFR","latitude":25.557,"longitude":34.584},"NSFA":{"rawOb":"METAR NSFA 260800Z 16004KT 9999 FEW022 BKN170 25/25 Q1008","observationTime":"2026-03-26T08:00:00.000Z","flightCategory":"VFR","latitude":-13.829,"longitude":-171.993},"HECP":{"rawOb":"METAR HECP 260800Z 26016KT 9999 SCT020 SCT100 14/10 Q1006 NOSIG","observationTime":"2026-03-26T08:00:00.000Z","flightCategory":"VFR","latitude":30.072,"longitude":31.838},"LPBJ":{"rawOb":"METAR LPBJ 260800Z 07006KT CAVOK 13/08 Q1015","observationTime":"2026-03-26T08:00:00.000Z","flightCategory":"VFR","latitude":38.073,"longitude":-7.931},"MYGF":{"rawOb":"METAR MYGF 260800Z AUTO 09005KT //// R24///// // NCD 18/16 A3009","observationTime":"2026-03-26T08:00:00.000Z","flightCategory":"null","latitude":26.555,"longitude":-78.698},"MYAF":{"rawOb":"METAR MYAF 260800Z AUTO 08005KT 030V110 9999 FEW027 23/18 A3005","observationTime":"2026-03-26T08:00:00.000Z","flightCategory":"VFR","latitude":24.689,"longitude":-77.796},"RKNY":{"rawOb":"METAR RKNY 260800Z 10005KT 070V130 3000 BR NSC 11/09 Q1012 NOSIG","observationTime":"2026-03-26T08:00:00.000Z","flightCategory":"IFR","latitude":38.061,"longitude":128.669},"RKJB":{"rawOb":"METAR RKJB 260800Z 29010KT 240V330 CAVOK 13/07 Q1015 NOSIG","observationTime":"2026-03-26T08:00:00.000Z","flightCategory":"VFR","latitude":34.991,"longitude":126.383},"RKTN":{"rawOb":"METAR RKTN 260800Z 33007KT 9999 FEW040 22/00 Q1011","observationTime":"2026-03-26T08:00:00.000Z","flightCategory":"VFR","latitude":35.894,"longitude":128.659},"RKTU":{"rawOb":"METAR RKTU 260800Z 28010KT CAVOK 20/M01 Q1012","observationTime":"2026-03-26T08:00:00.000Z","flightCategory":"VFR","latitude":36.717,"longitude":127.499},"CXAT":{"rawOb":"METAR CXAT 260800Z AUTO 14003KT M30/M34 RMK AO1 SLP153 T13011343 56010","observationTime":"2026-03-26T08:00:00.000Z","flightCategory":"null","latitude":73.006,"longitude":-85.033},"RKPK":{"rawOb":"METAR RKPK 260800Z 19012KT 8000 NSC 16/04 Q1013","observationTime":"2026-03-26T08:00:00.000Z","flightCategory":"MVFR","latitude":35.179,"longitude":128.938},"RKPC":{"rawOb":"METAR RKPC 260800Z 28006KT 240V320 9000 FEW045 SCT200 14/08 Q1015 NOSIG","observationTime":"2026-03-26T08:00:00.000Z","flightCategory":"VFR","latitude":33.511,"longitude":126.493},"CXBO":{"rawOb":"METAR CXBO 260800Z AUTO 07010KT M05/M06 RMK AO1 6PAST HR M P0002 T10541061 50018","observationTime":"2026-03-26T08:00:00.000Z","flightCategory":"null","latitude":46.837,"longitude":-71.197},"RKSS":{"rawOb":"METAR RKSS 260800Z 23010KT 9000 NSC 15/04 Q1014 NOSIG","observationTime":"2026-03-26T08:00:00.000Z","flightCategory":"VFR","latitude":37.558,"longitude":126.791},"LPMT":{"rawOb":"METAR LPMT 260800Z 02014KT CAVOK 15/09 Q1016","observationTime":"2026-03-26T08:00:00.000Z","flightCategory":"VFR","latitude":38.704,"longitude":-9.036},"CXCA":{"rawOb":"METAR CXCA 260800Z AUTO 01005KT M10/M12 RMK AO1 4PAST HR SOG 41 5003 SLP129 P0002 T11001118 50004","observationTime":"2026-03-26T08:00:00.000Z","flightCategory":"null","latitude":49.154,"longitude":-88.344},"CXCK":{"rawOb":"METAR CXCK 260800Z AUTO 35001KT M21/M24 RMK AO1 SOG 60 3018 SLP298 T12091243","observationTime":"2026-03-26T08:00:00.000Z","flightCategory":"null","latitude":62.115,"longitude":-136.192},"CXDE":{"rawOb":"METAR CXDE 260800Z AUTO 34006KT M22/M25 RMK AO1 SOG 24 4000 SLP373 T12241247","observationTime":"2026-03-26T08:00:00.000Z","flightCategory":"null","latitude":65.209,"longitude":-123.434},"CXDI":{"rawOb":"METAR CXDI 260800Z AUTO 24005KT 08/02 RMK AO1 SLP086 T00750018 56018","observationTime":"2026-03-26T08:00:00.000Z","flightCategory":"null","latitude":42.864,"longitude":-80.545},"CXDW":{"rawOb":"METAR CXDW 260800Z AUTO 34015G21KT M10/M13 RMK AO1 PK WND 34022/0716 SLP198 T10951126 53024","observationTime":"2026-03-26T08:00:00.000Z","flightCategory":"null","latitude":49.4,"longitude":-98.319},"CXEA":{"rawOb":"METAR CXEA 260800Z AUTO 02006KT M09/M11 RMK AO1 1PAST HR SOG 84 1020 SLP163 P0000 T10911110 50004","observationTime":"2026-03-26T08:00:00.000Z","flightCategory":"null","latitude":50.631,"longitude":-93.221},"LPST":{"rawOb":"METAR LPST 260800Z 04008KT 010V070 CAVOK 15/07 Q1016","observationTime":"2026-03-26T08:00:00.000Z","flightCategory":"VFR","latitude":38.831,"longitude":-9.34},"CXEC":{"rawOb":"METAR CXEC 260800Z AUTO 02003KT M12/M15 RMK AO1 SOG 28 1015 SLP300 T11151146","observationTime":"2026-03-26T08:00:00.000Z","flightCategory":"null","latitude":53.573,"longitude":-113.517},"LPMR":{"rawOb":"METAR LPMR 260800Z 03005KT CAVOK 12/04 Q1018","observationTime":"2026-03-26T08:00:00.000Z","flightCategory":"VFR","latitude":39.831,"longitude":-8.887},"CXEG":{"rawOb":"METAR CXEG 260800Z AUTO 33005KT M13/M16 RMK AO1 SOG 09 1018 SLP300 T11331156","observationTime":"2026-03-26T08:00:00.000Z","flightCategory":"null","latitude":53.307,"longitude":-113.606},"LPOV":{"rawOb":"METAR LPOV 260800Z 05004KT 020V080 CAVOK 13/04 Q1019","observationTime":"2026-03-26T08:00:00.000Z","flightCategory":"VFR","latitude":40.916,"longitude":-8.646},"CXET":{"rawOb":"METAR CXET 260800Z AUTO 20006KT 04/M02 RMK AO1 SLP075 T00391021 57014","observationTime":"2026-03-26T08:00:00.000Z","flightCategory":"null","latitude":44.234,"longitude":-79.779},"VERK":{"rawOb":"METAR VERK 260800Z 24004KT 5000 HZ FEW020 35/12 Q1010","observationTime":"2026-03-26T08:00:00.000Z","flightCategory":"MVFR","latitude":22.256,"longitude":84.816},"CXGH":{"rawOb":"METAR CXGH 260800Z AUTO 35012G19KT M11/M13 RMK AO1 PK WND 01020/0705 SLP203 T11071132 53027","observationTime":"2026-03-26T08:00:00.000Z","flightCategory":"null","latitude":50.631,"longitude":-96.984},"CXHA":{"rawOb":"METAR CXHA 260800Z AUTO 23009KT 10/05 RMK AO1 SLP100 T01030054 57007","observationTime":"2026-03-26T08:00:00.000Z","flightCategory":"null","latitude":42.033,"longitude":-82.896},"CWRA":{"rawOb":"METAR CWRA 260800Z AUTO 00024KT M00/M02 RMK AO1 SLP250 T10031020 53015","observationTime":"2026-03-26T08:00:00.000Z","flightCategory":"null","latitude":46.659,"longitude":-53.073},"VELR":{"rawOb":"METAR VELR 260800Z 02003KT 4000 HZ FEW025 SCT100 29/18 Q1011 NOSIG","observationTime":"2026-03-26T08:00:00.000Z","flightCategory":"IFR","latitude":27.296,"longitude":94.098},"VOGB":{"rawOb":"METAR VOGB 260800Z 16004KT 6000 FEW015 36/15 Q1013","observationTime":"2026-03-26T08:00:00.000Z","flightCategory":"MVFR","latitude":17.309,"longitude":76.957},"CXYH":{"rawOb":"METAR CXYH 260800Z AUTO 33002KT M28/M31 RMK AO1 SOG 61 1014 SLP373 T12751313","observationTime":"2026-03-26T08:00:00.000Z","flightCategory":"null","latitude":61.242,"longitude":-123.742},"CXLL":{"rawOb":"METAR CXLL 260800Z AUTO 00000KT M30/M32 RMK AO1 SOG 74 3009 SLP392 T12951324","observationTime":"2026-03-26T08:00:00.000Z","flightCategory":"null","latitude":61.125,"longitude":-122.851},"CXDK":{"rawOb":"METAR CXDK 260800Z AUTO 00000KT M31/M34 RMK AO1 SOG 45 3013 SLP377 T13121342","observationTime":"2026-03-26T08:00:00.000Z","flightCategory":"null","latitude":61.257,"longitude":-124.468},"CWSF":{"rawOb":"METAR CWSF 260800Z AUTO 16010KT M10/M16 RMK AO1 SLP216 T11021162 58012","observationTime":"2026-03-26T08:00:00.000Z","flightCategory":"null","latitude":49.251,"longitude":-65.325},"CWAF":{"rawOb":"METAR CWAF 260800Z AUTO 04009KT M07/M08 RMK AO1 T10661084","observationTime":"2026-03-26T08:00:00.000Z","flightCategory":"null","latitude":48.069,"longitude":-69.556},"VEJR":{"rawOb":"METAR VEJR 260800Z 29003KT 4500 HZ FEW020 SCT025 34/17 Q1013 BECMG 5000 HZ","observationTime":"2026-03-26T08:00:00.000Z","flightCategory":"IFR","latitude":19.075,"longitude":82.037},"VEJS":{"rawOb":"METAR VEJS 260800Z 00000KT 5000 HZ SCT020 35/17 Q1009","observationTime":"2026-03-26T08:00:00.000Z","flightCategory":"MVFR","latitude":22.813,"longitude":86.169},"TNCC":{"rawOb":"METAR TNCC 260800Z 12008KT 080V140 9999 FEW020 26/22 Q1011 NOSIG","observationTime":"2026-03-26T08:00:00.000Z","flightCategory":"VFR","latitude":12.189,"longitude":-68.96},"SAOR":{"rawOb":"METAR SAOR 260800Z 32001KT CAVOK 10/09 Q1015","observationTime":"2026-03-26T08:00:00.000Z","flightCategory":"VFR","latitude":-33.73,"longitude":-65.387},"CWAQ":{"rawOb":"METAR CWAQ 260800Z AUTO 36012KT M12/M14 RMK AO1 SOG 01 3022 PK WND 34021/0704 SLP234 T11241135","observationTime":"2026-03-26T08:00:00.000Z","flightCategory":"null","latitude":49.05,"longitude":-105.483},"FWCL":{"rawOb":"METAR FWCL 260800Z 23004KT 9999 FEW010 FEW020CB BKN025 26/19 Q1019 NOSIG","observationTime":"2026-03-26T08:00:00.000Z","flightCategory":"MVFR","latitude":-15.679,"longitude":34.974},"RKSM":{"rawOb":"METAR RKSM 260800Z 28008KT 8000 HZ FEW200 19/M04 A2992","observationTime":"2026-03-26T08:00:00.000Z","flightCategory":"MVFR","latitude":37.446,"longitude":127.114},"FQNP":{"rawOb":"METAR FQNP 260800Z 09005KT 030V120 9999 SCT020 SCT/// 27/23 Q1017","observationTime":"2026-03-26T08:00:00.000Z","flightCategory":"VFR","latitude":-15.106,"longitude":39.282},"FVMV":{"rawOb":"METAR FVMV 260800Z 16005KT 9999 BKN020 BKN080 23/20 Q1022","observationTime":"2026-03-26T08:00:00.000Z","flightCategory":"MVFR","latitude":-20.055,"longitude":30.859},"FVJN":{"rawOb":"METAR FVJN 260800Z 10005KT 9999 FEW024 SCT060 23/17 Q1024 NOSIG","observationTime":"2026-03-26T08:00:00.000Z","flightCategory":"VFR","latitude":-20.021,"longitude":28.627},"FVFA":{"rawOb":"METAR FVFA 260800Z 04010KT 9999 BKN025 SCT090 25/19 Q1020 NOSIG","observationTime":"2026-03-26T08:00:00.000Z","flightCategory":"MVFR","latitude":-18.096,"longitude":25.839},"FDMS":{"rawOb":"METAR FDMS 260800Z 00000KT 9999 FEW040 28/22 Q1017 NOSIG","observationTime":"2026-03-26T08:00:00.000Z","flightCategory":"VFR","latitude":-26.529,"longitude":31.308},"FAPP":{"rawOb":"METAR FAPP 260800Z 29003KT 9999 SCT025 26/21 Q1024","observationTime":"2026-03-26T08:00:00.000Z","flightCategory":"VFR","latitude":-23.845,"longitude":29.459},"SAZR":{"rawOb":"METAR SAZR 260800Z 12002KT CAVOK 12/10 Q1016","observationTime":"2026-03-26T08:00:00.000Z","flightCategory":"VFR","latitude":-36.593,"longitude":-64.28},"SAZN":{"rawOb":"METAR SAZN 260800Z VRB02KT CAVOK 05/02 Q1015","observationTime":"2026-03-26T08:00:00.000Z","flightCategory":"VFR","latitude":-38.95,"longitude":-68.141},"SAZM":{"rawOb":"METAR SAZM 260800Z 00000KT 9999 BKN010 13/13 Q1017","observationTime":"2026-03-26T08:00:00.000Z","flightCategory":"MVFR","latitude":-37.932,"longitude":-57.581},"SAZB":{"rawOb":"METAR SAZB 260800Z 34006KT CAVOK 09/06 Q1017","observationTime":"2026-03-26T08:00:00.000Z","flightCategory":"VFR","latitude":-38.725,"longitude":-62.169},"SAWH":{"rawOb":"METAR SAWH 260800Z 27008KT 240V300 9999 VCSH SCT040 BKN060 02/00 Q0988","observationTime":"2026-03-26T08:00:00.000Z","flightCategory":"VFR","latitude":-54.844,"longitude":-68.308},"CWAV":{"rawOb":"METAR CWAV 260800Z AUTO 02005KT M13/M14 RMK AO1 4PAST HR SOG 02 3013 SLP259 P0002 T11271144 50010","observationTime":"2026-03-26T08:00:00.000Z","flightCategory":"null","latitude":51.777,"longitude":-114.681},"SAWG":{"rawOb":"METAR SAWG 260800Z 29017KT CAVOK 03/M01 Q1000","observationTime":"2026-03-26T08:00:00.000Z","flightCategory":"VFR","latitude":-51.609,"longitude":-69.306},"CWBA":{"rawOb":"METAR CWBA 260800Z AUTO 33002KT M00/00 RMK AO1 SOG 51 T10020000","observationTime":"2026-03-26T08:00:00.000Z","flightCategory":"null","latitude":46.71,"longitude":-79.101},"CWTA":{"rawOb":"METAR CWTA 260800Z AUTO 03002KT M04/M05 RMK AO1 2PAST HR SOG 37 6041 SLP112 P0001 T10371047 50002","observationTime":"2026-03-26T08:00:00.000Z","flightCategory":"null","latitude":45.506,"longitude":-73.579},"SAWE":{"rawOb":"METAR SAWE 260800Z 27026KT CAVOK 03/M02 Q0992","observationTime":"2026-03-26T08:00:00.000Z","flightCategory":"VFR","latitude":-53.781,"longitude":-67.754},"CWTG":{"rawOb":"METAR CWTG 260800Z AUTO 02006KT M11/M22 RMK AO1 SLP200 T11101218 58027","observationTime":"2026-03-26T08:00:00.000Z","flightCategory":"null","latitude":49.317,"longitude":-67.381},"SAWC":{"rawOb":"METAR SAWC 260800Z 25017KT 9999 FEW020 07/M02 Q1001","observationTime":"2026-03-26T08:00:00.000Z","flightCategory":"VFR","latitude":-50.284,"longitude":-72.052},"SAVV":{"rawOb":"METAR SAVV 260800Z 32006KT CAVOK 08/04 Q1013","observationTime":"2026-03-26T08:00:00.000Z","flightCategory":"VFR","latitude":-40.867,"longitude":-63.001},"SAVT":{"rawOb":"METAR SAVT 260800Z 03003KT 360V080 CAVOK 06/M00 Q1014","observationTime":"2026-03-26T08:00:00.000Z","flightCategory":"VFR","latitude":-43.209,"longitude":-65.282},"SAVE":{"rawOb":"METAR SAVE 260800Z 32003KT 9999 FEW045 05/M00 Q1015","observationTime":"2026-03-26T08:00:00.000Z","flightCategory":"VFR","latitude":-42.906,"longitude":-71.147},"SAVC":{"rawOb":"METAR SAVC 260800Z 30012KT CAVOK 11/01 Q1011","observationTime":"2026-03-26T08:00:00.000Z","flightCategory":"VFR","latitude":-45.79,"longitude":-67.471},"CWTN":{"rawOb":"METAR CWTN 260800Z AUTO 36002KT M05/M07 RMK AO1 8PAST HR SOG 46 8050 SLP137 P0003 T10481069 50017","observationTime":"2026-03-26T08:00:00.000Z","flightCategory":"null","latitude":47.079,"longitude":-70.781},"SASJ":{"rawOb":"METAR SASJ 260800Z VRB02KT 9999 BKN005 OVC015 18/17 Q1016","observationTime":"2026-03-26T08:00:00.000Z","flightCategory":"IFR","latitude":-24.387,"longitude":-65.098},"CWTT":{"rawOb":"METAR CWTT 260800Z AUTO 13001KT M01/M01 RMK AO1 T10061011","observationTime":"2026-03-26T08:00:00.000Z","flightCategory":"null","latitude":45.27,"longitude":-72.17},"SASA":{"rawOb":"METAR SASA 260800Z VRB02KT 5000 -DZ OVC003 16/16 Q1018","observationTime":"2026-03-26T08:00:00.000Z","flightCategory":"LIFR","latitude":-24.856,"longitude":-65.486},"SARP":{"rawOb":"METAR SARP 260800Z 14005KT 9999 BR NSC 23/22 Q1013","observationTime":"2026-03-26T08:00:00.000Z","flightCategory":"VFR","latitude":-27.386,"longitude":-55.969},"SARI":{"rawOb":"METAR SARI 260800Z VRB01KT 8000 NSC 22/22 Q1013","observationTime":"2026-03-26T08:00:00.000Z","flightCategory":"MVFR","latitude":-25.737,"longitude":-54.473},"CWTY":{"rawOb":"METAR CWTY 260800Z AUTO 02006KT M05/M05 RMK AO1 SLP116 T10491049 56043","observationTime":"2026-03-26T08:00:00.000Z","flightCategory":"null","latitude":46.354,"longitude":-72.516},"SARF":{"rawOb":"METAR SARF 260800Z 18004KT 9000 NSC 21/21 Q1012","observationTime":"2026-03-26T08:00:00.000Z","flightCategory":"VFR","latitude":-26.213,"longitude":-58.228},"SARC":{"rawOb":"METAR SARC 260800Z 20005KT CAVOK 19/17 Q1013","observationTime":"2026-03-26T08:00:00.000Z","flightCategory":"VFR","latitude":-27.445,"longitude":-58.762},"CWUS":{"rawOb":"METAR CWUS 260800Z AUTO 23004KT 03/M09 RMK AO1 SLP224 T00311086 53030","observationTime":"2026-03-26T08:00:00.000Z","flightCategory":"null","latitude":49.563,"longitude":-119.649},"SANT":{"rawOb":"METAR SANT 260800Z 10003KT 6000 BKN040 OVC090 20/19 Q1014","observationTime":"2026-03-26T08:00:00.000Z","flightCategory":"MVFR","latitude":-26.841,"longitude":-65.105},"SANE":{"rawOb":"METAR SANE 260800Z 09003KT 9999 SCT040 BKN100 21/15 Q1014","observationTime":"2026-03-26T08:00:00.000Z","flightCategory":"VFR","latitude":-27.755,"longitude":-64.3},"SANC":{"rawOb":"METAR SANC 260800 04013KT 9999 FEW040 22/16 Q1012","observationTime":"2026-03-26T08:00:00.000Z","flightCategory":"VFR","latitude":-28.593,"longitude":-65.754},"SAMR":{"rawOb":"METAR SAMR 260800Z 25004KT CAVOK 10/06 Q1015","observationTime":"2026-03-26T08:00:00.000Z","flightCategory":"VFR","latitude":-34.585,"longitude":-68.414},"SAMM":{"rawOb":"METAR SAMM 260800Z 23003KT CAVOK 07/00 Q1018","observationTime":"2026-03-26T08:00:00.000Z","flightCategory":"VFR","latitude":-35.481,"longitude":-69.583},"SAME":{"rawOb":"METAR SAME 260800Z 20003KT CAVOK 12/06 Q1015","observationTime":"2026-03-26T08:00:00.000Z","flightCategory":"VFR","latitude":-32.832,"longitude":-68.793},"CYXY":{"rawOb":"METAR CYXY 260800Z 23005KT 15SM SCT200 M20/M26 A3018 RMK CI3 SLP292","observationTime":"2026-03-26T08:00:00.000Z","flightCategory":"VFR","latitude":60.71,"longitude":-135.059},"SAEZ":{"rawOb":"METAR SAEZ 260800Z 20002KT 9000 MIFG NSC 10/09 Q1016 BECMG 20002KT 3000 BR NSC","observationTime":"2026-03-26T08:00:00.000Z","flightCategory":"VFR","latitude":-34.822,"longitude":-58.536},"CWUX":{"rawOb":"METAR CWUX 260800Z AUTO 08007KT M10/M12 RMK AO1 SLP135 T11011122 58050","observationTime":"2026-03-26T08:00:00.000Z","flightCategory":"null","latitude":48.298,"longitude":-70.92},"DNPO":{"rawOb":"METAR DNPO 260800Z 20003KT 9999 BKN009 FEW020CB 27/25 Q1011 NOSIG RMK CB(SE-SW)","observationTime":"2026-03-26T08:00:00.000Z","flightCategory":"IFR","latitude":4.848,"longitude":7.022},"CYMO":{"rawOb":"METAR CYMO 260800Z AUTO 34006KT 9SM CLR M25/M27 A3001 RMK SLP167","observationTime":"2026-03-26T08:00:00.000Z","flightCategory":"VFR","latitude":51.292,"longitude":-80.607},"CYRJ":{"rawOb":"METAR CYRJ 260800Z 00000KT 5SM -SN OVC050 M12/M15 A2983 RMK NS8 SLP120","observationTime":"2026-03-26T08:00:00.000Z","flightCategory":"MVFR","latitude":48.523,"longitude":-72.266},"CWZA":{"rawOb":"METAR CWZA 260800Z AUTO 22004KT 05/M00 RMK AO1 SLP265 T00451003 53029","observationTime":"2026-03-26T08:00:00.000Z","flightCategory":"null","latitude":49.244,"longitude":-121.759},"CYXU":{"rawOb":"METAR CYXU 260800Z 28007KT 15SM SCT200 09/02 A2977 RMK CI3 SLP089","observationTime":"2026-03-26T08:00:00.000Z","flightCategory":"VFR","latitude":43.039,"longitude":-81.162},"HCMM":{"rawOb":"METAR HCMM 260800Z 12012KT 9999 FEW025 31/25 Q1012","observationTime":"2026-03-26T08:00:00.000Z","flightCategory":"VFR","latitude":2.015,"longitude":45.305},"CWZQ":{"rawOb":"METAR CWZQ 260800Z AUTO 16004KT M06/M09 RMK AO1 SLP246 T10621094 57004","observationTime":"2026-03-26T08:00:00.000Z","flightCategory":"null","latitude":46.547,"longitude":-61.049},"HTZA":{"rawOb":"METAR HTZA 260800Z 19006KT 160V220 9999 BKN016 27/25 Q1011 NOSIG","observationTime":"2026-03-26T08:00:00.000Z","flightCategory":"MVFR","latitude":-6.222,"longitude":39.225},"CXHM":{"rawOb":"METAR CXHM 260800Z AUTO 28005KT 07/M00 RMK AO1 SLP084 T00671004 56024","observationTime":"2026-03-26T08:00:00.000Z","flightCategory":"null","latitude":43.286,"longitude":-79.905},"HTTB":{"rawOb":"METAR HTTB 260800Z 09009KT 9999 SCT021 BKN070 24/19 Q1020 NOSIG","observationTime":"2026-03-26T08:00:00.000Z","flightCategory":"VFR","latitude":-5.074,"longitude":32.833},"HTSU":{"rawOb":"METAR HTSU 260800Z 06005KT 9999 BKN016 FEW018CB 20/15 Q1024 RERA","observationTime":"2026-03-26T08:00:00.000Z","flightCategory":"MVFR","latitude":-7.949,"longitude":31.609},"HTSO":{"rawOb":"METAR HTSO 260800Z 09010KT 9999 SCT021 FEW022CB 24/17 Q1020","observationTime":"2026-03-26T08:00:00.000Z","flightCategory":"VFR","latitude":-10.682,"longitude":35.584},"HTMW":{"rawOb":"METAR HTMW 260800Z 28007KT 9999 RA BKN021 FEW022CB 21/19 Q1020 NOSIG","observationTime":"2026-03-26T08:00:00.000Z","flightCategory":"MVFR","latitude":-2.442,"longitude":32.925},"HTMU":{"rawOb":"METAR HTMU 260800Z 00000KT 9999 BKN023 FEW024CB 25/19 Q1020","observationTime":"2026-03-26T08:00:00.000Z","flightCategory":"MVFR","latitude":-1.503,"longitude":33.802},"HTMT":{"rawOb":"METAR HTMT 260800Z 18005KT 9999 -RA SCT020 FEW021CB BKN070 24/24 Q1015 NOSIG","observationTime":"2026-03-26T08:00:00.000Z","flightCategory":"VFR","latitude":-10.335,"longitude":40.184},"HTMP":{"rawOb":"METAR HTMP 260800Z 16003KT 9000 -RA OVC070 19/18 Q1021","observationTime":"2026-03-26T08:00:00.000Z","flightCategory":"VFR","latitude":-6.355,"longitude":31.084},"HTMG":{"rawOb":"METAR HTMG 260800Z 00000KT 9999 BKN022 25/22 Q1016","observationTime":"2026-03-26T08:00:00.000Z","flightCategory":"MVFR","latitude":-6.797,"longitude":37.652},"HTKJ":{"rawOb":"METAR HTKJ 260800Z 19003KT 130V240 9999 FEW008 BKN020 22/21 RERA NOSIG","observationTime":"2026-03-26T08:00:00.000Z","flightCategory":"MVFR","latitude":-3.427,"longitude":37.058},"CXKA":{"rawOb":"METAR CXKA 260800Z AUTO 32003KT M17/M19 RMK AO1 SOG 85 3006 SLP145 T11721186","observationTime":"2026-03-26T08:00:00.000Z","flightCategory":"null","latitude":49.405,"longitude":-82.443},"HTKA":{"rawOb":"METAR HTKA 260800Z 18005KT 9999 SCT018 FEW019CB BKN080 23/21 Q1017 NOSIG","observationTime":"2026-03-26T08:00:00.000Z","flightCategory":"VFR","latitude":-4.887,"longitude":29.669},"HTIR":{"rawOb":"METAR HTIR 260800Z 03012KT 9999 SCT026 24/16 Q1021","observationTime":"2026-03-26T08:00:00.000Z","flightCategory":"VFR","latitude":-7.676,"longitude":35.753},"HTIB":{"rawOb":"METAR HTIB 260800Z 00000KT 9999 RA FEW018 FEW019CB BKN080 21/20 Q1017","observationTime":"2026-03-26T08:00:00.000Z","flightCategory":"VFR","latitude":-99.99,"longitude":-99.99},"HTDO":{"rawOb":"METAR HTDO 260800Z 11010KT 9999 BKN023 FEW024CB 23/18 Q1019 NOSIG","observationTime":"2026-03-26T08:00:00.000Z","flightCategory":"MVFR","latitude":-6.169,"longitude":35.751},"HTDA":{"rawOb":"METAR HTDA 260800Z 20005KT 9999 SCT023 BKN025 FEW028CB 29/23 Q1014 NOSIG","observationTime":"2026-03-26T08:00:00.000Z","flightCategory":"MVFR","latitude":-6.881,"longitude":39.201},"HTBU":{"rawOb":"METAR HTBU 260800Z 31004KT 9999 SCT012 FEW014CB BKN080 21/19 Q1018 NOSIG","observationTime":"2026-03-26T08:00:00.000Z","flightCategory":"VFR","latitude":-1.332,"longitude":31.821},"HTAR":{"rawOb":"METAR HTAR 260800Z 13005KT 9999 BKN020 BKN080 20/19 Q1022 NOSIG","observationTime":"2026-03-26T08:00:00.000Z","flightCategory":"MVFR","latitude":-3.368,"longitude":36.626},"CXKE":{"rawOb":"METAR CXKE 260800Z AUTO 09004KT M00/M00 RMK AO1 8038 SLP087 T10021001 50001","observationTime":"2026-03-26T08:00:00.000Z","flightCategory":"null","latitude":45.005,"longitude":-75.637},"MKJS":{"rawOb":"METAR MKJS 260800Z 16004KT 9999 FEW022 BKN036 25/21 Q1013","observationTime":"2026-03-26T08:00:00.000Z","flightCategory":"VFR","latitude":18.502,"longitude":-77.915},"DAAD":{"rawOb":"METAR DAAD 260800Z 34010KT 8000 FEW026 SCT100 16/01 Q1013","observationTime":"2026-03-26T08:00:00.000Z","flightCategory":"MVFR","latitude":35.333,"longitude":4.206},"DAAP":{"rawOb":"METAR DAAP 260800Z 11004KT CAVOK 20/M04 Q1014","observationTime":"2026-03-26T08:00:00.000Z","flightCategory":"VFR","latitude":26.724,"longitude":8.622},"DAAY":{"rawOb":"METAR DAAY 260800Z 00000KT 8000 SCT033 BKN100 12/07 Q1016","observationTime":"2026-03-26T08:00:00.000Z","flightCategory":"MVFR","latitude":33.532,"longitude":-0.248},"DAFH":{"rawOb":"METAR DAFH 260800Z 25010KT CAVOK 14/03 Q1014","observationTime":"2026-03-26T08:00:00.000Z","flightCategory":"VFR","latitude":32.93,"longitude":3.312},"FTTJ":{"rawOb":"METAR FTTJ 250800Z COR 02007KT 350V060 4000 DU NSC 36/06 Q1008 BECMG 6000 NSW","observationTime":"2026-03-26T08:00:00.000Z","flightCategory":"IFR","latitude":12.134,"longitude":15.034},"CYVP":{"rawOb":"METAR CYVP 260800Z 21007KT 15SM -SN FEW029 SCT072 SCT110 M30/M34 A3002 RMK SC2AS1AS1 SLP175","observationTime":"2026-03-26T08:00:00.000Z","flightCategory":"VFR","latitude":58.1,"longitude":-68.415},"DAOF":{"rawOb":"METAR DAOF 260800Z 11005KT 6000 FEW033CB SCT046 19/14 Q1010","observationTime":"2026-03-26T08:00:00.000Z","flightCategory":"MVFR","latitude":27.7,"longitude":-8.167},"VILD":{"rawOb":"METAR VILD 260800Z 32005KT 6000 NSC 30/14 Q1013","observationTime":"2026-03-26T08:00:00.000Z","flightCategory":"MVFR","latitude":30.855,"longitude":75.953},"DAOL":{"rawOb":"METAR DAOL 260800Z 12004KT 6000 SCT030 BKN200 11/11 Q1013","observationTime":"2026-03-26T08:00:00.000Z","flightCategory":"MVFR","latitude":35.542,"longitude":-0.532},"TAPA":{"rawOb":"METAR TAPA 260800Z 09008KT 060V140 9999 SCT018 25/20 Q1014 NOSIG","observationTime":"2026-03-26T08:00:00.000Z","flightCategory":"VFR","latitude":17.135,"longitude":-61.797},"DAOR":{"rawOb":"METAR DAOR 260800Z 13004KT 9999 SCT033 SCT100 17/11 Q1013","observationTime":"2026-03-26T08:00:00.000Z","flightCategory":"VFR","latitude":31.65,"longitude":-2.261},"CWQH":{"rawOb":"METAR CWQH 260800Z AUTO 00000KT M01/M01 RMK AO1 SOG 04 6036 SLP127 T10091013","observationTime":"2026-03-26T08:00:00.000Z","flightCategory":"null","latitude":45.369,"longitude":-71.824},"DAOV":{"rawOb":"METAR DAOV 260800Z 01004KT 7000 SCT026 SCT090 11/11 Q1014","observationTime":"2026-03-26T08:00:00.000Z","flightCategory":"MVFR","latitude":35.208,"longitude":0.147},"DAAE":{"rawOb":"METAR DAAE 260800Z 25009KT 9999 FEW020 SCT090 10/09 Q1015","observationTime":"2026-03-26T08:00:00.000Z","flightCategory":"VFR","latitude":36.712,"longitude":5.07},"DAAJ":{"rawOb":"METAR DAAJ 260800Z 19008KT CAVOK 19/M01 Q1018","observationTime":"2026-03-26T08:00:00.000Z","flightCategory":"VFR","latitude":24.286,"longitude":9.464},"DAAV":{"rawOb":"METAR DAAV 260800Z 31004KT 250V340 9999 FEW020 BKN200 15/08 Q1014","observationTime":"2026-03-26T08:00:00.000Z","flightCategory":"VFR","latitude":36.795,"longitude":5.877},"DABT":{"rawOb":"METAR DABT 260800Z 31009KT 9999 SCT023 10/06 Q1014","observationTime":"2026-03-26T08:00:00.000Z","flightCategory":"VFR","latitude":35.752,"longitude":6.309},"DAON":{"rawOb":"METAR DAON 260800Z VRB02KT 7000 SCT020 SCT026 12/11 Q1013","observationTime":"2026-03-26T08:00:00.000Z","flightCategory":"MVFR","latitude":35.013,"longitude":-1.457},"DAUH":{"rawOb":"METAR DAUH 260800Z 19006KT 160V220 CAVOK 19/00 Q1013","observationTime":"2026-03-26T08:00:00.000Z","flightCategory":"VFR","latitude":31.673,"longitude":6.14},"CWQK":{"rawOb":"METAR CWQK 260800Z AUTO 24020KT 06/M00 RMK AO1 PK WND 23027/0737 SLP279 T00641002 51033","observationTime":"2026-03-26T08:00:00.000Z","flightCategory":"null","latitude":48.298,"longitude":-123.531},"DAUZ":{"rawOb":"METAR DAUZ 260800Z 14007KT CAVOK 16/M05 Q1015","observationTime":"2026-03-26T08:00:00.000Z","flightCategory":"VFR","latitude":28.052,"longitude":9.643},"DAAS":{"rawOb":"METAR DAAS 260800Z 34006KT 9999 FEW030 SCT233 09/01 Q1014","observationTime":"2026-03-26T08:00:00.000Z","flightCategory":"VFR","latitude":36.18,"longitude":5.33},"DABS":{"rawOb":"METAR DABS 260800Z 33016KT 9999 SCT033 SCT100 11/05 Q1012","observationTime":"2026-03-26T08:00:00.000Z","flightCategory":"VFR","latitude":35.432,"longitude":8.121},"DAOB":{"rawOb":"METAR DAOB 260800Z VRB02KT 9999 SCT030 SCT090 12/10 Q1015","observationTime":"2026-03-26T08:00:00.000Z","flightCategory":"VFR","latitude":35.345,"longitude":1.476},"CWQO":{"rawOb":"METAR CWQO 260800Z AUTO 09005KT M08/M10 RMK AO1 T10821098","observationTime":"2026-03-26T08:00:00.000Z","flightCategory":"null","latitude":48.416,"longitude":-68.893},"RPLL":{"rawOb":"METAR RPLL 260800Z 14009KT 100V210 9999 FEW025 32/23 Q1009 NOSIG RMK A2980","observationTime":"2026-03-26T08:00:00.000Z","flightCategory":"VFR","latitude":14.507,"longitude":121.004},"DAOI":{"rawOb":"METAR DAOI 260800Z 06004KT CAVOK 11/06 Q1015","observationTime":"2026-03-26T08:00:00.000Z","flightCategory":"VFR","latitude":36.213,"longitude":1.332},"DAUA":{"rawOb":"METAR DAUA 260800Z 17007KT 9999 SCT046 BKN100 19/18 Q1011 RERA","observationTime":"2026-03-26T08:00:00.000Z","flightCategory":"VFR","latitude":27.839,"longitude":-0.186},"DAUB":{"rawOb":"METAR DAUB 260800Z 30005KT 240V010 CAVOK 18/04 Q1011","observationTime":"2026-03-26T08:00:00.000Z","flightCategory":"VFR","latitude":34.793,"longitude":5.738},"CWQP":{"rawOb":"METAR CWQP 260800Z AUTO 19011KT 04/01 RMK AO1 SLP083 T00370011 56037","observationTime":"2026-03-26T08:00:00.000Z","flightCategory":"null","latitude":43.84,"longitude":-77.153},"DAUG":{"rawOb":"METAR DAUG 260800Z 26004KT 230V290 CAVOK 19/M00 Q1014","observationTime":"2026-03-26T08:00:00.000Z","flightCategory":"VFR","latitude":32.384,"longitude":3.794},"FALW":{"rawOb":"METAR FALW 260800Z AUTO 00000KT //// // ////// 21/15 Q1014","observationTime":"2026-03-26T08:00:00.000Z","flightCategory":"null","latitude":-32.972,"longitude":18.158},"HKEM":{"rawOb":"METAR HKEM 260800Z 19006KT 9999 BKN022TCU 22/17","observationTime":"2026-03-26T08:00:00.000Z","flightCategory":"MVFR","latitude":-0.573,"longitude":37.497},"HKGA":{"rawOb":"METAR HKGA 260800Z 18004KT 9999 BKN025 31/21 Q1012","observationTime":"2026-03-26T08:00:00.000Z","flightCategory":"MVFR","latitude":-0.464,"longitude":39.649},"HKLU":{"rawOb":"METAR HKLU 260800Z 00000KT 9999 SCT026 33/26 Q1011","observationTime":"2026-03-26T08:00:00.000Z","flightCategory":"VFR","latitude":-2.252,"longitude":40.913},"HKNI":{"rawOb":"METAR HKNI 260800Z 00000KT 9999 BKN021 23/14","observationTime":"2026-03-26T08:00:00.000Z","flightCategory":"MVFR","latitude":-0.343,"longitude":36.915},"HKNK":{"rawOb":"METAR HKNK 260800Z 00000KT 9999 SCT026 BKN260 21/13","observationTime":"2026-03-26T08:00:00.000Z","flightCategory":"VFR","latitude":-0.298,"longitude":36.159},"FYRU":{"rawOb":"METAR FYRU 260800Z AUTO 09011KT //// // ////// 27/19 Q1022","observationTime":"2026-03-26T08:00:00.000Z","flightCategory":"null","latitude":-17.956,"longitude":19.724},"CAHR":{"rawOb":"METAR CAHR 260800Z AUTO 15003KT M04/M11 RMK AO1 SOG 04 8005 SLP251 T10441107","observationTime":"2026-03-26T08:00:00.000Z","flightCategory":"null","latitude":46.344,"longitude":-63.17},"CWQR":{"rawOb":"METAR CWQR 260800Z AUTO 02009KT M15/M22 RMK AO1 T11461224","observationTime":"2026-03-26T08:00:00.000Z","flightCategory":"null","latitude":50.221,"longitude":-64.207},"CWQV":{"rawOb":"METAR CWQV 260800Z AUTO 09011KT M10/M12 RMK AO1 T10961120","observationTime":"2026-03-26T08:00:00.000Z","flightCategory":"null","latitude":48.26,"longitude":-70.116},"CWRJ":{"rawOb":"METAR CWRJ 260800Z AUTO 34002KT M20/M21 RMK AO1 SLP295 T11951210 53015","observationTime":"2026-03-26T08:00:00.000Z","flightCategory":"null","latitude":51.565,"longitude":-107.924},"CWRK":{"rawOb":"METAR CWRK 260800Z AUTO 25001KT 01/M01 RMK AO1 SOG 31 6022 SLP074 T00061006","observationTime":"2026-03-26T08:00:00.000Z","flightCategory":"null","latitude":45.072,"longitude":-77.879},"CWRT":{"rawOb":"METAR CWRT 260800Z AUTO 13010G15KT M07/M09 RMK AO1 PK WND 13018/0722 SLP189 T10721092 51006","observationTime":"2026-03-26T08:00:00.000Z","flightCategory":"null","latitude":49.628,"longitude":-114.482},"CWRY":{"rawOb":"METAR CWRY 260800Z AUTO 09003KT M08/M09 RMK AO1 SLP208 T10791092 50009","observationTime":"2026-03-26T08:00:00.000Z","flightCategory":"null","latitude":49.133,"longitude":-112.051},"CWRZ":{"rawOb":"METAR CWRZ 260800Z AUTO 35001KT M09/M15 RMK AO1 SLP227 T10931152 56014","observationTime":"2026-03-26T08:00:00.000Z","flightCategory":"null","latitude":48.419,"longitude":-64.317},"CWSD":{"rawOb":"METAR CWSD 260800Z AUTO 15005KT M03/M10 RMK AO1 SOG 02 8007 SLP245 T10331104","observationTime":"2026-03-26T08:00:00.000Z","flightCategory":"null","latitude":46.441,"longitude":-63.837},"CWSG":{"rawOb":"METAR CWSG 260800Z AUTO M11/M16 RMK AO1 SLP203 T11101164 58026","observationTime":"2026-03-26T08:00:00.000Z","flightCategory":"null","latitude":49.109,"longitude":-66.655},"RPMD":{"rawOb":"METAR RPMD 260800Z 03004KT 9999 FEW018 SCT090 OVC250 27/23 Q1009 RMK A2980","observationTime":"2026-03-26T08:00:00.000Z","flightCategory":"VFR","latitude":7.125,"longitude":125.646},"RPLB":{"rawOb":"METAR RPLB 260800Z 20008KT 9999 FEW020 31/24 Q1009 NOSIG RMK A2980","observationTime":"2026-03-26T08:00:00.000Z","flightCategory":"VFR","latitude":14.794,"longitude":120.271},"FQIN":{"rawOb":"METAR FQIN 260800Z 06007KT 9999 SCT020 31/24 Q1015","observationTime":"2026-03-26T08:00:00.000Z","flightCategory":"VFR","latitude":-23.876,"longitude":35.407},"RPMR":{"rawOb":"METAR RPMR 260800Z 16008KT 9999 FEW018 BKN080 29/24 Q1008 RMK A2977","observationTime":"2026-03-26T08:00:00.000Z","flightCategory":"VFR","latitude":6.058,"longitude":125.096},"RPMZ":{"rawOb":"METAR RPMZ 260800Z 24006KT 190V270 9999 FEW016CB BKN090 28/25 Q1008 RMK A2977 CB NW","observationTime":"2026-03-26T08:00:00.000Z","flightCategory":"VFR","latitude":6.92,"longitude":122.063},"CWSK":{"rawOb":"METAR CWSK 260800Z AUTO 34003KT 03/01 RMK AO1 SLP257 T00250013 53029","observationTime":"2026-03-26T08:00:00.000Z","flightCategory":"null","latitude":49.783,"longitude":-123.161},"RPVK":{"rawOb":"METAR RPVK 260800Z 05010KT 030V090 9999 FEW016 SCT070 BKN240 29/25 Q1009 RMK A2980","observationTime":"2026-03-26T08:00:00.000Z","flightCategory":"VFR","latitude":11.683,"longitude":122.383},"RPVP":{"rawOb":"METAR RPVP 260800Z 09006KT 9999 FEW019 SCT250 32/25 Q1009 RMK A2980","observationTime":"2026-03-26T08:00:00.000Z","flightCategory":"VFR","latitude":9.742,"longitude":118.759},"CYVV":{"rawOb":"METAR CYVV 260800Z 24004KT 15SM SCT210 03/M01 A2976 RMK CI4 SLP087","observationTime":"2026-03-26T08:00:00.000Z","flightCategory":"VFR","latitude":44.745,"longitude":-81.107},"CWSL":{"rawOb":"METAR CWSL 260800Z AUTO 22003KT 04/M06 RMK AO1 SLP208 T00351059 51036","observationTime":"2026-03-26T08:00:00.000Z","flightCategory":"null","latitude":50.703,"longitude":-119.291},"CWSR":{"rawOb":"METAR CWSR 260800Z AUTO 34005KT M17/M19 RMK AO1 2PAST HR SOG 11 3015 SLP303 P0001 T11651194 50002","observationTime":"2026-03-26T08:00:00.000Z","flightCategory":"null","latitude":53.368,"longitude":-107.553},"DTTB":{"rawOb":"METAR DTTB 260800Z 31011KT 8000 -RA BKN020TCU SCT030 13/10 Q1010","observationTime":"2026-03-26T08:00:00.000Z","flightCategory":"MVFR","latitude":37.245,"longitude":9.791},"DTTD":{"rawOb":"METAR DTTD 260800Z 24012KT 190V280 8000 FEW026 18/M00 Q1013","observationTime":"2026-03-26T08:00:00.000Z","flightCategory":"MVFR","latitude":32.312,"longitude":10.386},"DTTK":{"rawOb":"METAR DTTK 260800Z 04003KT 9999 SCT023 14/07 Q1011","observationTime":"2026-03-26T08:00:00.000Z","flightCategory":"VFR","latitude":35.667,"longitude":10.1},"CWST":{"rawOb":"METAR CWST 260800Z AUTO 03005KT M06/M07 RMK AO1 4PAST HR SOG 01 8041 SLP144 P0002 T10631074 50007","observationTime":"2026-03-26T08:00:00.000Z","flightCategory":"null","latitude":47.354,"longitude":-70.03},"DTTL":{"rawOb":"METAR DTTL 260800Z 24006KT 180V310 9999 FEW030 15/11 Q1010","observationTime":"2026-03-26T08:00:00.000Z","flightCategory":"VFR","latitude":36.85,"longitude":11.083},"DTTN":{"rawOb":"METAR DTTN 260800Z 31009KT 9999 SCT020 SCT030 15/07 Q1012","observationTime":"2026-03-26T08:00:00.000Z","flightCategory":"VFR","latitude":36.483,"longitude":8.8},"CWKX":{"rawOb":"METAR CWKX 260800Z AUTO 01006KT M15/M22 RMK AO1 SOG 66 3013 SLP256 T11491220","observationTime":"2026-03-26T08:00:00.000Z","flightCategory":"null","latitude":58.429,"longitude":-130.011},"CWLC":{"rawOb":"METAR CWLC 260800Z AUTO 12021KT 02/M01 RMK AO1 PK WND 12024/0755 T00241014","observationTime":"2026-03-26T08:00:00.000Z","flightCategory":"null","latitude":54.296,"longitude":-130.609},"CWLE":{"rawOb":"METAR CWLE 260800Z AUTO 01004KT M18/M20 RMK AO1 SLP287 T11831202 53007","observationTime":"2026-03-26T08:00:00.000Z","flightCategory":"null","latitude":50.951,"longitude":-107.143},"CWMJ":{"rawOb":"METAR CWMJ 260800Z AUTO 11003KT M02/M02 RMK AO1 7PAST HR 8032 SLP080 P0003 T10191019 50014","observationTime":"2026-03-26T08:00:00.000Z","flightCategory":"null","latitude":46.275,"longitude":-75.992},"CYWK":{"rawOb":"METAR CYWK 260800Z AUTO 18003KT 9SM CLR M36/M40 A2994 RMK SLP214","observationTime":"2026-03-26T08:00:00.000Z","flightCategory":"VFR","latitude":52.927,"longitude":-66.874},"CWMM":{"rawOb":"METAR CWMM 260800Z AUTO 26001KT 04/01 RMK AO1 SLP269 T00420011 53028","observationTime":"2026-03-26T08:00:00.000Z","flightCategory":"null","latitude":49.208,"longitude":-122.69},"CZSM":{"rawOb":"METAR CZSM 260800Z AUTO 26003KT M23/M28 RMK AO1 SOG 55 2004 SLP353 T12331276","observationTime":"2026-03-26T08:00:00.000Z","flightCategory":"null","latitude":60.026,"longitude":-111.929},"CWMQ":{"rawOb":"METAR CWMQ 260800Z AUTO 03002KT M10/M12 RMK AO1 SLP257 T11031119 53018","observationTime":"2026-03-26T08:00:00.000Z","flightCategory":"null","latitude":49.903,"longitude":-109.466},"CWNC":{"rawOb":"METAR CWNC 260800Z AUTO 05001KT 04/00 RMK AO1 SLP076 T00400000 56033","observationTime":"2026-03-26T08:00:00.000Z","flightCategory":"null","latitude":43.951,"longitude":-78.165},"CWNZ":{"rawOb":"METAR CWNZ 260800Z AUTO 35004KT M16/M18 RMK AO1 SOG 92 3006 SLP159 T11581177","observationTime":"2026-03-26T08:00:00.000Z","flightCategory":"null","latitude":49.747,"longitude":-84.164},"CWNE":{"rawOb":"METAR CWNE 260800Z AUTO 14004KT M04/M15 RMK AO1 SLP239 T10431149 58010","observationTime":"2026-03-26T08:00:00.000Z","flightCategory":"null","latitude":47.058,"longitude":-63.997},"CWOY":{"rawOb":"METAR CWOY 260800Z AUTO 02003KT M18/M20 RMK AO1 SOG 04 1023 SLP291 T11811199 50002","observationTime":"2026-03-26T08:00:00.000Z","flightCategory":"null","latitude":51.767,"longitude":-104.2},"CWDC":{"rawOb":"METAR CWDC 260800Z AUTO 28002KT M27/M29 RMK AO1 SOG 76 1005 SLP330 T12691294","observationTime":"2026-03-26T08:00:00.000Z","flightCategory":"null","latitude":59.56,"longitude":-108.487},"RJFT":{"rawOb":"METAR RJFT 260800Z 19008KT 160V230 9999 FEW045 BKN/// 19/06 Q1011","observationTime":"2026-03-26T08:00:00.000Z","flightCategory":"VFR","latitude":32.837,"longitude":130.855},"RJFO":{"rawOb":"METAR RJFO 260800Z 18005KT 9999 FEW030 BKN/// 16/08 Q1011","observationTime":"2026-03-26T08:00:00.000Z","flightCategory":"VFR","latitude":33.479,"longitude":131.737},"CWNK":{"rawOb":"METAR CWNK 260800Z AUTO 33011G17KT M10/M12 RMK AO1 PK WND 34018/0740 SLP202 T10981119 53028","observationTime":"2026-03-26T08:00:00.000Z","flightCategory":"null","latitude":49.498,"longitude":-98.03},"CWNM":{"rawOb":"METAR CWNM 260800Z AUTO 21003KT 02/01 RMK AO1 SLP197 T00150011 51049","observationTime":"2026-03-26T08:00:00.000Z","flightCategory":"null","latitude":49.491,"longitude":-117.305},"CWEH":{"rawOb":"METAR CWEH 260800Z AUTO 13002KT M11/M13 RMK AO1 SLP210 T11141126 50020","observationTime":"2026-03-26T08:00:00.000Z","flightCategory":"null","latitude":49.438,"longitude":-108.989},"CWKO":{"rawOb":"METAR CWKO 260800Z AUTO 01009KT M14/M15 RMK AO1 SLP228 T11361152 51019","observationTime":"2026-03-26T08:00:00.000Z","flightCategory":"null","latitude":49.168,"longitude":-105.979},"CWNP":{"rawOb":"METAR CWNP 260800Z AUTO 09002KT 01/M00 RMK AO1 SOG 01 3031 SLP203 T00081003","observationTime":"2026-03-26T08:00:00.000Z","flightCategory":"null","latitude":50.269,"longitude":-117.817},"CWNQ":{"rawOb":"METAR CWNQ 260800Z AUTO 04003KT M05/M06 RMK AO1 4PAST HR 6041 SLP118 P0002 T10511064 50010","observationTime":"2026-03-26T08:00:00.000Z","flightCategory":"null","latitude":46.226,"longitude":-72.657},"CWOC":{"rawOb":"METAR CWOC 260800Z AUTO 04003KT M09/M18 RMK AO1 SOG 13 8015 SLP219 T10941183","observationTime":"2026-03-26T08:00:00.000Z","flightCategory":"null","latitude":48.012,"longitude":-65.332},"DAUI":{"rawOb":"METAR DAUI 260800Z 19004KT 7000 BKN046 SCT120 18/16 Q1013","observationTime":"2026-03-26T08:00:00.000Z","flightCategory":"MVFR","latitude":27.251,"longitude":2.512},"DAUK":{"rawOb":"METAR DAUK 260800Z 22009KT CAVOK 19/01 Q1012","observationTime":"2026-03-26T08:00:00.000Z","flightCategory":"VFR","latitude":33.068,"longitude":6.089},"DAUL":{"rawOb":"METAR DAUL 260800Z 27006KT 9999 FEW033 15/07 Q1014","observationTime":"2026-03-26T08:00:00.000Z","flightCategory":"VFR","latitude":33.764,"longitude":2.928},"DAUO":{"rawOb":"METAR DAUO 260800Z 24010KT 220V290 8000 FEW040 SCT100 20/01 Q1011","observationTime":"2026-03-26T08:00:00.000Z","flightCategory":"MVFR","latitude":33.513,"longitude":6.782},"DAUT":{"rawOb":"METAR DAUT 260800Z 19013KT 9999 SCT046 BKN120 21/15 Q1010","observationTime":"2026-03-26T08:00:00.000Z","flightCategory":"VFR","latitude":29.237,"longitude":0.276},"DAUU":{"rawOb":"METAR DAUU 260800Z 22006KT CAVOK 19/M00 Q1013","observationTime":"2026-03-26T08:00:00.000Z","flightCategory":"VFR","latitude":31.917,"longitude":5.413},"FQBR":{"rawOb":"METAR FQBR 260800Z 27004KT 9999 SCT010 BKN019TCU SCT029 29/27 Q1014","observationTime":"2026-03-26T08:00:00.000Z","flightCategory":"MVFR","latitude":-19.796,"longitude":34.908},"VRMH":{"rawOb":"METAR VRMH 260800Z 07005KT 9999 FEW018 33/25 Q1010","observationTime":"2026-03-26T08:00:00.000Z","flightCategory":"VFR","latitude":6.744,"longitude":73.171},"VRMM":{"rawOb":"METAR VRMM 260800Z 07011KT 9999 FEW019 33/35 Q1010 NOSIG","observationTime":"2026-03-26T08:00:00.000Z","flightCategory":"VFR","latitude":4.192,"longitude":73.529},"OYSY":{"rawOb":"METAR OYSY 260800Z 13008KT 070V180 CAVOK 32/19 Q1011","observationTime":"2026-03-26T08:00:00.000Z","flightCategory":"VFR","latitude":15.966,"longitude":48.788},"CYDL":{"rawOb":"METAR CYDL 260800Z AUTO 01005KT 310V060 9SM OVC055 M15/M22 A3012 RMK SLP260","observationTime":"2026-03-26T08:00:00.000Z","flightCategory":"VFR","latitude":58.426,"longitude":-130.025},"CYIN":{"rawOb":"METAR CYIN 260800Z AUTO 05003KT 040V140 9SM CLR M10/M11 A3005 RMK SLP221","observationTime":"2026-03-26T08:00:00.000Z","flightCategory":"VFR","latitude":51.265,"longitude":-121.681},"CYMA":{"rawOb":"METAR CYMA 260800Z 01007KT 340V050 20SM SKC M15/M26 A3031 RMK SLP320","observationTime":"2026-03-26T08:00:00.000Z","flightCategory":"VFR","latitude":63.616,"longitude":-135.88},"CYVR":{"rawOb":"METAR CYVR 260800Z 24009KT 20SM FEW051 FEW075 05/02 A3032 RMK SC1AC1 SC TR SLP268","observationTime":"2026-03-26T08:00:00.000Z","flightCategory":"VFR","latitude":49.183,"longitude":-123.168},"CWOD":{"rawOb":"METAR CWOD 260800Z AUTO 10005KT M12/M14 RMK AO1 5PAST HR SOG 20 7047 SLP124 P0002 T11171136 50005","observationTime":"2026-03-26T08:00:00.000Z","flightCategory":"null","latitude":48.842,"longitude":-72.546},"CWPD":{"rawOb":"METAR CWPD 260800Z AUTO 19004KT M08/M09 RMK AO1 8PAST HR 8042 SLP108 P0003 T10771089 50012","observationTime":"2026-03-26T08:00:00.000Z","flightCategory":"null","latitude":47.562,"longitude":-71.229},"CWPE":{"rawOb":"METAR CWPE 260800Z AUTO 17017KT 02/01 RMK AO1 SOG 01 8028 PK WND 16022/0709 SLP209 T00240011","observationTime":"2026-03-26T08:00:00.000Z","flightCategory":"null","latitude":45.058,"longitude":-66.459},"CYIV":{"rawOb":"METAR CYIV 260800Z AUTO 34004KT 9SM SCT150 BKN200 M19/M26 A3015 RMK SLP237","observationTime":"2026-03-26T08:00:00.000Z","flightCategory":"VFR","latitude":53.857,"longitude":-94.655},"CYKY":{"rawOb":"METAR CYKY 260800Z 36004KT 15SM SCT240 M21/M23 A3021 RMK CI4 PRESRR SLP294","observationTime":"2026-03-26T08:00:00.000Z","flightCategory":"VFR","latitude":51.517,"longitude":-109.175},"CWPR":{"rawOb":"METAR CWPR 260800Z AUTO 30002KT M03/M04 RMK AO1 SLP230 T10291044 52026","observationTime":"2026-03-26T08:00:00.000Z","flightCategory":"null","latitude":49.468,"longitude":-120.514},"CWPZ":{"rawOb":"METAR CWPZ 260800Z AUTO 10006KT M11/M16 RMK AO1 SOG 07 3020 SLP275 T11051163","observationTime":"2026-03-26T08:00:00.000Z","flightCategory":"null","latitude":54.383,"longitude":-125.959},"CYVL":{"rawOb":"METAR CYVL 260800Z AUTO 19002KT 9SM OVC031 M18/M21 A3053 RMK SLP378","observationTime":"2026-03-26T08:00:00.000Z","flightCategory":"VFR","latitude":67.021,"longitude":-126.129},"CWDA":{"rawOb":"METAR CWDA 260800Z AUTO 27031G39KT M05/M09 RMK AO1 SOG 82 1016 PK WND 25043/0720 SLP137 T10511088","observationTime":"2026-03-26T08:00:00.000Z","flightCategory":"null","latitude":50.721,"longitude":-56.113},"CYUY":{"rawOb":"METAR CYUY 260800Z 34008KT 15SM -SN OVC017 M07/M09 A2973 RMK SC8 PCPN VRT LGT SLP093","observationTime":"2026-03-26T08:00:00.000Z","flightCategory":"MVFR","latitude":48.209,"longitude":-78.83},"CWXI":{"rawOb":"METAR CWXI 260800Z AUTO 21024G29KT M04/M07 RMK AO1 PK WND 21029/0753 SLP137 T10361068 51014","observationTime":"2026-03-26T08:00:00.000Z","flightCategory":"null","latitude":51.022,"longitude":-57.096},"SBNF":{"rawOb":"METAR SBNF 260800Z 26007KT 9000 FEW006 23/22 Q1014","observationTime":"2026-03-26T08:00:00.000Z","flightCategory":"VFR","latitude":-26.88,"longitude":-48.651},"CWZN":{"rawOb":"METAR CWZN 260800Z AUTO 28024G31KT M03/ RMK AO1 PK WND 28038/0709 SLP218 T1028 53029","observationTime":"2026-03-26T08:00:00.000Z","flightCategory":"null","latitude":47.368,"longitude":-55.795},"CZCR":{"rawOb":"METAR CZCR 260800Z AUTO 15002KT M10/M18 RMK AO1 SOG 14 8020 SLP212 T11031177","observationTime":"2026-03-26T08:00:00.000Z","flightCategory":"null","latitude":47.99,"longitude":-66.334},"CZDB":{"rawOb":"METAR CZDB 260800Z AUTO 10003KT M03/M07 RMK AO1 SLP250 T10331071 58013","observationTime":"2026-03-26T08:00:00.000Z","flightCategory":"null","latitude":45.422,"longitude":-63.466},"CZSP":{"rawOb":"METAR CZSP 260800Z AUTO 14003KT M05/M12 RMK AO1 SLP255 T10541116 58001","observationTime":"2026-03-26T08:00:00.000Z","flightCategory":"null","latitude":46.45,"longitude":-62.576},"FIMR":{"rawOb":"METAR FIMR 260800Z 09012KT 9999 VCSH BKN015 30/25 Q1014","observationTime":"2026-03-26T08:00:00.000Z","flightCategory":"MVFR","latitude":-19.755,"longitude":63.36},"CWEB":{"rawOb":"METAR CWEB 260800Z AUTO 03/02 RMK AO1 SLP264 T00250016 51024","observationTime":"2026-03-26T08:00:00.000Z","flightCategory":"null","latitude":49.383,"longitude":-126.543},"CYDF":{"rawOb":"METAR CYDF 260800Z 24017G24KT 12SM -SN DRSN OVC040 M05/M11 A3012 RMK SC8 SLP202","observationTime":"2026-03-26T08:00:00.000Z","flightCategory":"VFR","latitude":49.212,"longitude":-57.394},"CYDP":{"rawOb":"METAR CYDP 260800Z 26009G16KT 220V340 15SM SKC M23/M30 A3004 RMK SLP175","observationTime":"2026-03-26T08:00:00.000Z","flightCategory":"VFR","latitude":56.549,"longitude":-61.684},"CWGB":{"rawOb":"METAR CWGB 260800Z AUTO 24010KT 05/M01 RMK AO1 SLP260 T00521006 53031","observationTime":"2026-03-26T08:00:00.000Z","flightCategory":"null","latitude":49.336,"longitude":-124.149},"CWEL":{"rawOb":"METAR CWEL 260800Z AUTO 17003KT 05/M02 RMK AO1 SLP267 T00541016 53032","observationTime":"2026-03-26T08:00:00.000Z","flightCategory":"null","latitude":49.209,"longitude":-123.808},"OEDF":{"rawOb":"METAR OEDF 260800Z 14023KT 6000 SCT030 27/24 Q1001 TEMPO 5000","observationTime":"2026-03-26T08:00:00.000Z","flightCategory":"MVFR","latitude":26.45,"longitude":49.817},"CWEW":{"rawOb":"METAR CWEW 260800Z AUTO 02003KT M06/M07 RMK AO1 3PAST HR SOG 03 7041 SLP121 P0001 T10601074 50006","observationTime":"2026-03-26T08:00:00.000Z","flightCategory":"null","latitude":45.809,"longitude":-73.435},"CYYG":{"rawOb":"METAR CYYG 260800Z 13004KT 15SM OVC088 M04/M11 A3025 RMK AC8 SLP250","observationTime":"2026-03-26T08:00:00.000Z","flightCategory":"VFR","latitude":46.289,"longitude":-63.128},"VEKO":{"rawOb":"METAR VEKO 260800Z 36004KT 6000 NSC 38/08 Q1011 NOSIG","observationTime":"2026-03-26T08:00:00.000Z","flightCategory":"MVFR","latitude":24.817,"longitude":79.919},"CYYH":{"rawOb":"METAR CYYH 260800Z 14003KT 6SM BR FEW012 M38/M41 A3008 RMK ST1 ST TR SLP194","observationTime":"2026-03-26T08:00:00.000Z","flightCategory":"VFR","latitude":69.543,"longitude":-93.568},"CYYU":{"rawOb":"METAR CYYU 260800Z 35005KT 12SM -SN SCT009 BKN069 OVC120 M17/M19 A2991 RMK SC4AC2AC2 SLP150","observationTime":"2026-03-26T08:00:00.000Z","flightCategory":"VFR","latitude":49.416,"longitude":-82.47},"CYZE":{"rawOb":"METAR CYZE 260800Z AUTO 35006KT 8SM CLR M02/M03 A2975 RMK SLP085","observationTime":"2026-03-26T08:00:00.000Z","flightCategory":"VFR","latitude":45.885,"longitude":-82.57},"CWMZ":{"rawOb":"METAR CWMZ 260800Z AUTO 28016KT 02/01 RMK AO1 PK WND 26017/0727 SLP076 T00240005 58002","observationTime":"2026-03-26T08:00:00.000Z","flightCategory":"null","latitude":45.033,"longitude":-80.367},"TLPL":{"rawOb":"METAR TLPL 260800Z 10018KT 9999 SCT022 25/21 Q1013 NOSIG","observationTime":"2026-03-26T08:00:00.000Z","flightCategory":"VFR","latitude":13.743,"longitude":-60.948},"GMAZ":{"rawOb":"METAR GMAZ 260800Z 14004KT 090V170 CAVOK 14/10 Q1012 NOSIG","observationTime":"2026-03-26T08:00:00.000Z","flightCategory":"VFR","latitude":30.266,"longitude":-5.854},"CYZH":{"rawOb":"METAR CYZH 260800Z AUTO 00000KT 9SM CLR M22/M24 A3035 RMK ICE MISG SLP337","observationTime":"2026-03-26T08:00:00.000Z","flightCategory":"VFR","latitude":55.293,"longitude":-114.773},"GMFM":{"rawOb":"METAR GMFM 260800Z VRB02KT CAVOK 17/13 Q1011 NOSIG","observationTime":"2026-03-26T08:00:00.000Z","flightCategory":"VFR","latitude":33.875,"longitude":-5.52},"GMMB":{"rawOb":"METAR GMMB 260800Z 18004KT 3000 BR SCT013 SCT200 14/14 Q1011 NOSIG","observationTime":"2026-03-26T08:00:00.000Z","flightCategory":"IFR","latitude":33.655,"longitude":-7.221},"CWEZ":{"rawOb":"METAR CWEZ 260800Z AUTO 20005KT 05/01 RMK AO1 SLP272 T00510006 53025","observationTime":"2026-03-26T08:00:00.000Z","flightCategory":"null","latitude":48.783,"longitude":-123.046},"GMMD":{"rawOb":"METAR GMMD 260800Z VRB02KT 9999 BKN026 14/14 Q1011 NOSIG","observationTime":"2026-03-26T08:00:00.000Z","flightCategory":"MVFR","latitude":32.403,"longitude":-6.316},"GMML":{"rawOb":"METAR GMML 260800Z 35012KT 5000 BKN016 18/15 Q1012 NOSIG","observationTime":"2026-03-26T08:00:00.000Z","flightCategory":"MVFR","latitude":27.141,"longitude":-13.23},"CWFF":{"rawOb":"METAR CWFF 260800Z AUTO 28003KT M20/M22 RMK AO1 SOG 24 1018 SLP302 T12001218","observationTime":"2026-03-26T08:00:00.000Z","flightCategory":"null","latitude":52.817,"longitude":-104.601},"CYZP":{"rawOb":"METAR CYZP 260800Z AUTO 17011KT 9SM FEW110 BKN140 01/M01 A3002 RMK SLP168","observationTime":"2026-03-26T08:00:00.000Z","flightCategory":"VFR","latitude":53.254,"longitude":-131.814},"CYZR":{"rawOb":"METAR CYZR 260800Z AUTO 22006KT 9SM SCT180 OVC230 09/01 A2977 RMK SLP085","observationTime":"2026-03-26T08:00:00.000Z","flightCategory":"VFR","latitude":42.995,"longitude":-82.307},"CYZS":{"rawOb":"METAR CYZS 260800Z 32009KT 15SM IC FEW210 M35/M39 A2974 RMK CI2 WIND EST SLP084","observationTime":"2026-03-26T08:00:00.000Z","flightCategory":"VFR","latitude":64.188,"longitude":-83.351},"CWFJ":{"rawOb":"METAR CWFJ 260800Z AUTO 12006KT M06/M07 RMK AO1 SLP178 T10571068 58003","observationTime":"2026-03-26T08:00:00.000Z","flightCategory":"null","latitude":49.2,"longitude":-113.278},"CWFQ":{"rawOb":"METAR CWFQ 260800Z AUTO 15005KT 02/M00 RMK AO1 SOG 08 8037 SLP110 T00191001 50001","observationTime":"2026-03-26T08:00:00.000Z","flightCategory":"null","latitude":45.05,"longitude":-72.861},"CYZT":{"rawOb":"METAR CYZT 260800Z 24005KT 15SM FEW039 FEW064 SCT083 BKN110 02/01 A3027 RMK SC1SC1AC2AC2 SLP253","observationTime":"2026-03-26T08:00:00.000Z","flightCategory":"VFR","latitude":50.685,"longitude":-127.369},"CZUM":{"rawOb":"METAR CZUM 260800Z AUTO 00000KT 9SM CLR M32/M36 A2999 RMK SLP214","observationTime":"2026-03-26T08:00:00.000Z","flightCategory":"VFR","latitude":53.562,"longitude":-64.107},"CYNA":{"rawOb":"METAR CYNA 260800Z AUTO 30007KT 9SM CLR M16/M22 A3016 RMK SLP216","observationTime":"2026-03-26T08:00:00.000Z","flightCategory":"VFR","latitude":50.19,"longitude":-61.789},"CYNE":{"rawOb":"METAR CYNE 260800Z AUTO 00000KT 9SM CLR M22/M27 A3022 RMK SLP261","observationTime":"2026-03-26T08:00:00.000Z","flightCategory":"VFR","latitude":53.958,"longitude":-97.845},"CYUL":{"rawOb":"METAR CYUL 260800Z 04007KT 15SM -SN FEW012 BKN027 OVC052 M04/M06 A2985 RMK ST1SC4SC3 SLP113","observationTime":"2026-03-26T08:00:00.000Z","flightCategory":"MVFR","latitude":45.468,"longitude":-73.742},"CWGD":{"rawOb":"METAR CWGD 260800Z AUTO 24006KT 06/00 RMK AO1 SLP086 T00580000 53006","observationTime":"2026-03-26T08:00:00.000Z","flightCategory":"null","latitude":43.765,"longitude":-81.712},"CWGH":{"rawOb":"METAR CWGH 260800Z AUTO 22002KT 05/01 RMK AO1 2PAST HR 8033 SLP081 P0001 T00480009 50002","observationTime":"2026-03-26T08:00:00.000Z","flightCategory":"null","latitude":44.417,"longitude":-75.847},"OEKJ":{"rawOb":"METAR OEKJ 260800Z 19018KT 7000 SCT040 31/12 Q1004","observationTime":"2026-03-26T08:00:00.000Z","flightCategory":"MVFR","latitude":24.07,"longitude":47.58},"OEHL":{"rawOb":"METAR OEHL 260800Z 24012KT 9999 BKN040 14/05 Q1004 NOSIG","observationTime":"2026-03-26T08:00:00.000Z","flightCategory":"VFR","latitude":27.438,"longitude":41.686},"CWGL":{"rawOb":"METAR CWGL 260800Z AUTO 21003KT 02/M02 RMK AO1 SLP061 T00151019 56013","observationTime":"2026-03-26T08:00:00.000Z","flightCategory":"null","latitude":44.55,"longitude":-79.218},"CWJI":{"rawOb":"METAR CWJI 260800Z AUTO 35008KT M13/M16 RMK AO1 SOG 01 3019 SLP251 T11341157","observationTime":"2026-03-26T08:00:00.000Z","flightCategory":"null","latitude":49.729,"longitude":-105.946},"CYOD":{"rawOb":"METAR CYOD 260800Z 05004KT 15SM -SN OVC070 M14/M18 A3032 RMK AS8 DENSITY ALT -2175FT PCPN VRY LGT SLP315","observationTime":"2026-03-26T08:00:00.000Z","flightCategory":"VFR","latitude":54.41,"longitude":-110.287},"CYOJ":{"rawOb":"METAR CYOJ 260800Z AUTO 34005KT 9SM CLR M30/M34 A3050 RMK SLP376","observationTime":"2026-03-26T08:00:00.000Z","flightCategory":"VFR","latitude":58.628,"longitude":-117.174},"CYPA":{"rawOb":"METAR CYPA 260800Z AUTO 27002KT 9SM CLR M22/M24 A3030 RMK SLP308","observationTime":"2026-03-26T08:00:00.000Z","flightCategory":"VFR","latitude":53.217,"longitude":-105.679},"OEGT":{"rawOb":"METAR OEGT 260800Z 25010KT 9999 BKN030 13/05 Q1001 NOSIG","observationTime":"2026-03-26T08:00:00.000Z","flightCategory":"MVFR","latitude":31.412,"longitude":37.279},"CYTR":{"rawOb":"METAR CYTR 260800Z 00000KT 15SM SCT049 OVC070 04/M00 A2975 RMK SC3AC5 DENSITY ALT -783FT SLP078","observationTime":"2026-03-26T08:00:00.000Z","flightCategory":"VFR","latitude":44.115,"longitude":-77.531},"OEGN":{"rawOb":"METAR OEGN 260800Z 17014KT 9999 FEW030 SCT100 32/24 Q1005 NOSIG","observationTime":"2026-03-26T08:00:00.000Z","flightCategory":"VFR","latitude":16.901,"longitude":42.586},"CYPH":{"rawOb":"METAR CYPH 260800Z AUTO 26007KT 9SM CLR M30/M33 A2994 RMK SLP146","observationTime":"2026-03-26T08:00:00.000Z","flightCategory":"VFR","latitude":58.47,"longitude":-78.08},"CYPQ":{"rawOb":"METAR CYPQ 260800Z AUTO VRB08KT 9SM SCT081 OVC120 04/M00 A2974 RMK SLP078","observationTime":"2026-03-26T08:00:00.000Z","flightCategory":"VFR","latitude":44.232,"longitude":-78.36},"OEDM":{"rawOb":"METAR OEDM 260800Z 28011KT 9999 BKN040 18/13 Q1008 NOSIG","observationTime":"2026-03-26T08:00:00.000Z","flightCategory":"VFR","latitude":24.45,"longitude":44.121},"OEBA":{"rawOb":"METAR OEBA 260800Z 18022KT 9999 TS FEW025CB SCT030 23/11 Q1010 RERA NOSIG","observationTime":"2026-03-26T08:00:00.000Z","flightCategory":"VFR","latitude":20.296,"longitude":41.634},"CWGM":{"rawOb":"METAR CWGM 260800Z AUTO 03008KT M07/M08 RMK AO1 SLP187 T10741083 52003","observationTime":"2026-03-26T08:00:00.000Z","flightCategory":"null","latitude":49.133,"longitude":-113.806},"OEAO":{"rawOb":"METAR OEAO 260800Z 27018KT 9999 SCT040 16/06 Q1007 NOSIG","observationTime":"2026-03-26T08:00:00.000Z","flightCategory":"VFR","latitude":26.483,"longitude":38.117},"OEAH":{"rawOb":"METAR OEAH 260800Z 12017KT 6000 NSC 29/29 Q1001 NOSIG","observationTime":"2026-03-26T08:00:00.000Z","flightCategory":"MVFR","latitude":25.285,"longitude":49.485},"RJTO":{"rawOb":"METAR RJTO 260800Z 03022KT 9999 FEW009 SCT015 BKN035 13/11 Q1008","observationTime":"2026-03-26T08:00:00.000Z","flightCategory":"VFR","latitude":34.782,"longitude":139.36},"RJSY":{"rawOb":"METAR RJSY 260800Z 11006KT 9999 -RA FEW005 SCT030 BKN045 09/08 Q1012","observationTime":"2026-03-26T08:00:00.000Z","flightCategory":"VFR","latitude":38.812,"longitude":139.787},"RJSS":{"rawOb":"METAR RJSS 260800Z 35004KT 330V030 9999 -RA FEW006 BKN008 09/08 Q1013","observationTime":"2026-03-26T08:00:00.000Z","flightCategory":"IFR","latitude":38.14,"longitude":140.917},"RJSR":{"rawOb":"METAR RJSR 260800Z 07006KT 9999 -RA FEW005 SCT020 BKN040 08/06 Q1013","observationTime":"2026-03-26T08:00:00.000Z","flightCategory":"VFR","latitude":40.192,"longitude":140.372},"OERF":{"rawOb":"METAR OERF 260800Z 18016KT 9999 BKN040 15/11 Q1000 RERA NOSIG","observationTime":"2026-03-26T08:00:00.000Z","flightCategory":"VFR","latitude":29.626,"longitude":43.491},"CWBO":{"rawOb":"METAR CWBO 260800Z AUTO 09006KT M09/M12 RMK AO1 SLP258 T10941123 51007","observationTime":"2026-03-26T08:00:00.000Z","flightCategory":"null","latitude":50.55,"longitude":-111.849},"CYPX":{"rawOb":"METAR CYPX 260800Z AUTO 24011KT 9SM CLR M34/M37 A2989 RMK SLP127","observationTime":"2026-03-26T08:00:00.000Z","flightCategory":"VFR","latitude":60.045,"longitude":-77.281},"RJSN":{"rawOb":"METAR RJSN 260800Z 36002KT 9999 -SHRA FEW010 BKN025 BKN030 10/08 Q1012","observationTime":"2026-03-26T08:00:00.000Z","flightCategory":"MVFR","latitude":37.956,"longitude":139.121},"OEPA":{"rawOb":"METAR OEPA 260800Z 21016KT 7000 RA BKN030 19/18 Q1003 NOSIG","observationTime":"2026-03-26T08:00:00.000Z","flightCategory":"MVFR","latitude":28.335,"longitude":46.125},"CYPY":{"rawOb":"METAR CYPY 260800Z AUTO 26002KT 9SM CLR M31/M35 A3049 RMK SLP359","observationTime":"2026-03-26T08:00:00.000Z","flightCategory":"VFR","latitude":58.766,"longitude":-111.117},"RJSM":{"rawOb":"METAR RJSM 260800Z 13011KT 8000 -RA FEW004 BKN006 BKN008 07/07 Q1015","observationTime":"2026-03-26T08:00:00.000Z","flightCategory":"IFR","latitude":40.705,"longitude":141.372},"RJSK":{"rawOb":"METAR RJSK 260800Z 11005KT 9999 -RA FEW008 BKN040 09/07 Q1012","observationTime":"2026-03-26T08:00:00.000Z","flightCategory":"VFR","latitude":39.616,"longitude":140.219},"OENG":{"rawOb":"METAR OENG 260800Z 22022KT 4000 BLSA SCT030 BKN100 31/09 Q1011 NOSIG","observationTime":"2026-03-26T08:00:00.000Z","flightCategory":"IFR","latitude":17.611,"longitude":44.419},"CYQA":{"rawOb":"METAR CYQA 260800Z AUTO VRB03KT 9SM CLR 02/M03 A2971 RMK SLP072","observationTime":"2026-03-26T08:00:00.000Z","flightCategory":"VFR","latitude":44.971,"longitude":-79.303},"OEMN":{"rawOb":"METAR OEMN 260800Z 31006KT 9999 TS FEW035CB BKN040 22/17 Q1009","observationTime":"2026-03-26T08:00:00.000Z","flightCategory":"VFR","latitude":-99.99,"longitude":-99.99},"CYQD":{"rawOb":"METAR CYQD 260800Z AUTO 34004KT 9SM CLR M22/M27 A3028 RMK SLP285","observationTime":"2026-03-26T08:00:00.000Z","flightCategory":"VFR","latitude":53.975,"longitude":-101.089},"RJSI":{"rawOb":"METAR RJSI 260800Z 02003KT 5000 RA BR FEW004 BKN012 BKN025 08/08 Q1013","observationTime":"2026-03-26T08:00:00.000Z","flightCategory":"MVFR","latitude":39.429,"longitude":141.135},"OEMA":{"rawOb":"METAR OEMA 260800Z 23010KT 9999 FEW015 BKN035 18/10 Q1008 NOSIG","observationTime":"2026-03-26T08:00:00.000Z","flightCategory":"VFR","latitude":24.553,"longitude":39.705},"CYQH":{"rawOb":"METAR CYQH 260800Z 10008KT 15SM BKN045 M17/M23 A3031 RMK SC5 SLP335","observationTime":"2026-03-26T08:00:00.000Z","flightCategory":"VFR","latitude":60.116,"longitude":-128.832},"RJSF":{"rawOb":"METAR RJSF 260800Z 33005KT 2000 -RA BCFG BR FEW001 BKN002 BKN003 07/07 Q1011","observationTime":"2026-03-26T08:00:00.000Z","flightCategory":"LIFR","latitude":37.227,"longitude":140.428},"CYQL":{"rawOb":"METAR CYQL 260800Z AUTO 10009KT 9SM OVC009 M07/M09 A3009 RMK SLP233","observationTime":"2026-03-26T08:00:00.000Z","flightCategory":"IFR","latitude":49.627,"longitude":-112.792},"OEKM":{"rawOb":"METAR OEKM 260800Z 21018KT 9999 BKN022 FEW025CB 18/13 Q1018 RERA NOSIG","observationTime":"2026-03-26T08:00:00.000Z","flightCategory":"MVFR","latitude":18.301,"longitude":42.798},"CWBS":{"rawOb":"METAR CWBS 260800Z AUTO 02006KT M05/M07 RMK AO1 T10541068","observationTime":"2026-03-26T08:00:00.000Z","flightCategory":"null","latitude":46.189,"longitude":-72.916},"GMAT":{"rawOb":"METAR GMAT 260800Z 34007KT 6000 OVC012 16/16 Q1010 NOSIG","observationTime":"2026-03-26T08:00:00.000Z","flightCategory":"MVFR","latitude":28.446,"longitude":-11.158},"CYQR":{"rawOb":"METAR CYQR 260800Z 04010KT 15SM BKN014 M15/M17 A3017 RMK SC7 PRESFR SLP264","observationTime":"2026-03-26T08:00:00.000Z","flightCategory":"MVFR","latitude":50.427,"longitude":-104.67},"RJSC":{"rawOb":"METAR RJSC 260800Z 25001KT 7000 -RA FEW003 SCT006 BKN015 09/08 Q1012","observationTime":"2026-03-26T08:00:00.000Z","flightCategory":"MVFR","latitude":38.412,"longitude":140.371},"CYQT":{"rawOb":"METAR CYQT 260800Z 08009KT 5SM -SN SCT009 OVC035 M07/M08 A2984 RMK SC3SC5 SLP117","observationTime":"2026-03-26T08:00:00.000Z","flightCategory":"MVFR","latitude":48.374,"longitude":-89.33},"CWLM":{"rawOb":"METAR CWLM 260800Z AUTO 25015G21KT 05/01 RMK AO1 PK WND 26023/0712 SLP270 T00480008 53025","observationTime":"2026-03-26T08:00:00.000Z","flightCategory":"null","latitude":48.413,"longitude":-123.325},"CYQU":{"rawOb":"METAR CYQU 260800Z 36003KT 25SM SCT027 M25/M28 A3036 RMK SC3 SLP355","observationTime":"2026-03-26T08:00:00.000Z","flightCategory":"VFR","latitude":55.182,"longitude":-118.882},"GMMW":{"rawOb":"METAR GMMW 260800Z COR 25003KT 230V310 4000 BR FEW010 11/10 Q1013 NOSIG","observationTime":"2026-03-26T08:00:00.000Z","flightCategory":"IFR","latitude":34.993,"longitude":-3.025},"RJSA":{"rawOb":"METAR RJSA 260800Z 33003KT 270V010 9999 -RA FEW015 SCT040 BKN070 06/05 Q1013","observationTime":"2026-03-26T08:00:00.000Z","flightCategory":"VFR","latitude":40.733,"longitude":140.689},"CYQW":{"rawOb":"METAR CYQW 260800Z AUTO 00000KT 9SM CLR M20/M22 A3029 RMK ICE MISG SLP313","observationTime":"2026-03-26T08:00:00.000Z","flightCategory":"VFR","latitude":52.769,"longitude":-108.251},"RJOY":{"rawOb":"METAR RJOY 260800Z 36011KT 320V030 9999 FEW020 BKN040 16/06 Q1011","observationTime":"2026-03-26T08:00:00.000Z","flightCategory":"VFR","latitude":34.597,"longitude":135.601},"RJOW":{"rawOb":"METAR RJOW 260800Z 36005KT 320V050 9999 FEW025 14/09 Q1013","observationTime":"2026-03-26T08:00:00.000Z","flightCategory":"VFR","latitude":34.676,"longitude":131.79},"RJOT":{"rawOb":"METAR RJOT 260800Z 30003KT 250V360 9999 FEW030 16/07 Q1011","observationTime":"2026-03-26T08:00:00.000Z","flightCategory":"VFR","latitude":34.214,"longitude":134.016},"RJOS":{"rawOb":"METAR RJOS 260800Z 01012KT 9999 FEW030 16/07 Q1011","observationTime":"2026-03-26T08:00:00.000Z","flightCategory":"VFR","latitude":34.132,"longitude":134.609},"CYQZ":{"rawOb":"METAR CYQZ 260800Z AUTO 01004KT 9SM CLR M12/M14 A3023 RMK ICE INTMT SLP281","observationTime":"2026-03-26T08:00:00.000Z","flightCategory":"VFR","latitude":53.027,"longitude":-122.506},"GMMZ":{"rawOb":"METAR GMMZ 260800Z 28006KT 8000 BKN024 12/09 Q1013 NOSIG","observationTime":"2026-03-26T08:00:00.000Z","flightCategory":"MVFR","latitude":30.939,"longitude":-6.909},"CWJV":{"rawOb":"METAR CWJV 260800Z AUTO 30004KT 04/M08 RMK AO1 SLP212 T00431078 53027","observationTime":"2026-03-26T08:00:00.000Z","flightCategory":"null","latitude":50.223,"longitude":-119.194},"CYRT":{"rawOb":"METAR CYRT 260800Z 34016KT 15SM IC DRSN FEW068 M34/M38 A2998 RMK AC2 SLP162","observationTime":"2026-03-26T08:00:00.000Z","flightCategory":"VFR","latitude":62.811,"longitude":-92.1},"RJOR":{"rawOb":"METAR RJOR 260800Z 02006KT 9999 FEW015 SCT050 12/09 Q1013","observationTime":"2026-03-26T08:00:00.000Z","flightCategory":"VFR","latitude":35.53,"longitude":134.165},"SBGR":{"rawOb":"METAR SBGR 260800Z 07002KT 6000 NSC 20/19 Q1018","observationTime":"2026-03-26T08:00:00.000Z","flightCategory":"MVFR","latitude":-23.432,"longitude":-46.469},"BIGR":{"rawOb":"METAR BIGR 260800Z 11020KT 9999 FEW022 M04/M09 Q1010","observationTime":"2026-03-26T08:00:00.000Z","flightCategory":"VFR","latitude":66.548,"longitude":-18.02},"NCRG":{"rawOb":"METAR NCRG 260800Z 12010KT 9999 FEW022 26/20 Q1010","observationTime":"2026-03-26T08:00:00.000Z","flightCategory":"VFR","latitude":-21.203,"longitude":-159.806},"NCAI":{"rawOb":"METAR NCAI 260800Z 09011KT //// ////// 28/25 Q1009","observationTime":"2026-03-26T08:00:00.000Z","flightCategory":"null","latitude":-18.829,"longitude":-159.766},"NCAT":{"rawOb":"METAR NCAT 260800Z 14002KT //// ////// 24/23 Q1008","observationTime":"2026-03-26T08:00:00.000Z","flightCategory":"null","latitude":-19.968,"longitude":-158.119},"GMTA":{"rawOb":"METAR GMTA 260800Z VRB02KT 9999 FEW011 BKN200 17/14 Q1013 NOSIG","observationTime":"2026-03-26T08:00:00.000Z","flightCategory":"VFR","latitude":35.177,"longitude":-3.84},"NCMG":{"rawOb":"METAR NCMG 260800Z 11009KT //// ////// 24/22 Q1010","observationTime":"2026-03-26T08:00:00.000Z","flightCategory":"null","latitude":-21.896,"longitude":-157.907},"CWJW":{"rawOb":"METAR CWJW 260800Z AUTO 04009G15KT M12/M15 RMK AO1 SOG 09 3032 PK WND 05020/0741 SLP267 T11221151 50002","observationTime":"2026-03-26T08:00:00.000Z","flightCategory":"null","latitude":52.926,"longitude":-118.03},"NCMK":{"rawOb":"METAR NCMK 260800Z 11004KT //// ////// 25/23 Q1010","observationTime":"2026-03-26T08:00:00.000Z","flightCategory":"null","latitude":-20.137,"longitude":-157.344},"NCNS":{"rawOb":"METAR NCNS 260800Z 25001KT //// ////// 28/25 Q1013","observationTime":"2026-03-26T08:00:00.000Z","flightCategory":"null","latitude":-99.99,"longitude":-99.99},"NCPL":{"rawOb":"METAR NCPL 260800Z 12006KT //// ////// 28/23 Q1008","observationTime":"2026-03-26T08:00:00.000Z","flightCategory":"null","latitude":null,"longitude":null},"RJOO":{"rawOb":"METAR RJOO 260800Z 01010KT 340V040 9999 FEW025 15/05 Q1011","observationTime":"2026-03-26T08:00:00.000Z","flightCategory":"VFR","latitude":34.784,"longitude":135.439},"CYTH":{"rawOb":"METAR CYTH 260800Z VRB02KT 15SM SKC M30/M34 A3022 RMK SLP266","observationTime":"2026-03-26T08:00:00.000Z","flightCategory":"VFR","latitude":55.803,"longitude":-97.846},"NCPY":{"rawOb":"METAR NCPY 260800Z 05003KT //// ////// 27/25 Q1009","observationTime":"2026-03-26T08:00:00.000Z","flightCategory":"null","latitude":-9.01,"longitude":-158.034},"NCPK":{"rawOb":"METAR NCPK 260800Z 01003KT //// ////// 28/24 Q1008","observationTime":"2026-03-26T08:00:00.000Z","flightCategory":"null","latitude":-10.915,"longitude":-165.839},"CWBT":{"rawOb":"METAR CWBT 260800Z AUTO 03001KT M22/M26 RMK AO1 SLP227 T12221259 58001","observationTime":"2026-03-26T08:00:00.000Z","flightCategory":"null","latitude":50.271,"longitude":-64.226},"CWJD":{"rawOb":"METAR CWJD 260800Z AUTO 35004KT M17/M24 RMK AO1 SOG 59 1014 SLP264 T11741242","observationTime":"2026-03-26T08:00:00.000Z","flightCategory":"null","latitude":53.187,"longitude":-99.268},"MSLP":{"rawOb":"METAR MSLP 260800Z 03006KT CAVOK 26/17 Q1009 A2981 NOSIG","observationTime":"2026-03-26T08:00:00.000Z","flightCategory":"VFR","latitude":13.438,"longitude":-89.056},"CWBZ":{"rawOb":"METAR CWBZ 260800Z AUTO 06005KT M03/M04 RMK AO1 SLP100 T10271035 56041","observationTime":"2026-03-26T08:00:00.000Z","flightCategory":"null","latitude":45.121,"longitude":-74.289},"CWEQ":{"rawOb":"METAR CWEQ 260800Z AUTO 26002KT M21/M23 RMK AO1 SOG 37 1019 SLP282 T12061227","observationTime":"2026-03-26T08:00:00.000Z","flightCategory":"null","latitude":52.115,"longitude":-101.233},"CWJX":{"rawOb":"METAR CWJX 260800Z AUTO 07003KT M16/M18 RMK AO1 SOG 01 3018 SLP286 T11591180","observationTime":"2026-03-26T08:00:00.000Z","flightCategory":"null","latitude":50.876,"longitude":-109.501},"CWLP":{"rawOb":"METAR CWLP 260800Z AUTO 17015KT 04/02 RMK AO1 PK WND 17018/0757 SLP245 T00420016 51023","observationTime":"2026-03-26T08:00:00.000Z","flightCategory":"null","latitude":50.94,"longitude":-127.632},"RJOM":{"rawOb":"METAR RJOM 260800Z 22006KT 140V230 9999 FEW030 15/12 Q1011","observationTime":"2026-03-26T08:00:00.000Z","flightCategory":"VFR","latitude":33.83,"longitude":132.698},"LBWB":{"rawOb":"METAR LBWB 260800Z 15008KT 9999 SCT200 09/04 Q1006","observationTime":"2026-03-26T08:00:00.000Z","flightCategory":"VFR","latitude":43.425,"longitude":28.175},"TNCA":{"rawOb":"METAR TNCA 260800Z AUTO 09015KT 9999 FEW026/// 26/22 Q1011 NOSIG","observationTime":"2026-03-26T08:00:00.000Z","flightCategory":"VFR","latitude":12.501,"longitude":-70.015},"RJOK":{"rawOb":"METAR RJOK 260800Z 34016KT 9999 FEW030 19/07 Q1009","observationTime":"2026-03-26T08:00:00.000Z","flightCategory":"VFR","latitude":33.546,"longitude":133.669},"LBPL":{"rawOb":"METAR LBPL 260800Z 00000KT 9999 BKN100 12/06 Q1003","observationTime":"2026-03-26T08:00:00.000Z","flightCategory":"VFR","latitude":43.453,"longitude":24.504},"RJOH":{"rawOb":"METAR RJOH 260800Z 05009KT 9999 FEW020 14/09 Q1013","observationTime":"2026-03-26T08:00:00.000Z","flightCategory":"VFR","latitude":35.493,"longitude":133.239},"RJOC":{"rawOb":"METAR RJOC 260800Z 02010KT 9999 FEW025 15/08 Q1012","observationTime":"2026-03-26T08:00:00.000Z","flightCategory":"VFR","latitude":35.414,"longitude":132.89},"LBPG":{"rawOb":"METAR LBPG 260800Z 12006KT 9999 BKN200 09/02 Q1005","observationTime":"2026-03-26T08:00:00.000Z","flightCategory":"VFR","latitude":42.289,"longitude":24.714},"SKPE":{"rawOb":"METAR SKPE 260800Z AUTO 10007KT 9999NDV -RA OVC024/// 20/17 Q1015","observationTime":"2026-03-26T08:00:00.000Z","flightCategory":"null","latitude":4.814,"longitude":-75.735},"SKPP":{"rawOb":"METAR SKPP 260800Z AUTO VRB01KT 9999 OVC027/// 15/15 Q1018","observationTime":"2026-03-26T08:00:00.000Z","flightCategory":"MVFR","latitude":2.453,"longitude":-76.609},"CWKG":{"rawOb":"METAR CWKG 260800Z AUTO 16002KT M00/M02 RMK AO1 SLP232 T10031015 58024","observationTime":"2026-03-26T08:00:00.000Z","flightCategory":"null","latitude":44.432,"longitude":-65.203},"RJOB":{"rawOb":"METAR RJOB 260800Z 05010KT 9999 FEW025 SCT045 15/06 Q1011","observationTime":"2026-03-26T08:00:00.000Z","flightCategory":"VFR","latitude":34.757,"longitude":133.855},"RJOA":{"rawOb":"METAR RJOA 260800Z 13005KT 9999 FEW020 15/09 Q1011","observationTime":"2026-03-26T08:00:00.000Z","flightCategory":"VFR","latitude":34.436,"longitude":132.919},"RJNW":{"rawOb":"METAR RJNW 260800Z 12003KT 9999 FEW020 SCT025 10/08 Q1012","observationTime":"2026-03-26T08:00:00.000Z","flightCategory":"VFR","latitude":37.293,"longitude":136.962},"SKPS":{"rawOb":"METAR SKPS 260800Z AUTO VRB02KT 9999 BKN020/// OVC024/// 16/16 Q1018","observationTime":"2026-03-26T08:00:00.000Z","flightCategory":"MVFR","latitude":1.394,"longitude":-77.291},"SKPV":{"rawOb":"METAR SKPV 260800Z AUTO VRB02KT CAVOK 26/22 Q1011","observationTime":"2026-03-26T08:00:00.000Z","flightCategory":"VFR","latitude":13.358,"longitude":-81.358},"SKQU":{"rawOb":"METAR SKQU 260800Z AUTO VRB01KT 9999 OVC084/// 24/21 Q1010","observationTime":"2026-03-26T08:00:00.000Z","flightCategory":"VFR","latitude":5.213,"longitude":-74.884},"SKRH":{"rawOb":"METAR SKRH 260800Z AUTO 10008KT CAVOK 26/21 Q1010","observationTime":"2026-03-26T08:00:00.000Z","flightCategory":"VFR","latitude":11.528,"longitude":-72.918},"CWCF":{"rawOb":"METAR CWCF 260800Z AUTO 36003KT M15/M23 RMK AO1 SOG 13 3021 SLP232 T11511229","observationTime":"2026-03-26T08:00:00.000Z","flightCategory":"null","latitude":52.36,"longitude":-97.022},"CWCJ":{"rawOb":"METAR CWCJ 260800Z AUTO 05009G17KT M10/M12 RMK AO1 SOG 91 6013 PK WND 04023/0714 SLP117 T10991121","observationTime":"2026-03-26T08:00:00.000Z","flightCategory":"null","latitude":48.588,"longitude":-86.295},"SKSA":{"rawOb":"METAR SKSA 260800Z AUTO VRB01KT CAVOK 25/19 Q1008","observationTime":"2026-03-26T08:00:00.000Z","flightCategory":"VFR","latitude":6.955,"longitude":-71.86},"RJNT":{"rawOb":"METAR RJNT 260800Z 35005KT 320V040 9999 FEW020 SCT025 13/07 Q1012","observationTime":"2026-03-26T08:00:00.000Z","flightCategory":"VFR","latitude":36.641,"longitude":137.187},"SKSJ":{"rawOb":"METAR SKSJ 260800Z AUTO VRB01KT 8000 NCD 24/23 Q1008","observationTime":"2026-03-26T08:00:00.000Z","flightCategory":"MVFR","latitude":2.574,"longitude":-72.64},"SKSM":{"rawOb":"METAR SKSM 260800Z AUTO VRB02KT CAVOK 27/22 Q1007","observationTime":"2026-03-26T08:00:00.000Z","flightCategory":"VFR","latitude":11.12,"longitude":-74.231},"SKTM":{"rawOb":"METAR SKTM 260800Z AUTO 30004KT 280V340 CAVOK 26/18 Q1009","observationTime":"2026-03-26T08:00:00.000Z","flightCategory":"VFR","latitude":6.451,"longitude":-71.76},"SKUC":{"rawOb":"METAR SKUC 260800Z AUTO VRB01KT CAVOK 25/21 Q1008","observationTime":"2026-03-26T08:00:00.000Z","flightCategory":"VFR","latitude":7.066,"longitude":-70.735},"SKUI":{"rawOb":"METAR SKUI 260800Z AUTO 01005KT 0650NDV R13/1700D // BKN039/// OVC044/// 25/24 Q1008","observationTime":"2026-03-26T08:00:00.000Z","flightCategory":"null","latitude":5.691,"longitude":-76.644},"SKVP":{"rawOb":"METAR SKVP 260800Z AUTO 05009KT CAVOK 26/19 Q1011","observationTime":"2026-03-26T08:00:00.000Z","flightCategory":"VFR","latitude":10.436,"longitude":-73.248},"SKVV":{"rawOb":"METAR SKVV 260800Z AUTO 26003KT CAVOK 25/21 Q1009","observationTime":"2026-03-26T08:00:00.000Z","flightCategory":"VFR","latitude":4.162,"longitude":-73.618},"CWDJ":{"rawOb":"METAR CWDJ 260800Z AUTO 04009KT M14/M17 RMK AO1 SOG 01 1017 SLP264 T11441170","observationTime":"2026-03-26T08:00:00.000Z","flightCategory":"null","latitude":50.408,"longitude":-104.58},"MYSM":{"rawOb":"METAR MYSM 260800Z AUTO 09010KT 9999 SCT017/// BKN210/// 23/21 A3003","observationTime":"2026-03-26T08:00:00.000Z","flightCategory":"VFR","latitude":24.064,"longitude":-74.529},"SKYP":{"rawOb":"METAR SKYP 260800Z AUTO 35007KT 5000NDV // ////// 29/18 Q1007","observationTime":"2026-03-26T08:00:00.000Z","flightCategory":"null","latitude":5.319,"longitude":-72.384},"RJNS":{"rawOb":"METAR RJNS 260800Z 06008KT 030V110 9999 -SHRA FEW008 BKN040 BKN080 15/08 Q1008","observationTime":"2026-03-26T08:00:00.000Z","flightCategory":"VFR","latitude":34.796,"longitude":138.189},"SKAR":{"rawOb":"METAR SKAR 260800Z AUTO VRB02KT CAVOK 20/19 Q1014","observationTime":"2026-03-26T08:00:00.000Z","flightCategory":"VFR","latitude":4.455,"longitude":-75.766},"SKAS":{"rawOb":"METAR SKAS 260800Z AUTO 01008KT //// ////// 24/24 Q1007","observationTime":"2026-03-26T08:00:00.000Z","flightCategory":"null","latitude":0.505,"longitude":-76.501},"RJNK":{"rawOb":"METAR RJNK 260800Z 36013KT 9999 FEW020 12/08 Q1012","observationTime":"2026-03-26T08:00:00.000Z","flightCategory":"VFR","latitude":36.394,"longitude":136.407},"FSIA":{"rawOb":"METAR FSIA 260800Z 12008KT 090V160 9999 FEW019CB SCT022 31/24 Q1011 NOSIG","observationTime":"2026-03-26T08:00:00.000Z","flightCategory":"VFR","latitude":-4.674,"longitude":55.522},"FIMP":{"rawOb":"METAR FIMP 260800Z 12005KT 9999 VCSH FEW016TCU SCT017 30/23 Q1014","observationTime":"2026-03-26T08:00:00.000Z","flightCategory":"VFR","latitude":-20.434,"longitude":57.684},"RJKI":{"rawOb":"METAR RJKI 260800Z AUTO 35013KT 9999 SCT033 BKN038 20/13 Q1011","observationTime":"2026-03-26T08:00:00.000Z","flightCategory":"VFR","latitude":28.321,"longitude":129.928},"RJKB":{"rawOb":"METAR RJKB 260800Z AUTO 36013KT 9999 SCT037 BKN044 OVC048 20/12 Q1012","observationTime":"2026-03-26T08:00:00.000Z","flightCategory":"VFR","latitude":27.4322,"longitude":128.7058},"RJKA":{"rawOb":"METAR RJKA 260800Z 35014KT 9999 FEW035 SCT040 19/12 Q1010","observationTime":"2026-03-26T08:00:00.000Z","flightCategory":"VFR","latitude":28.431,"longitude":129.713},"SKBS":{"rawOb":"METAR SKBS 260800Z AUTO VRB02KT //// NCD 23/23 Q1007","observationTime":"2026-03-26T08:00:00.000Z","flightCategory":"null","latitude":6.203,"longitude":-77.395},"SKCO":{"rawOb":"METAR SKCO 260800Z AUTO 21002KT //// ////// 25/24 Q1009","observationTime":"2026-03-26T08:00:00.000Z","flightCategory":"null","latitude":1.814,"longitude":-78.749},"SKCZ":{"rawOb":"METAR SKCZ 260800Z AUTO VRB01KT 7000 NCD 24/23 Q1008","observationTime":"2026-03-26T08:00:00.000Z","flightCategory":"MVFR","latitude":9.334,"longitude":-75.283},"RJFU":{"rawOb":"METAR RJFU 260800Z 34012KT CAVOK 18/08 Q1011","observationTime":"2026-03-26T08:00:00.000Z","flightCategory":"VFR","latitude":32.917,"longitude":129.914},"SKEJ":{"rawOb":"METAR SKEJ 260800Z AUTO 05005KT CAVOK 26/24 Q1008","observationTime":"2026-03-26T08:00:00.000Z","flightCategory":"VFR","latitude":7.026,"longitude":-73.809},"SKFL":{"rawOb":"METAR SKFL 260800Z AUTO 02003KT 330V080 9999 BKN050/// 25/23 Q1008","observationTime":"2026-03-26T08:00:00.000Z","flightCategory":"VFR","latitude":1.589,"longitude":-75.564},"SKGO":{"rawOb":"METAR SKGO 260800Z AUTO VRB02KT 9999 SCT040/// OVC055/// 21/20 Q1013","observationTime":"2026-03-26T08:00:00.000Z","flightCategory":"VFR","latitude":4.758,"longitude":-75.956},"RJFS":{"rawOb":"METAR RJFS 260800Z 32009KT CAVOK 18/06 Q1011","observationTime":"2026-03-26T08:00:00.000Z","flightCategory":"VFR","latitude":33.15,"longitude":130.302},"SKGY":{"rawOb":"METAR SKGY 260800Z AUTO 04004KT 7000NDV // ////// 13/13 Q1025","observationTime":"2026-03-26T08:00:00.000Z","flightCategory":"null","latitude":4.812,"longitude":-74.065},"SKIB":{"rawOb":"METAR SKIB 260800Z AUTO 25003KT //// R32///// // ////// 22/21 Q1012","observationTime":"2026-03-26T08:00:00.000Z","flightCategory":"null","latitude":4.418,"longitude":-75.13},"SKLC":{"rawOb":"METAR SKLC 260800Z AUTO 02004KT CAVOK 26/24 Q1008","observationTime":"2026-03-26T08:00:00.000Z","flightCategory":"VFR","latitude":7.817,"longitude":-76.718},"RJFG":{"rawOb":"METAR RJFG 260800Z 06003KT 340V130 9999 FEW025 BKN/// 17/11 Q1011","observationTime":"2026-03-26T08:00:00.000Z","flightCategory":"VFR","latitude":30.605,"longitude":130.992},"SKMR":{"rawOb":"METAR SKMR 260800Z AUTO VRB01KT CAVOK 25/24 Q1008","observationTime":"2026-03-26T08:00:00.000Z","flightCategory":"VFR","latitude":8.826,"longitude":-75.825},"SKMU":{"rawOb":"METAR SKMU 260800Z AUTO VRB02KT //// ////// 23/23 Q1007","observationTime":"2026-03-26T08:00:00.000Z","flightCategory":"null","latitude":1.117,"longitude":-70.083},"VTUW":{"rawOb":"METAR VTUW 260800Z VRB04KT 7000 FEW030 36/21 Q1006 NOSIG","observationTime":"2026-03-26T08:00:00.000Z","flightCategory":"MVFR","latitude":17.384,"longitude":104.643},"CWDK":{"rawOb":"METAR CWDK 260800Z AUTO 09011KT M08/M10 RMK AO1 T10831100 50002","observationTime":"2026-03-26T08:00:00.000Z","flightCategory":"null","latitude":50.006,"longitude":-113.631},"VTUV":{"rawOb":"METAR VTUV 260800Z 08006KT 040V110 9999 FEW030 37/23 Q1006 NOSIG","observationTime":"2026-03-26T08:00:00.000Z","flightCategory":"VFR","latitude":16.117,"longitude":103.772},"SKNV":{"rawOb":"METAR SKNV 260800Z AUTO VRB01KT 9999NDV -SHRA BKN054/// OVC100/// 23/23 Q1010","observationTime":"2026-03-26T08:00:00.000Z","flightCategory":"null","latitude":2.949,"longitude":-75.294},"VTUU":{"rawOb":"METAR VTUU 260800Z 33005KT 270V020 CAVOK 37/22 Q1007 NOSIG","observationTime":"2026-03-26T08:00:00.000Z","flightCategory":"VFR","latitude":15.251,"longitude":104.87},"CWDZ":{"rawOb":"METAR CWDZ 260800Z AUTO 36002KT M11/M13 RMK AO1 9PAST HR 3010 SLP272 P0004 T11071128 50009","observationTime":"2026-03-26T08:00:00.000Z","flightCategory":"null","latitude":51.445,"longitude":-112.677},"SKPC":{"rawOb":"METAR SKPC 260800Z AUTO 28004KT CAVOK 27/22 Q1006","observationTime":"2026-03-26T08:00:00.000Z","flightCategory":"VFR","latitude":6.184,"longitude":-67.491},"SKPD":{"rawOb":"METAR SKPD 260800Z AUTO VRB01KT CAVOK 23/23 Q1007","observationTime":"2026-03-26T08:00:00.000Z","flightCategory":"VFR","latitude":3.854,"longitude":-67.906},"VTUQ":{"rawOb":"METAR VTUQ 260800Z VRB02KT 9000 FEW035 36/18 Q1007 NOSIG","observationTime":"2026-03-26T08:00:00.000Z","flightCategory":"VFR","latitude":14.95,"longitude":102.313},"VTUO":{"rawOb":"METAR VTUO 260800Z 14004KT 060V170 9000 SCT030 37/18 Q1007 NOSIG","observationTime":"2026-03-26T08:00:00.000Z","flightCategory":"VFR","latitude":15.227,"longitude":103.244},"VTUL":{"rawOb":"METAR VTUL 260800Z 22005KT 130V290 9999 BKN030 38/19 Q1006 NOSIG","observationTime":"2026-03-26T08:00:00.000Z","flightCategory":"MVFR","latitude":17.445,"longitude":101.725},"VTUK":{"rawOb":"METAR VTUK 260800Z VRB03KT 9999 FEW030 SCT070 38/21 Q1007 NOSIG","observationTime":"2026-03-26T08:00:00.000Z","flightCategory":"VFR","latitude":16.462,"longitude":102.786},"VTUI":{"rawOb":"METAR VTUI 260800Z VRB02KT 9999 FEW030 37/22 Q1006 NOSIG","observationTime":"2026-03-26T08:00:00.000Z","flightCategory":"VFR","latitude":17.195,"longitude":104.119},"VTUD":{"rawOb":"METAR VTUD 260800Z VRB03KT 9999 FEW040 38/21 Q1006 NOSIG","observationTime":"2026-03-26T08:00:00.000Z","flightCategory":"VFR","latitude":17.382,"longitude":102.799},"VECO":{"rawOb":"METAR VECO 260800Z 04004KT 5000 HZ FEW025 28/20 Q1011 NOSIG","observationTime":"2026-03-26T08:00:00.000Z","flightCategory":"MVFR","latitude":26.331,"longitude":89.467},"VEPY":{"rawOb":"METAR VEPY 260800Z 00000KT 0400 FG VV/// 16/14 Q1017 NOSIG","observationTime":"2026-03-26T08:00:00.000Z","flightCategory":"LIFR","latitude":27.228,"longitude":88.587},"HLMS":{"rawOb":"METAR HLMS 260800Z 21010KT 7000 SKC 15/07 Q1013","observationTime":"2026-03-26T08:00:00.000Z","flightCategory":"MVFR","latitude":32.324,"longitude":15.062},"WSSL":{"rawOb":"METAR WSSL 260800Z 04013KT 9999 FEW020 SCT060 BKN300 31/22 Q1007","observationTime":"2026-03-26T08:00:00.000Z","flightCategory":"VFR","latitude":1.417,"longitude":103.866},"HLLS":{"rawOb":"METAR HLLS 260800Z 18012KT CAVOK 17/M01 Q1017","observationTime":"2026-03-26T08:00:00.000Z","flightCategory":"VFR","latitude":26.994,"longitude":14.464},"CYHZ":{"rawOb":"METAR CYHZ 260800Z 15007KT 15SM BKN120 BKN200 M01/M04 A3023 RMK AC6CI1 CI TR SLP246","observationTime":"2026-03-26T08:00:00.000Z","flightCategory":"VFR","latitude":44.8781,"longitude":-63.5136},"CWWF":{"rawOb":"METAR CWWF 260800Z AUTO 01011KT M12/M15 RMK AO1 PK WND 01017/0727 SLP240 T11201146 52019","observationTime":"2026-03-26T08:00:00.000Z","flightCategory":"null","latitude":49.695,"longitude":-103.801},"CWWK":{"rawOb":"METAR CWWK 260800Z AUTO 06/M00 RMK AO1 SLP271 T00601004 53028","observationTime":"2026-03-26T08:00:00.000Z","flightCategory":"null","latitude":49.018,"longitude":-122.784},"CYGL":{"rawOb":"METAR CYGL 260800Z 07002KT 15SM SKC M28/M31 A2998 RMK SLP183","observationTime":"2026-03-26T08:00:00.000Z","flightCategory":"VFR","latitude":53.625,"longitude":-77.7},"CWXA":{"rawOb":"METAR CWXA 260800Z AUTO 04006KT M12/M13 RMK AO1 4PAST HR 2015 SLP227 P0009 T11171134 50027","observationTime":"2026-03-26T08:00:00.000Z","flightCategory":"null","latitude":51.083,"longitude":-115.066},"VOJV":{"rawOb":"METAR VOJV 260800Z 13008KT 6000 NSC 35/11 Q1013","observationTime":"2026-03-26T08:00:00.000Z","flightCategory":"MVFR","latitude":15.174,"longitude":76.635},"CXMY":{"rawOb":"METAR CXMY 260800Z AUTO M05/M06 RMK AO1 T10491058","observationTime":"2026-03-26T08:00:00.000Z","flightCategory":"null","latitude":44.984,"longitude":-62.484},"CXNM":{"rawOb":"METAR CXNM 260800Z AUTO 27010KT M09/M10 RMK AO1 SOG 104 T10871103","observationTime":"2026-03-26T08:00:00.000Z","flightCategory":"null","latitude":46.818,"longitude":-60.673},"SBCY":{"rawOb":"METAR SBCY 260800Z 17015KT 9999 BKN040 BKN050 24/23 Q1011 RERA","observationTime":"2026-03-26T08:00:00.000Z","flightCategory":"VFR","latitude":-15.653,"longitude":-56.116},"CYFB":{"rawOb":"METAR CYFB 260800Z 35003KT 15SM IC FEW042 M30/M33 A2980 RMK SC1 SC TR SLP097","observationTime":"2026-03-26T08:00:00.000Z","flightCategory":"VFR","latitude":63.75,"longitude":-68.544},"CXOX":{"rawOb":"METAR CXOX 260800Z AUTO 35004KT M24/M29 RMK AO1 SOG 60 1016 SLP308 T12371294","observationTime":"2026-03-26T08:00:00.000Z","flightCategory":"null","latitude":55.146,"longitude":-105.27},"CXRH":{"rawOb":"METAR CXRH 260800Z AUTO 25012G22KT M06/M11 RMK AO1 SOG 05 3021 PK WND 28025/0734 SLP199 T10561107","observationTime":"2026-03-26T08:00:00.000Z","flightCategory":"null","latitude":49.57,"longitude":-57.878},"CYEG":{"rawOb":"METAR CYEG 260800Z 33005KT 15SM -SN OVC034 M13/M16 A3024 RMK SC8 SLP300","observationTime":"2026-03-26T08:00:00.000Z","flightCategory":"VFR","latitude":53.308,"longitude":-113.592},"CYDQ":{"rawOb":"METAR CYDQ 260800Z AUTO /////KT 9SM BKN017 OVC037 M21/M23 A3037 RMK WIND MISG SLP354","observationTime":"2026-03-26T08:00:00.000Z","flightCategory":"MVFR","latitude":55.741,"longitude":-120.188},"CXSH":{"rawOb":"METAR CXSH 260800Z AUTO 03002KT M07/M08 RMK AO1 SLP119 T10691084 56044","observationTime":"2026-03-26T08:00:00.000Z","flightCategory":"null","latitude":46.564,"longitude":-72.733},"FNHU":{"rawOb":"METAR FNHU 260800Z COR 17006KT 9999 BKN011 OVC070 19/17 Q1023","observationTime":"2026-03-26T08:00:00.000Z","flightCategory":"MVFR","latitude":-12.809,"longitude":15.761},"FNUB":{"rawOb":"METAR FNUB 260800Z 15005KT 120V200 9999 FEW010 SCT070 18/18 Q1024","observationTime":"2026-03-26T08:00:00.000Z","flightCategory":"VFR","latitude":-14.925,"longitude":13.575},"CWPO":{"rawOb":"METAR CWPO 260800Z AUTO 36014G20KT M12/M14 RMK AO1 SOG 13 3020 PK WND 00021/0750 SLP203 T11171135","observationTime":"2026-03-26T08:00:00.000Z","flightCategory":"null","latitude":49.191,"longitude":-98.905},"CWWZ":{"rawOb":"METAR CWWZ 260800Z AUTO 25010KT 06/02 RMK AO1 SLP080 T00550018 56026","observationTime":"2026-03-26T08:00:00.000Z","flightCategory":"null","latitude":43.244,"longitude":-79.218},"CXTP":{"rawOb":"METAR CXTP 260800Z AUTO 26008G16KT M05/M08 RMK AO1 SOG 41 3020 PK WND 27017/0733 SLP209 T10541081","observationTime":"2026-03-26T08:00:00.000Z","flightCategory":"null","latitude":48.557,"longitude":-53.975},"FEFT":{"rawOb":"METAR FEFT 260800Z COR 22006KT 9999 FEW010 23/20 Q1015","observationTime":"2026-03-26T08:00:00.000Z","flightCategory":"VFR","latitude":4.226,"longitude":15.787},"CTCK":{"rawOb":"METAR CTCK 260800Z AUTO 08005KT M02/M03 RMK AO1 3PAST HR 8036 SLP096 P0001 T10231031 50004","observationTime":"2026-03-26T08:00:00.000Z","flightCategory":"null","latitude":45.251,"longitude":-74.963},"DFFD":{"rawOb":"METAR DFFD 250800Z COR 32003KT 280V360 0700 R04/0750 DU NSC 33/15 Q1009 NOSIG","observationTime":"2026-03-26T08:00:00.000Z","flightCategory":"LIFR","latitude":12.356,"longitude":-1.512},"UTAM":{"rawOb":"METAR UTAM 260800Z 20012G22KT CAVOK 29/09 Q1006 R88/CLRD70 NOSIG","observationTime":"2026-03-26T08:00:00.000Z","flightCategory":"VFR","latitude":37.619,"longitude":61.897},"CXWN":{"rawOb":"METAR CXWN 260800Z AUTO 36008G17KT M09/M11 RMK AO1 PK WND 34017/0753 SLP182 T10871109 51023","observationTime":"2026-03-26T08:00:00.000Z","flightCategory":"null","latitude":49.889,"longitude":-97.13},"CWCI":{"rawOb":"METAR CWCI 260800Z AUTO 06015KT M02/M03 RMK AO1 PK WND 05023/0705 SLP082 T10181026 56021","observationTime":"2026-03-26T08:00:00.000Z","flightCategory":"null","latitude":47.341,"longitude":-85.807},"UTAA":{"rawOb":"METAR UTAA 260800Z 30004KT 260V350 9999 FEW050CB SCT050 BKN100 18/14 Q1005 R88/190065 NOSIG","observationTime":"2026-03-26T08:00:00.000Z","flightCategory":"VFR","latitude":37.975,"longitude":58.371},"SUDU":{"rawOb":"METAR SUDU 260800Z 00000KT CAVOK 11/10 Q1017","observationTime":"2026-03-26T08:00:00.000Z","flightCategory":"VFR","latitude":-33.359,"longitude":-56.499},"SCFT":{"rawOb":"METAR SCFT 260800Z AUTO 29004KT 260V330 9999 FEW051/// 05/04 Q1018","observationTime":"2026-03-26T08:00:00.000Z","flightCategory":"VFR","latitude":-43.189,"longitude":-71.853},"SCPQ":{"rawOb":"METAR SCPQ 260800Z AUTO 21002KT 5000 SCT003 OVC048 07/07 Q1018","observationTime":"2026-03-26T08:00:00.000Z","flightCategory":"MVFR","latitude":-42.347,"longitude":-73.718},"SCTN":{"rawOb":"METAR SCTN 260800Z AUTO 04002KT CAVOK 09/08 Q1019","observationTime":"2026-03-26T08:00:00.000Z","flightCategory":"VFR","latitude":-42.933,"longitude":-72.699},"SCGZ":{"rawOb":"METAR SCGZ 260800Z AUTO 27016KT 9999 FEW026/// OVC050/// 02/01 Q0988","observationTime":"2026-03-26T08:00:00.000Z","flightCategory":"VFR","latitude":-54.932,"longitude":-67.631},"SCAT":{"rawOb":"METAR SCAT 260800Z AUTO 29003KT 260V330 //// R17/P2000N OVC010/// 16/13 Q1013","observationTime":"2026-03-26T08:00:00.000Z","flightCategory":"IFR","latitude":-27.262,"longitude":-70.774},"SCVD":{"rawOb":"METAR SCVD 260800Z AUTO 17001KT 0450 R35/0550N -RA FG VV002 06/06 Q1019","observationTime":"2026-03-26T08:00:00.000Z","flightCategory":"LIFR","latitude":-39.65,"longitude":-73.086},"SCCF":{"rawOb":"METAR SCCF 260800Z AUTO 14013KT 9999 NCD 10/M03 Q1024","observationTime":"2026-03-26T08:00:00.000Z","flightCategory":"VFR","latitude":-22.496,"longitude":-68.905},"SCSN":{"rawOb":"METAR SCSN 260800Z AUTO 00000KT //// R/////// // NCD 06/05 Q1014","observationTime":"2026-03-26T08:00:00.000Z","flightCategory":"null","latitude":-33.656,"longitude":-71.615},"SCIC":{"rawOb":"METAR SCIC 260800Z AUTO 14005KT //// R/////// // NCD 09/06 Q1015","observationTime":"2026-03-26T08:00:00.000Z","flightCategory":"null","latitude":-34.966,"longitude":-71.217},"SCQP":{"rawOb":"METAR SCQP 260800Z 00000KT 7000 SCT004 03/03 Q1018","observationTime":"2026-03-26T08:00:00.000Z","flightCategory":"MVFR","latitude":-38.925,"longitude":-72.648},"SCFA":{"rawOb":"METAR SCFA 260800Z 10003KT 9999 BKN006 17/14 Q1012 NOSIG","observationTime":"2026-03-26T08:00:00.000Z","flightCategory":"IFR","latitude":-23.45,"longitude":-70.441},"SCDA":{"rawOb":"METAR SCDA 260800Z 17007KT CAVOK 20/14 Q1012","observationTime":"2026-03-26T08:00:00.000Z","flightCategory":"VFR","latitude":-20.535,"longitude":-70.181},"SCIE":{"rawOb":"METAR SCIE 260800Z AUTO 00000KT CAVOK 08/07 Q1016","observationTime":"2026-03-26T08:00:00.000Z","flightCategory":"VFR","latitude":-36.773,"longitude":-73.063},"SCAR":{"rawOb":"METAR SCAR 260800Z VRB01KT 9999 OVC037 21/16 Q1012","observationTime":"2026-03-26T08:00:00.000Z","flightCategory":"VFR","latitude":-18.351,"longitude":-70.336},"SCSE":{"rawOb":"METAR SCSE 260800Z AUTO 00000KT CAVOK 12/11 Q1013","observationTime":"2026-03-26T08:00:00.000Z","flightCategory":"VFR","latitude":-29.918,"longitude":-71.201},"SCIP":{"rawOb":"METAR SCIP 260800Z 10012KT 9999 SCT010 BKN023 22/20 Q1024 NOSIG","observationTime":"2026-03-26T08:00:00.000Z","flightCategory":"MVFR","latitude":-27.161,"longitude":-109.427},"ZPPP":{"rawOb":"METAR ZPPP 260800Z 22011G16MPS CAVOK 25/M03 Q1015 NOSIG","observationTime":"2026-03-26T08:00:00.000Z","flightCategory":"VFR","latitude":25.107,"longitude":102.934},"ZLXY":{"rawOb":"METAR ZLXY 260800Z 11002MPS 040V190 CAVOK 20/06 Q1012 NOSIG","observationTime":"2026-03-26T08:00:00.000Z","flightCategory":"VFR","latitude":34.449,"longitude":108.752},"VCCC":{"rawOb":"METAR VCCC 260800Z 26006KT 9999 FEW016 FEW018TCU 33/24 Q1008 A2979 RMK TCU SE","observationTime":"2026-03-26T08:00:00.000Z","flightCategory":"VFR","latitude":6.822,"longitude":79.886},"ZGSZ":{"rawOb":"METAR ZGSZ 260800Z 17007MPS 9999 FEW026 26/21 Q1010 NOSIG","observationTime":"2026-03-26T08:00:00.000Z","flightCategory":"VFR","latitude":22.639,"longitude":113.803},"ZGOW":{"rawOb":"METAR ZGOW 260800Z 18003MPS 9999 BKN033 24/17 Q1011 NOSIG","observationTime":"2026-03-26T08:00:00.000Z","flightCategory":"VFR","latitude":23.55,"longitude":116.505},"ZGNN":{"rawOb":"METAR ZGNN 260800Z 16005MPS CAVOK 31/21 Q1006 NOSIG","observationTime":"2026-03-26T08:00:00.000Z","flightCategory":"VFR","latitude":22.609,"longitude":108.173},"ZGKL":{"rawOb":"METAR ZGKL 260800Z 33002MPS 300V010 5000 HZ FEW033 SCT070 27/20 Q1007 NOSIG","observationTime":"2026-03-26T08:00:00.000Z","flightCategory":"MVFR","latitude":25.22,"longitude":110.04},"PLCH":{"rawOb":"METAR PLCH 260800Z 10003KT 050V150 9999 FEW019 27/24 Q1008","observationTime":"2026-03-26T08:00:00.000Z","flightCategory":"VFR","latitude":1.988,"longitude":-157.349},"FNCA":{"rawOb":"METAR FNCA 260800Z 09004KT 020V130 9999 FEW013 29/25 Q1012","observationTime":"2026-03-26T08:00:00.000Z","flightCategory":"VFR","latitude":-5.59,"longitude":12.188},"FNGI":{"rawOb":"METAR FNGI 260800Z VRB03KT 9999 FEW008 BKN014 23/20 Q1019","observationTime":"2026-03-26T08:00:00.000Z","flightCategory":"MVFR","latitude":-17.044,"longitude":15.684},"FNLU":{"rawOb":"METAR FNLU 260800Z 14004KT 100V160 9000 BKN021 OVC070 27/24 Q1011","observationTime":"2026-03-26T08:00:00.000Z","flightCategory":"MVFR","latitude":-8.858,"longitude":13.231},"UBBY":{"rawOb":"METAR UBBY 260800Z VRB02KT 6000 SCT007 OVC020 13/11 Q1008 NOSIG RMK MT OBSC","observationTime":"2026-03-26T08:00:00.000Z","flightCategory":"MVFR","latitude":41.561,"longitude":46.667},"FNUE":{"rawOb":"METAR FNUE 260800Z 36006KT 9999 FEW012 SCT023 18/09 Q1023","observationTime":"2026-03-26T08:00:00.000Z","flightCategory":"VFR","latitude":-11.768,"longitude":19.898},"FXMM":{"rawOb":"METAR FXMM 260800Z 00000KT 9999 FEW035 BKN080 21/16 Q1026Q1016","observationTime":"2026-03-26T08:00:00.000Z","flightCategory":"VFR","latitude":-29.462,"longitude":27.552},"FDSK":{"rawOb":"METAR FDSK 260800Z 01008KT 340V040 9999 FEW035 28/22 Q1015 NOSIG","observationTime":"2026-03-26T08:00:00.000Z","flightCategory":"VFR","latitude":-26.359,"longitude":31.719},"SLLP":{"rawOb":"METAR SLLP 260800Z 08006KT 9999 4000E BCFG FEW002 SCT200 05/05 Q1036 NOSIG","observationTime":"2026-03-26T08:00:00.000Z","flightCategory":"VFR","latitude":-16.511,"longitude":-68.182},"SBUF":{"rawOb":"METAR SBUF 260800Z AUTO 17004KT 130V210 CAVOK 23/21 Q1013","observationTime":"2026-03-26T08:00:00.000Z","flightCategory":"VFR","latitude":-9.4,"longitude":-38.25},"SBLE":{"rawOb":"METAR SBLE 260800Z AUTO 13006KT 100V170 3300 RA OVC004 ///// Q////","observationTime":"2026-03-26T08:00:00.000Z","flightCategory":"LIFR","latitude":-12.482,"longitude":-41.277},"VTCT":{"rawOb":"METAR VTCT 260800Z 12005KT 080V150 7000 NSC 33/16 Q1008 NOSIG","observationTime":"2026-03-26T08:00:00.000Z","flightCategory":"MVFR","latitude":19.961,"longitude":99.881},"VTBO":{"rawOb":"METAR VTBO 260800Z 21013KT CAVOK 32/25 Q1008","observationTime":"2026-03-26T08:00:00.000Z","flightCategory":"VFR","latitude":12.275,"longitude":102.319},"VTPM":{"rawOb":"METAR VTPM 260800Z 25010KT 220V280 8000 NSC 37/16 Q1007 NOSIG","observationTime":"2026-03-26T08:00:00.000Z","flightCategory":"MVFR","latitude":16.703,"longitude":98.542},"VTPB":{"rawOb":"METAR VTPB 260800Z 15008KT 120V190 9999 FEW030 39/20 Q1005 NOSIG","observationTime":"2026-03-26T08:00:00.000Z","flightCategory":"VFR","latitude":16.676,"longitude":101.195},"VTPP":{"rawOb":"METAR VTPP 260800Z VRB03KT 9000 NSC 37/18 Q1006 NOSIG","observationTime":"2026-03-26T08:00:00.000Z","flightCategory":"VFR","latitude":16.792,"longitude":100.274},"SPQT":{"rawOb":"METAR SPQT 260800Z 05006KT 020V080 9999 FEW020 BKN100 26/24 Q1006 NOSIG RMK PP000","observationTime":"2026-03-26T08:00:00.000Z","flightCategory":"VFR","latitude":-3.786,"longitude":-73.306},"VTPO":{"rawOb":"METAR VTPO 260800Z VRB02KT CAVOK 39/18 Q1005 NOSIG","observationTime":"2026-03-26T08:00:00.000Z","flightCategory":"VFR","latitude":17.238,"longitude":99.818},"VTPH":{"rawOb":"METAR VTPH 260800Z 15011KT 9999 FEW030 33/25 Q1007 NOSIG","observationTime":"2026-03-26T08:00:00.000Z","flightCategory":"VFR","latitude":12.633,"longitude":99.951},"VTCP":{"rawOb":"METAR VTCP 260800Z 21008KT 140V250 5000 HZ FEW040 39/16 Q1006 NOSIG","observationTime":"2026-03-26T08:00:00.000Z","flightCategory":"MVFR","latitude":18.129,"longitude":100.162},"VTCN":{"rawOb":"METAR VTCN 260800Z VRB04KT 6000 NSC 38/15 Q1006 NOSIG","observationTime":"2026-03-26T08:00:00.000Z","flightCategory":"MVFR","latitude":18.807,"longitude":100.787},"VTCL":{"rawOb":"METAR VTCL 260800Z VRB02KT 9000 NSC 38/13 Q1007 NOSIG","observationTime":"2026-03-26T08:00:00.000Z","flightCategory":"VFR","latitude":18.277,"longitude":99.502},"VTCH":{"rawOb":"METAR VTCH 260800Z VRB04KT 7000 NSC 36/11 Q1008 NOSIG","observationTime":"2026-03-26T08:00:00.000Z","flightCategory":"MVFR","latitude":19.302,"longitude":97.972},"VTSY":{"rawOb":"METAR VTSY 260800Z 04006KT 280V080 9999 FEW040 35/18 Q1007 NOSIG","observationTime":"2026-03-26T08:00:00.000Z","flightCategory":"VFR","latitude":5.788,"longitude":101.147},"VTSG":{"rawOb":"METAR VTSG 260800Z VRB07KT 9999 SCT030 37/18 Q1007 NOSIG","observationTime":"2026-03-26T08:00:00.000Z","flightCategory":"VFR","latitude":8.099,"longitude":98.986},"VTST":{"rawOb":"METAR VTST 260800Z 05008KT 360V110 9999 FEW030 35/19 Q1007 NOSIG","observationTime":"2026-03-26T08:00:00.000Z","flightCategory":"VFR","latitude":7.512,"longitude":99.621},"GVAC":{"rawOb":"METAR GVAC 260800Z 04009KT 9999 SCT013 BKN200 20/15 Q1014 NOSIG","observationTime":"2026-03-26T08:00:00.000Z","flightCategory":"VFR","latitude":16.742,"longitude":-22.949},"VTSR":{"rawOb":"METAR VTSR 260800Z 11009KT 060V160 9999 SCT020 36/19 Q1007 NOSIG","observationTime":"2026-03-26T08:00:00.000Z","flightCategory":"VFR","latitude":9.773,"longitude":98.587},"VTSM":{"rawOb":"METAR VTSM 260800Z 15011KT 9999 FEW020 31/24 Q1009 NOSIG","observationTime":"2026-03-26T08:00:00.000Z","flightCategory":"VFR","latitude":9.548,"longitude":100.062},"VTSF":{"rawOb":"METAR VTSF 260800Z 06009KT 030V090 9999 FEW018 32/23 Q1008 NOSIG","observationTime":"2026-03-26T08:00:00.000Z","flightCategory":"VFR","latitude":8.546,"longitude":99.94},"VTSE":{"rawOb":"METAR VTSE 260800Z 11006KT 070V150 9999 FEW020 32/24 Q1007 NOSIG","observationTime":"2026-03-26T08:00:00.000Z","flightCategory":"VFR","latitude":10.711,"longitude":99.362},"VTSC":{"rawOb":"METAR VTSC 260800Z 07009KT 030V090 9999 FEW022 30/23 Q1008 NOSIG","observationTime":"2026-03-26T08:00:00.000Z","flightCategory":"VFR","latitude":6.52,"longitude":101.743},"VTSB":{"rawOb":"METAR VTSB 260800Z 03010KT 9999 FEW020 34/18 Q1007 NOSIG","observationTime":"2026-03-26T08:00:00.000Z","flightCategory":"VFR","latitude":9.133,"longitude":99.152},"SANU":{"rawOb":"METAR SANU 260800Z 00000KT CAVOK 11/05 Q1014","observationTime":"2026-03-26T08:00:00.000Z","flightCategory":"VFR","latitude":-31.572,"longitude":-68.418},"CYYQ":{"rawOb":"METAR CYYQ 260800Z 29008KT 15SM IC SKC M30/M33 A3016 RMK SLP220","observationTime":"2026-03-26T08:00:00.000Z","flightCategory":"VFR","latitude":58.745,"longitude":-94.074},"SARL":{"rawOb":"METAR SARL 260800Z 11002KT 8000 OVC008 19/19 Q1015","observationTime":"2026-03-26T08:00:00.000Z","flightCategory":"IFR","latitude":-29.689,"longitude":-57.152},"ORMM":{"rawOb":"METAR ORMM 260800Z 12021KT 2000 SHRA SCT030 BKN035 OVC100 18/17 Q1003","observationTime":"2026-03-26T08:00:00.000Z","flightCategory":"IFR","latitude":30.549,"longitude":47.662},"GOGK":{"rawOb":"METAR GOGK 260800Z 36002KT CAVOK 23/14 Q1010","observationTime":"2026-03-26T08:00:00.000Z","flightCategory":"VFR","latitude":12.898,"longitude":-14.967},"SADM":{"rawOb":"METAR SADM 260800Z 18001KT CAVOK 14/12 Q1017","observationTime":"2026-03-26T08:00:00.000Z","flightCategory":"VFR","latitude":-34.676,"longitude":-58.643},"SADL":{"rawOb":"METAR SADL 260800Z 00000KT CAVOK 11/11 Q1017","observationTime":"2026-03-26T08:00:00.000Z","flightCategory":"VFR","latitude":-34.972,"longitude":-57.895},"CYYT":{"rawOb":"METAR CYYT 260800Z 25014G20KT 15SM FEW020 SCT200 M03/M05 A3017 RMK SC1CI3 SLP228","observationTime":"2026-03-26T08:00:00.000Z","flightCategory":"VFR","latitude":47.627,"longitude":-52.748},"CYYZ":{"rawOb":"METAR CYYZ 260800Z 29003KT 15SM BKN210 01/M01 A2975 RMK CI5 SLP082","observationTime":"2026-03-26T08:00:00.000Z","flightCategory":"VFR","latitude":43.679,"longitude":-79.629},"GOOD":{"rawOb":"METAR GOOD 260800Z 36006KT CAVOK 19/16 Q1011","observationTime":"2026-03-26T08:00:00.000Z","flightCategory":"VFR","latitude":14.65,"longitude":-16.23},"CYZF":{"rawOb":"METAR CYZF 260800Z 30008KT 15SM FEW240 M25/M27 A3045 RMK CI1 SLP345","observationTime":"2026-03-26T08:00:00.000Z","flightCategory":"VFR","latitude":62.475,"longitude":-114.448},"GOOG":{"rawOb":"METAR GOOG 260800Z 35008KT CAVOK 20/14 Q1009","observationTime":"2026-03-26T08:00:00.000Z","flightCategory":"VFR","latitude":15.4,"longitude":-15.084},"CWVF":{"rawOb":"METAR CWVF 260800Z AUTO 24011KT 06/01 RMK AO1 T00640005","observationTime":"2026-03-26T08:00:00.000Z","flightCategory":"null","latitude":49.106,"longitude":-123.303},"GOSP":{"rawOb":"METAR GOSP 260800Z 28006KT CAVOK 18/16 Q1012","observationTime":"2026-03-26T08:00:00.000Z","flightCategory":"VFR","latitude":16.677,"longitude":-14.964},"CYZV":{"rawOb":"METAR CYZV 260800Z 06006KT 15SM SCT075 BKN150 M16/M26 A3016 RMK AC4AC3 SLP220","observationTime":"2026-03-26T08:00:00.000Z","flightCategory":"VFR","latitude":50.217,"longitude":-66.26},"CYZY":{"rawOb":"METAR CYZY 260800Z AUTO 34005KT 9SM CLR M15/M23 A3027 RMK SLP313","observationTime":"2026-03-26T08:00:00.000Z","flightCategory":"VFR","latitude":55.303,"longitude":-123.135},"GOSM":{"rawOb":"METAR GOSM 260800Z 36006KT CAVOK 23/14 Q1010","observationTime":"2026-03-26T08:00:00.000Z","flightCategory":"VFR","latitude":15.597,"longitude":-13.326},"SADF":{"rawOb":"METAR SADF 260800Z 00000KT 9999 MIFG NSC 13/13 Q1016","observationTime":"2026-03-26T08:00:00.000Z","flightCategory":"VFR","latitude":-34.457,"longitude":-58.593},"RJCB":{"rawOb":"METAR RJCB 260800Z 14007KT 9999 FEW060 BKN/// 05/M05 Q1016","observationTime":"2026-03-26T08:00:00.000Z","flightCategory":"VFR","latitude":42.733,"longitude":143.217},"RJDC":{"rawOb":"METAR RJDC 260800Z 33007KT 280V010 9999 FEW030 BKN/// 19/06 Q1011","observationTime":"2026-03-26T08:00:00.000Z","flightCategory":"VFR","latitude":33.93,"longitude":131.279},"CWVI":{"rawOb":"METAR CWVI 260800Z AUTO 01003KT M13/M14 RMK AO1 SOG 09 1016 SLP305 T11261135","observationTime":"2026-03-26T08:00:00.000Z","flightCategory":"null","latitude":53.505,"longitude":-112.098},"TGPY":{"rawOb":"METAR TGPY 260800Z 08010KT 9999 FEW019 26/22 Q1012 NOSIG","observationTime":"2026-03-26T08:00:00.000Z","flightCategory":"VFR","latitude":12.006,"longitude":-61.797},"TTPP":{"rawOb":"METAR TTPP 260800Z 00000KT 9999 FEW016 24/20 Q1011 NOSIG","observationTime":"2026-03-26T08:00:00.000Z","flightCategory":"VFR","latitude":10.593,"longitude":-61.348},"MKJP":{"rawOb":"METAR MKJP 260800Z 32006KT //// ////// 25/20 Q1012 RMK CLD FROM CEILOMETER RWY 30 BKN 18000FT","observationTime":"2026-03-26T08:00:00.000Z","flightCategory":"null","latitude":17.942,"longitude":-76.798},"BITN":{"rawOb":"METAR BITN 260800Z 19007KT 9999 NSC M09/M13 Q1012","observationTime":"2026-03-26T08:00:00.000Z","flightCategory":"VFR","latitude":66.218,"longitude":-15.336},"TTCP":{"rawOb":"METAR TTCP 260800Z 06004KT 9999 FEW018 25/21 Q1011 NOSIG","observationTime":"2026-03-26T08:00:00.000Z","flightCategory":"VFR","latitude":11.149,"longitude":-60.836},"MPPA":{"rawOb":"METAR MPPA 260800Z AUTO 34009KT 5000 NCD 25/23 Q1007","observationTime":"2026-03-26T08:00:00.000Z","flightCategory":"MVFR","latitude":8.909,"longitude":-79.597},"CWVN":{"rawOb":"METAR CWVN 260800Z AUTO 02009KT M09/M12 RMK AO1 SLP223 T10931122 53013","observationTime":"2026-03-26T08:00:00.000Z","flightCategory":"null","latitude":49.058,"longitude":-107.586},"SACO":{"rawOb":"METAR SACO 260800Z 35010KT CAVOK 13/10 Q1016 NOSIG","observationTime":"2026-03-26T08:00:00.000Z","flightCategory":"VFR","latitude":-31.324,"longitude":-64.208},"SABE":{"rawOb":"METAR SABE 260800Z 20003KT CAVOK 18/15 Q1017 NOSIG","observationTime":"2026-03-26T08:00:00.000Z","flightCategory":"VFR","latitude":-34.559,"longitude":-58.416},"SAAV":{"rawOb":"METAR SAAV 260800Z 18002KT CAVOK 12/12 Q1016","observationTime":"2026-03-26T08:00:00.000Z","flightCategory":"VFR","latitude":-31.712,"longitude":-60.812},"RJFM":{"rawOb":"METAR RJFM 260800Z 06008KT 9999 FEW030 BKN/// 18/10 Q1010","observationTime":"2026-03-26T08:00:00.000Z","flightCategory":"VFR","latitude":31.877,"longitude":131.449},"SAAR":{"rawOb":"METAR SAAR 260800Z 20003KT 9000 MIFG NSC 11/11 Q1016","observationTime":"2026-03-26T08:00:00.000Z","flightCategory":"VFR","latitude":-32.918,"longitude":-60.782},"CWVP":{"rawOb":"METAR CWVP 260800Z AUTO 25003KT M12/M13 RMK AO1 SLP208 T11171132 53026","observationTime":"2026-03-26T08:00:00.000Z","flightCategory":"null","latitude":49.64,"longitude":-109.514},"SAAC":{"rawOb":"METAR SAAC 260800Z 00000KT CAVOK 15/11 Q1016","observationTime":"2026-03-26T08:00:00.000Z","flightCategory":"VFR","latitude":-31.308,"longitude":-58.016},"SAZY":{"rawOb":"METAR SAZY 260800Z 21004KT CAVOK 02/01 Q1017","observationTime":"2026-03-26T08:00:00.000Z","flightCategory":"VFR","latitude":-40.075,"longitude":-71.137},"SAZS":{"rawOb":"METAR SAZS 260800Z 19006KT 9999 SCT026 00/M02 Q1018","observationTime":"2026-03-26T08:00:00.000Z","flightCategory":"VFR","latitude":-41.151,"longitude":-71.157},"OETB":{"rawOb":"METAR OETB 260800Z 28004KT 9999 SCT040 13/06 Q1004 TEMPO TS","observationTime":"2026-03-26T08:00:00.000Z","flightCategory":"VFR","latitude":28.366,"longitude":36.619},"CYXX":{"rawOb":"METAR CYXX 260800Z 18008KT 15SM SCT093 03/01 A3032 RMK AC3 SLP270","observationTime":"2026-03-26T08:00:00.000Z","flightCategory":"VFR","latitude":49.027,"longitude":-122.377},"RPLI":{"rawOb":"METAR RPLI 260800Z 29010KT 9999 FEW018 31/23 Q1008 NOSIG RMK A2977","observationTime":"2026-03-26T08:00:00.000Z","flightCategory":"VFR","latitude":18.178,"longitude":120.532},"SKIP":{"rawOb":"METAR SKIP 260800Z AUTO 04003KT 010V080 CAVOK 09/// Q1027","observationTime":"2026-03-26T08:00:00.000Z","flightCategory":"VFR","latitude":0.858,"longitude":-77.677},"SKMZ":{"rawOb":"METAR SKMZ 260800Z AUTO 10003KT 070V130 1700NDV BR ////// 15/14 Q1024","observationTime":"2026-03-26T08:00:00.000Z","flightCategory":"null","latitude":5.03,"longitude":-75.47},"MDST":{"rawOb":"METAR MDST 260800Z 05004KT 9999 BKN014 BKN300 21/21 Q1014","observationTime":"2026-03-26T08:00:00.000Z","flightCategory":"MVFR","latitude":19.407,"longitude":-70.614},"MDPC":{"rawOb":"METAR MDPC 260800Z 04004KT 9999 SCT016 24/23 Q1014","observationTime":"2026-03-26T08:00:00.000Z","flightCategory":"VFR","latitude":18.566,"longitude":-68.356},"MDSD":{"rawOb":"METAR MDSD 260800Z 01006KT 9999 FEW016 22/21 Q1014","observationTime":"2026-03-26T08:00:00.000Z","flightCategory":"VFR","latitude":18.433,"longitude":-69.667},"CWWB":{"rawOb":"METAR CWWB 260800Z AUTO 01005KT 05/M00 RMK AO1 SLP085 T00491004 56023","observationTime":"2026-03-26T08:00:00.000Z","flightCategory":"null","latitude":43.302,"longitude":-79.791},"CWDV":{"rawOb":"METAR CWDV 260800Z AUTO 05005KT M10/M12 RMK AO1 9PAST HR SOG 66 3010 SLP122 P0004 T10961115 50014","observationTime":"2026-03-26T08:00:00.000Z","flightCategory":"null","latitude":49.033,"longitude":-90.467},"KIND":{"rawOb":"SPECI KIND 260800Z 24014KT 10SM -RA OVC110 16/13 A2991 RMK AO2 OCNL LTGIC DSNT SW CB DSNT SW MOV E P0000 T01610128","observationTime":"2026-03-26T08:00:00.000Z","flightCategory":"VFR","latitude":39.7252,"longitude":-86.2816},"UWOR":{"rawOb":"METAR UWOR 260800Z 12003MPS 080V150 CAVOK 16/01 Q1020 R07/090060 NOSIG RMK QFE740/0987","observationTime":"2026-03-26T08:00:00.000Z","flightCategory":"VFR","latitude":51.07,"longitude":58.597},"FMNM":{"rawOb":"METAR FMNM 260800Z VRB03KT 9999 FEW020CB 34/23 Q1013 NOSIG","observationTime":"2026-03-26T08:00:00.000Z","flightCategory":"VFR","latitude":-15.667,"longitude":46.352},"CYSB":{"rawOb":"METAR CYSB 260800Z 32004KT 15SM MIFG SKC M05/M05 A2972 RMK SLP086","observationTime":"2026-03-26T08:00:00.000Z","flightCategory":"VFR","latitude":46.622,"longitude":-80.799},"CWVQ":{"rawOb":"METAR CWVQ 260800Z AUTO 04005KT M04/M06 RMK AO1 2PAST HR SOG 05 8044 SLP109 P0001 T10421055 50002","observationTime":"2026-03-26T08:00:00.000Z","flightCategory":"null","latitude":45.427,"longitude":-73.929},"CWDQ":{"rawOb":"METAR CWDQ 260800Z AUTO 17003KT M07/M09 RMK AO1 3PAST HR SOG 18 6050 SLP113 P0001 T10741091 50005","observationTime":"2026-03-26T08:00:00.000Z","flightCategory":"null","latitude":47.415,"longitude":-72.788},"FAJB":{"rawOb":"METAR FAJB 260800Z AUTO 00000KT //// // ////// 24/16 Q1024","observationTime":"2026-03-26T08:00:00.000Z","flightCategory":"null","latitude":-26.15,"longitude":28},"FAVV":{"rawOb":"METAR FAVV 260800Z AUTO 00000KT //// // ////// 23/18 Q1026","observationTime":"2026-03-26T08:00:00.000Z","flightCategory":"null","latitude":-26.566,"longitude":27.961},"FQPB":{"rawOb":"METAR FQPB 260800Z /////KT 9999 FEW020 BKN/// 29/24 Q1015","observationTime":"2026-03-26T08:00:00.000Z","flightCategory":"VFR","latitude":-12.989,"longitude":40.525},"CWVU":{"rawOb":"METAR CWVU 260800Z AUTO 16012G17KT 03/02 RMK AO1 PK WND 15021/0725 SLP211 T00260016 58028","observationTime":"2026-03-26T08:00:00.000Z","flightCategory":"null","latitude":44.287,"longitude":-66.342},"FQQL":{"rawOb":"METAR FQQL 260800Z /////KT 9999 BKN018 30/25 Q1015","observationTime":"2026-03-26T08:00:00.000Z","flightCategory":"MVFR","latitude":-17.858,"longitude":36.869},"KPRN":{"rawOb":"METAR KPRN 260800Z AUTO 00000KT 6SM BR CLR 13/13 A3013 RMK AO2 SLP150 T01330133","observationTime":"2026-03-26T08:00:00.000Z","flightCategory":"VFR","latitude":31.8467,"longitude":-86.6141},"FQCH":{"rawOb":"METAR FQCH 260800Z /////KT 9999 BKN015 FEW020CB 25/21 Q1021 RMK CB TO NE/NW","observationTime":"2026-03-26T08:00:00.000Z","flightCategory":"MVFR","latitude":-19.148,"longitude":33.428},"CWWA":{"rawOb":"METAR CWWA 260800Z AUTO 34001KT 04/M00 RMK AO1 SLP261 T00371001 53027","observationTime":"2026-03-26T08:00:00.000Z","flightCategory":"null","latitude":49.347,"longitude":-123.193},"RJAW":{"rawOb":"METAR RJAW 260800Z 24013KT 9999 FEW010 SCT045 24/21 Q1008 RMK 2CU010 3SC045 A2977","observationTime":"2026-03-26T08:00:00.000Z","flightCategory":"VFR","latitude":24.784,"longitude":141.322},"CWXL":{"rawOb":"METAR CWXL 260800Z AUTO 03003KT M09/M11 RMK AO1 SLP248 T10851112 50012","observationTime":"2026-03-26T08:00:00.000Z","flightCategory":"null","latitude":49.734,"longitude":-111.45},"CWYJ":{"rawOb":"METAR CWYJ 260800Z AUTO 26004KT 04/M00 RMK AO1 SLP274 T00381001 53025","observationTime":"2026-03-26T08:00:00.000Z","flightCategory":"null","latitude":48.457,"longitude":-123.305},"CWVT":{"rawOb":"METAR CWVT 260800Z AUTO 34005KT M22/M29 RMK AO1 SOG 55 3021 SLP355 T12181288","observationTime":"2026-03-26T08:00:00.000Z","flightCategory":"null","latitude":55.841,"longitude":-108.421},"CYZX":{"rawOb":"METAR CYZX 260800Z 15004KT 15SM OVC075 00/M03 A3020 RMK AC8 DENSITY ALT -1939FT SLP228","observationTime":"2026-03-26T08:00:00.000Z","flightCategory":"VFR","latitude":44.985,"longitude":-64.912},"CWYY":{"rawOb":"METAR CWYY 260800Z AUTO 04001KT 03/M08 RMK AO1 SLP225 T00331075 51036","observationTime":"2026-03-26T08:00:00.000Z","flightCategory":"null","latitude":49.028,"longitude":-119.441},"CWJU":{"rawOb":"METAR CWJU 260800Z AUTO 13006KT 01/M00 RMK AO1 1PAST HR 2012 SLP154 P0000 T00091001 50004","observationTime":"2026-03-26T08:00:00.000Z","flightCategory":"null","latitude":54.255,"longitude":-133.058},"CWJR":{"rawOb":"METAR CWJR 260800Z AUTO 28014G26KT 04/M02 RMK AO1 PK WND 29026/0753 SLP177 T00421020 53020","observationTime":"2026-03-26T08:00:00.000Z","flightCategory":"null","latitude":49.04,"longitude":-116.483},"CWIP":{"rawOb":"METAR CWIP 260800Z AUTO 05006KT M15/M24 RMK AO1 T11461244","observationTime":"2026-03-26T08:00:00.000Z","flightCategory":"null","latitude":50.162,"longitude":-66.434},"CXSE":{"rawOb":"METAR CXSE 260800Z AUTO 28004KT M31/M34 RMK AO1 SLP211 T13071338 58004","observationTime":"2026-03-26T08:00:00.000Z","flightCategory":"null","latitude":73.766,"longitude":-105.296},"DNIB":{"rawOb":"METAR DNIB 260800Z 14005KT 9999 FEW010 27/23 Q1012","observationTime":"2026-03-26T08:00:00.000Z","flightCategory":"VFR","latitude":7.36,"longitude":3.976},"DGLE":{"rawOb":"METAR DGLE 260800Z 23003KT CAVOK 30/24 Q1009 NOSIG","observationTime":"2026-03-26T08:00:00.000Z","flightCategory":"VFR","latitude":9.554,"longitude":-0.862},"SBAX":{"rawOb":"METAR SBAX 260800Z AUTO 12005KT CAVOK ///// Q1019","observationTime":"2026-03-26T08:00:00.000Z","flightCategory":"VFR","latitude":-19.563,"longitude":-46.96},"SBDN":{"rawOb":"METAR SBDN 260800Z 04004KT CAVOK 22/19 Q1014","observationTime":"2026-03-26T08:00:00.000Z","flightCategory":"VFR","latitude":-22.175,"longitude":-51.427},"CXIB":{"rawOb":"METAR CXIB 260800Z AUTO 21001KT M09/M11 RMK AO1 SOG 01 1012 SLP266 T10901113","observationTime":"2026-03-26T08:00:00.000Z","flightCategory":"null","latitude":46.663,"longitude":-60.406},"SBME":{"rawOb":"METAR SBME 260800Z 35002KT CAVOK 23/21 Q1015","observationTime":"2026-03-26T08:00:00.000Z","flightCategory":"VFR","latitude":-22.343,"longitude":-41.766},"SBMK":{"rawOb":"METAR SBMK 260800Z 07006KT CAVOK 21/18 Q1017","observationTime":"2026-03-26T08:00:00.000Z","flightCategory":"VFR","latitude":-16.705,"longitude":-43.819},"SBSC":{"rawOb":"METAR SBSC 260800Z 05004KT CAVOK 23/22 Q1014","observationTime":"2026-03-26T08:00:00.000Z","flightCategory":"VFR","latitude":-22.932,"longitude":-43.719},"SBSR":{"rawOb":"METAR SBSR 260800Z 03004KT 9999 FEW035 SCT070 21/19 Q1016","observationTime":"2026-03-26T08:00:00.000Z","flightCategory":"VFR","latitude":-20.817,"longitude":-49.407},"SBUL":{"rawOb":"METAR SBUL 260800Z 10007KT 9999 FEW003 BKN100 19/18 Q1018","observationTime":"2026-03-26T08:00:00.000Z","flightCategory":"VFR","latitude":-18.883,"longitude":-48.226},"SBUR":{"rawOb":"METAR SBUR 260800Z 01006KT CAVOK 20/17 Q1017","observationTime":"2026-03-26T08:00:00.000Z","flightCategory":"VFR","latitude":-19.765,"longitude":-47.965},"SBIZ":{"rawOb":"METAR SBIZ 260800Z 00000KT 9999 FEW010 SCT080 23/23 Q1010","observationTime":"2026-03-26T08:00:00.000Z","flightCategory":"VFR","latitude":-5.53,"longitude":-47.458},"CXMD":{"rawOb":"METAR CXMD 260800Z AUTO 34013G19KT M09/M12 RMK AO1 PK WND 33022/0730 SLP192 T10851115 53021","observationTime":"2026-03-26T08:00:00.000Z","flightCategory":"null","latitude":49.188,"longitude":-98.084},"CXMI":{"rawOb":"METAR CXMI 260800Z AUTO 16007KT 01/M00 RMK AO1 SLP247 T00121002 57015","observationTime":"2026-03-26T08:00:00.000Z","flightCategory":"null","latitude":44.602,"longitude":-63.534},"DGSI":{"rawOb":"METAR DGSI 260800Z 23005KT 9999 FEW014 27/22 Q1012 NOSIG","observationTime":"2026-03-26T08:00:00.000Z","flightCategory":"VFR","latitude":6.715,"longitude":-1.591},"RJFR":{"rawOb":"METAR RJFR 260800Z 29013KT 9999 FEW030 BKN/// 15/09 Q1012","observationTime":"2026-03-26T08:00:00.000Z","flightCategory":"VFR","latitude":33.846,"longitude":131.035},"CXMM":{"rawOb":"METAR CXMM 260800Z AUTO 26003KT M25/M30 RMK AO1 SOG 46 1018 SLP358 T12541302","observationTime":"2026-03-26T08:00:00.000Z","flightCategory":"null","latitude":56.649,"longitude":-111.221},"CYPD":{"rawOb":"METAR CYPD 260800Z AUTO 08002KT 9SM BKN140 M07/M09 A3028 RMK SLP262","observationTime":"2026-03-26T08:00:00.000Z","flightCategory":"VFR","latitude":45.657,"longitude":-61.374},"MROC":{"rawOb":"METAR MROC 260800Z 10010KT 070V130 9999 FEW040 21/15 A2995 NOSIG","observationTime":"2026-03-26T08:00:00.000Z","flightCategory":"VFR","latitude":9.991,"longitude":-84.218},"SBKP":{"rawOb":"METAR SBKP 260800Z 11005KT CAVOK 21/19 Q1018","observationTime":"2026-03-26T08:00:00.000Z","flightCategory":"VFR","latitude":-23.007,"longitude":-47.135},"CYPE":{"rawOb":"METAR CYPE 260800Z AUTO 35006KT 9SM SCT029 M21/M24 A3039 RMK SLP353","observationTime":"2026-03-26T08:00:00.000Z","flightCategory":"VFR","latitude":56.228,"longitude":-117.453},"CYQB":{"rawOb":"METAR CYQB 260800Z 06010KT 1 1/4SM -SN BKN006 OVC017 M06/M07 A2990 RMK SN5SF1SC3 SF TR SLP134","observationTime":"2026-03-26T08:00:00.000Z","flightCategory":"IFR","latitude":46.791,"longitude":-71.396},"CYQG":{"rawOb":"METAR CYQG 260800Z AUTO 22008KT 9SM BKN170 07/03 A2981 RMK SLP098","observationTime":"2026-03-26T08:00:00.000Z","flightCategory":"VFR","latitude":42.269,"longitude":-82.963},"CYQM":{"rawOb":"METAR CYQM 260800Z 10008KT 15SM FEW062 OVC075 M03/M11 A3018 RMK SC1AC8 SC TR SLP227","observationTime":"2026-03-26T08:00:00.000Z","flightCategory":"VFR","latitude":46.107,"longitude":-64.682},"CYEK":{"rawOb":"METAR CYEK 260800Z AUTO 31009KT 9SM CLR M32/M36 A3008 RMK SLP190","observationTime":"2026-03-26T08:00:00.000Z","flightCategory":"VFR","latitude":61.098,"longitude":-94.072},"CYIO":{"rawOb":"METAR CYIO 260800Z AUTO 16005KT 9SM SCT071 BKN085 OVC180 M25/M30 A2986 RMK ICE MISG SLP125","observationTime":"2026-03-26T08:00:00.000Z","flightCategory":"VFR","latitude":72.694,"longitude":-77.957},"CYLT":{"rawOb":"METAR CYLT 260800Z 16004KT 15SM -SN BKN021 M27/M30 A3010 RMK SC5 DENSITY ALT -5643FT FROIN SLP199","observationTime":"2026-03-26T08:00:00.000Z","flightCategory":"MVFR","latitude":82.512,"longitude":-62.317},"SBBR":{"rawOb":"METAR SBBR 260800Z 08005KT 050V110 9999 BKN008 19/18 Q1019","observationTime":"2026-03-26T08:00:00.000Z","flightCategory":"IFR","latitude":-15.867,"longitude":-47.933},"SBPA":{"rawOb":"METAR SBPA 260800Z 23005KT 200V260 9999 FEW004 OVC006 22/20 Q1014","observationTime":"2026-03-26T08:00:00.000Z","flightCategory":"IFR","latitude":-29.994,"longitude":-51.171},"CYQV":{"rawOb":"METAR CYQV 260800Z AUTO 01010KT 9SM OVC039 M15/M18 A3020 RMK SLP276","observationTime":"2026-03-26T08:00:00.000Z","flightCategory":"VFR","latitude":51.26,"longitude":-102.461},"CYSF":{"rawOb":"METAR CYSF 260800Z AUTO 28005KT 9SM CLR M27/M30 A3034 RMK SLP310","observationTime":"2026-03-26T08:00:00.000Z","flightCategory":"VFR","latitude":59.252,"longitude":-105.837},"CYSM":{"rawOb":"METAR CYSM 260800Z 27004KT 15SM SKC M24/M29 A3048 RMK SLP353","observationTime":"2026-03-26T08:00:00.000Z","flightCategory":"VFR","latitude":60.026,"longitude":-111.929},"CYVM":{"rawOb":"METAR CYVM 260800Z AUTO VRB02KT 9SM SCT030 M27/M30 A2979 RMK SLP091","observationTime":"2026-03-26T08:00:00.000Z","flightCategory":"VFR","latitude":67.552,"longitude":-64.026},"CYWE":{"rawOb":"METAR CYWE 260800Z AUTO 29008KT 9SM -SN SCT027 M23/M26 A3033 RMK SLP325","observationTime":"2026-03-26T08:00:00.000Z","flightCategory":"VFR","latitude":64.192,"longitude":-114.078},"CYAT":{"rawOb":"METAR CYAT 260800Z AUTO 27003KT 9SM CLR M33/M37 A3008 RMK ICE SLP190","observationTime":"2026-03-26T08:00:00.000Z","flightCategory":"VFR","latitude":52.927,"longitude":-82.432},"CYCK":{"rawOb":"METAR CYCK 260800Z AUTO 24014KT 9SM CLR 10/04 A2979 RMK SLP093","observationTime":"2026-03-26T08:00:00.000Z","flightCategory":"VFR","latitude":42.307,"longitude":-82.085},"CYER":{"rawOb":"METAR CYER 260800Z AUTO 27006KT 9SM SCT240 M31/M33 A3015 RMK SLP214","observationTime":"2026-03-26T08:00:00.000Z","flightCategory":"VFR","latitude":56.019,"longitude":-87.675},"CYKP":{"rawOb":"METAR CYKP 260800Z AUTO 05004KT 9SM SCT130 SCT150 M20/M24 A3003 RMK SLP195","observationTime":"2026-03-26T08:00:00.000Z","flightCategory":"VFR","latitude":51.659,"longitude":-85.901},"CYLH":{"rawOb":"METAR CYLH 260800Z AUTO 00000KT 9SM OVC130 M23/M25 A3001 RMK SLP193","observationTime":"2026-03-26T08:00:00.000Z","flightCategory":"VFR","latitude":52.196,"longitude":-87.936},"CYOO":{"rawOb":"METAR CYOO 260800Z AUTO 35003KT 9SM BKN220 OVC240 00/M02 A2975 RMK SLP082","observationTime":"2026-03-26T08:00:00.000Z","flightCategory":"VFR","latitude":43.921,"longitude":-78.899},"CYQK":{"rawOb":"METAR CYQK 260800Z 05007KT 8SM -SN SCT007 OVC037 M06/M07 A2988 RMK SF3SC5 SLP143","observationTime":"2026-03-26T08:00:00.000Z","flightCategory":"VFR","latitude":49.791,"longitude":-94.361},"CZMD":{"rawOb":"METAR CZMD 260800Z AUTO 02006KT 9SM FEW150 BKN210 BKN230 M20/M27 A3008 RMK SLP217","observationTime":"2026-03-26T08:00:00.000Z","flightCategory":"VFR","latitude":53.439,"longitude":-91.766},"CZSJ":{"rawOb":"METAR CZSJ 260800Z AUTO 34005KT 9SM FEW150 SCT210 M17/M25 A3008 RMK SLP216","observationTime":"2026-03-26T08:00:00.000Z","flightCategory":"VFR","latitude":53.063,"longitude":-93.344},"CZBF":{"rawOb":"METAR CZBF 260800Z AUTO 20003KT 9SM SCT066 OVC084 M10/M18 A3019 RMK SLP228","observationTime":"2026-03-26T08:00:00.000Z","flightCategory":"VFR","latitude":47.628,"longitude":-65.746},"CYBQ":{"rawOb":"METAR CYBQ 260800Z AUTO 30006KT 9SM CLR M28/M31 A3015 RMK ICE INTMT SLP251","observationTime":"2026-03-26T08:00:00.000Z","flightCategory":"VFR","latitude":58.707,"longitude":-98.511},"CYEN":{"rawOb":"METAR CYEN 260800Z AUTO 36015KT 9SM -SN OVC016 M10/M13 A3013 RMK SLP236","observationTime":"2026-03-26T08:00:00.000Z","flightCategory":"MVFR","latitude":49.207,"longitude":-102.963},"CYKJ":{"rawOb":"METAR CYKJ 260800Z AUTO 27004KT 9SM CLR M26/M30 A3026 RMK SLP309","observationTime":"2026-03-26T08:00:00.000Z","flightCategory":"VFR","latitude":57.256,"longitude":-105.618},"CYMM":{"rawOb":"METAR CYMM 260800Z AUTO 26004KT 9SM CLR M24/M29 A3045 RMK SLP357","observationTime":"2026-03-26T08:00:00.000Z","flightCategory":"VFR","latitude":56.65,"longitude":-111.221},"DGAA":{"rawOb":"METAR DGAA 260800Z 27004KT 240V320 9999 SCT011 28/25 Q1011 NOSIG","observationTime":"2026-03-26T08:00:00.000Z","flightCategory":"VFR","latitude":5.6,"longitude":-0.17},"DNIL":{"rawOb":"METAR DNIL 260800Z 18005KT 9999 SCT010 25/22 Q1012","observationTime":"2026-03-26T08:00:00.000Z","flightCategory":"VFR","latitude":8.438,"longitude":4.491},"DNJO":{"rawOb":"METAR DNJO 260800Z 26012KT CAVOK 24/20 Q1018","observationTime":"2026-03-26T08:00:00.000Z","flightCategory":"VFR","latitude":9.64,"longitude":8.87},"DNKT":{"rawOb":"METAR DNKT 260800Z 12005KT CAVOK 31/19 Q1013","observationTime":"2026-03-26T08:00:00.000Z","flightCategory":"VFR","latitude":13.006,"longitude":7.659},"CYVC":{"rawOb":"METAR CYVC 260800Z 33003KT 15SM SKC M27/M31 A3033 RMK SLP317","observationTime":"2026-03-26T08:00:00.000Z","flightCategory":"VFR","latitude":55.15,"longitude":-105.264},"CYYL":{"rawOb":"METAR CYYL 260800Z AUTO 30008KT 9SM CLR M25/M29 A3022 RMK SLP279","observationTime":"2026-03-26T08:00:00.000Z","flightCategory":"VFR","latitude":56.863,"longitude":-101.073},"DNMN":{"rawOb":"METAR DNMN 260800Z 19005KT CAVOK 29/21 Q1011","observationTime":"2026-03-26T08:00:00.000Z","flightCategory":"VFR","latitude":9.652,"longitude":6.462},"DNIM":{"rawOb":"METAR DNIM 260800Z 21008KT 9999 BKN010 27/25 Q1012","observationTime":"2026-03-26T08:00:00.000Z","flightCategory":"MVFR","latitude":5.427,"longitude":7.206},"CZVL":{"rawOb":"METAR CZVL 260800Z AUTO 01008KT 9SM -SN OVC032 M13/M15 A3026 RMK SLP302","observationTime":"2026-03-26T08:00:00.000Z","flightCategory":"VFR","latitude":53.67,"longitude":-113.863},"DNAA":{"rawOb":"METAR DNAA 260800Z 29005KT 9999 FEW010 28/23 Q1012 NOSIG","observationTime":"2026-03-26T08:00:00.000Z","flightCategory":"VFR","latitude":9.007,"longitude":7.263},"DAOY":{"rawOb":"METAR DAOY 260800Z VRB02KT 9999 SCT023 SCT100 11/06 Q1014","observationTime":"2026-03-26T08:00:00.000Z","flightCategory":"VFR","latitude":33.721,"longitude":1.091},"DNKN":{"rawOb":"METAR DNKN 260800Z 19009KT CAVOK 31/09 Q1014 NOSIG","observationTime":"2026-03-26T08:00:00.000Z","flightCategory":"VFR","latitude":12.048,"longitude":8.525},"DATM":{"rawOb":"METAR DATM 260800Z 05013KT 9999 FEW046 SCT100 25/08 Q1009","observationTime":"2026-03-26T08:00:00.000Z","flightCategory":"VFR","latitude":21.375,"longitude":0.924},"DAUE":{"rawOb":"METAR DAUE 260800Z VRB02KT 9999 FEW040 BKN100 18/03 Q1014","observationTime":"2026-03-26T08:00:00.000Z","flightCategory":"VFR","latitude":30.571,"longitude":2.86},"DNEN":{"rawOb":"METAR DNEN 260800Z 21013KT 9999 SCT011 28/23 Q1011 NOSIG","observationTime":"2026-03-26T08:00:00.000Z","flightCategory":"VFR","latitude":6.474,"longitude":7.562},"CYTS":{"rawOb":"METAR CYTS 260800Z 35007KT 10SM OVC007 M12/M14 A2982 RMK SC8 SLP124","observationTime":"2026-03-26T08:00:00.000Z","flightCategory":"IFR","latitude":48.568,"longitude":-81.378},"DNGO":{"rawOb":"METAR DNGO 260800Z 24009KT CAVOK 32/23 Q1010","observationTime":"2026-03-26T08:00:00.000Z","flightCategory":"VFR","latitude":10.303,"longitude":10.905},"GMTN":{"rawOb":"METAR GMTN 260800Z 09008KT 9999 FEW012 SCT024 15/14 Q1012 NOSIG","observationTime":"2026-03-26T08:00:00.000Z","flightCategory":"VFR","latitude":35.594,"longitude":-5.32},"CYVQ":{"rawOb":"METAR CYVQ 260800Z 06002KT 30SM -SN FEW220 M29/M33 A3064 RMK CI2 SLP388","observationTime":"2026-03-26T08:00:00.000Z","flightCategory":"VFR","latitude":65.278,"longitude":-126.796},"CYVT":{"rawOb":"METAR CYVT 260800Z AUTO 35006KT 9SM BKN096 M20/M28 A3037 RMK SLP332","observationTime":"2026-03-26T08:00:00.000Z","flightCategory":"VFR","latitude":55.842,"longitude":-108.418},"NGTA":{"rawOb":"METAR NGTA 260800Z VRB02KT 9999 FEW020 28/24 Q1008","observationTime":"2026-03-26T08:00:00.000Z","flightCategory":"VFR","latitude":1.381,"longitude":173.147},"CYWL":{"rawOb":"METAR CYWL 260800Z 28003KT 15SM OVC012 M11/M12 A3011 RMK SC8 SLP258","observationTime":"2026-03-26T08:00:00.000Z","flightCategory":"MVFR","latitude":52.186,"longitude":-122.066},"CYXC":{"rawOb":"METAR CYXC 260800Z 29005KT 190V340 15SM FEW017 FEW044 SCT070 SCT160 02/M01 A2994 RMK SC1SC2AC1AC1 SC TR SLP160","observationTime":"2026-03-26T08:00:00.000Z","flightCategory":"VFR","latitude":49.614,"longitude":-115.784},"CYXE":{"rawOb":"METAR CYXE 260800Z 36003KT 15SM SKC M17/M19 A3026 RMK SLP300","observationTime":"2026-03-26T08:00:00.000Z","flightCategory":"VFR","latitude":52.172,"longitude":-106.695},"DNSO":{"rawOb":"METAR DNSO 260800Z 18006KT CAVOK 32/17 Q1011","observationTime":"2026-03-26T08:00:00.000Z","flightCategory":"VFR","latitude":12.917,"longitude":5.202},"CYXJ":{"rawOb":"METAR CYXJ 260800Z 35011KT 7SM -SN SCT047 BKN100 BKN240 M20/M23 A3036 RMK SC3AC2CI2 SLP353","observationTime":"2026-03-26T08:00:00.000Z","flightCategory":"VFR","latitude":56.247,"longitude":-120.737},"CYXL":{"rawOb":"METAR CYXL 260800Z 06007KT 350V110 3/4SM -SN VV014 M09/M11 A2990 RMK SN8 /S02/ SLP153","observationTime":"2026-03-26T08:00:00.000Z","flightCategory":"LIFR","latitude":50.114,"longitude":-91.905},"CYXS":{"rawOb":"METAR CYXS 260800Z AUTO 36006KT 9SM CLR M16/M19 A3018 RMK SLP279","observationTime":"2026-03-26T08:00:00.000Z","flightCategory":"VFR","latitude":53.884,"longitude":-122.677},"CWEU":{"rawOb":"METAR CWEU 260800Z 07002KT 15SM IC FEW110 FEW230 M35/M39 A3007 RMK AC1CI1 AC TR CI TR SLP201","observationTime":"2026-03-26T08:00:00.000Z","flightCategory":"VFR","latitude":79.989,"longitude":-85.934},"CWLY":{"rawOb":"METAR CWLY 260800Z AUTO 20013G23KT 9SM CLR 04/M02 A3017 RMK SLP227","observationTime":"2026-03-26T08:00:00.000Z","flightCategory":"VFR","latitude":50.224,"longitude":-121.582},"SUMO":{"rawOb":"METAR SUMO 260800Z AUTO VRB02KT //// ////// 12/11 Q1016","observationTime":"2026-03-26T08:00:00.000Z","flightCategory":"null","latitude":-32.34,"longitude":-54.224},"OEAB":{"rawOb":"METAR OEAB 260800Z 22017G30KT 9999 BKN015 FEW025CB 17/14 Q1018 NOSIG","observationTime":"2026-03-26T08:00:00.000Z","flightCategory":"MVFR","latitude":18.24,"longitude":42.657},"OEDR":{"rawOb":"METAR OEDR 260800Z 13022G34KT 5000 BLDU FEW040 OVC100 26/25 Q1000","observationTime":"2026-03-26T08:00:00.000Z","flightCategory":"MVFR","latitude":26.265,"longitude":50.152},"CWZZ":{"rawOb":"METAR CWZZ 260800Z AUTO 28016KT ////SM ////// M27/M30 A2966 RMK VIS MISG CLD MISG T12711298 SLP137","observationTime":"2026-03-26T08:00:00.000Z","flightCategory":"null","latitude":58.479,"longitude":-62.66},"SULS":{"rawOb":"METAR SULS 260800Z 03005KT 9999 MIFG NSC 14/12 Q1017","observationTime":"2026-03-26T08:00:00.000Z","flightCategory":"VFR","latitude":-34.855,"longitude":-55.094},"MYNN":{"rawOb":"METAR MYNN 260800Z 07007KT 9999 FEW022 SCT200 22/19 A3007","observationTime":"2026-03-26T08:00:00.000Z","flightCategory":"VFR","latitude":25.04,"longitude":-77.467},"CYAH":{"rawOb":"METAR CYAH 260800Z AUTO VRB02KT 9SM CLR M36/M40 A2995 RMK SLP189","observationTime":"2026-03-26T08:00:00.000Z","flightCategory":"VFR","latitude":53.757,"longitude":-73.676},"DNYO":{"rawOb":"METAR DNYO 260800Z 29017KT CAVOK 35/22 Q1011","observationTime":"2026-03-26T08:00:00.000Z","flightCategory":"VFR","latitude":9.267,"longitude":12.429},"SKSP":{"rawOb":"METAR SKSP 260800Z AUTO 04005KT CAVOK 27/23 Q1010","observationTime":"2026-03-26T08:00:00.000Z","flightCategory":"VFR","latitude":12.587,"longitude":-81.704},"SKLT":{"rawOb":"METAR SKLT 260800Z AUTO 02002KT CAVOK 24/23 Q1007","observationTime":"2026-03-26T08:00:00.000Z","flightCategory":"VFR","latitude":-4.196,"longitude":-69.943},"DNZA":{"rawOb":"METAR DNZA 260800Z 25009KT CAVOK 28/10 Q1014","observationTime":"2026-03-26T08:00:00.000Z","flightCategory":"VFR","latitude":11.13,"longitude":7.686},"CYBK":{"rawOb":"METAR CYBK 260800Z 31020KT 15SM IC DRSN SKC M36/M40 A3009 RMK SLP197","observationTime":"2026-03-26T08:00:00.000Z","flightCategory":"VFR","latitude":64.306,"longitude":-96.078},"SKCL":{"rawOb":"METAR SKCL 260800Z VRB02KT 9999 SCT050 21/19 Q1013","observationTime":"2026-03-26T08:00:00.000Z","flightCategory":"VFR","latitude":3.543,"longitude":-76.382},"CYBU":{"rawOb":"METAR CYBU 260800Z AUTO 27005KT 9SM SCT081 BKN095 BKN120 BKN150 M20/M22 A3031 RMK SLP306","observationTime":"2026-03-26T08:00:00.000Z","flightCategory":"VFR","latitude":53.333,"longitude":-104.005},"SBRP":{"rawOb":"METAR SBRP 260800Z 10003KT CAVOK 20/19 Q1016","observationTime":"2026-03-26T08:00:00.000Z","flightCategory":"VFR","latitude":-21.134,"longitude":-47.774},"CYBX":{"rawOb":"METAR CYBX 260800Z 22015G22KT 15SM OVC028 M04/M08 A2993 RMK SC8 SLP141","observationTime":"2026-03-26T08:00:00.000Z","flightCategory":"MVFR","latitude":51.442,"longitude":-57.188},"CYCB":{"rawOb":"METAR CYCB 260800Z 30004KT 15SM IC FEW120 FEW220 M29/M32 A3016 RMK AC1CI1 SLP220","observationTime":"2026-03-26T08:00:00.000Z","flightCategory":"VFR","latitude":69.106,"longitude":-105.116},"CYCO":{"rawOb":"METAR CYCO 260800Z 31016KT 8SM -SN DRSN OVC020 M17/M20 A3039 RMK SC8 SLP296","observationTime":"2026-03-26T08:00:00.000Z","flightCategory":"MVFR","latitude":67.817,"longitude":-115.135},"HKNW":{"rawOb":"METAR HKNW 260800Z 07010KT 9999 BKN024 22/14 Q1024","observationTime":"2026-03-26T08:00:00.000Z","flightCategory":"MVFR","latitude":-1.322,"longitude":36.815},"CYDN":{"rawOb":"METAR CYDN 260800Z AUTO 33007KT 9SM BKN043 OVC055 M14/M18 A3022 RMK SLP266","observationTime":"2026-03-26T08:00:00.000Z","flightCategory":"VFR","latitude":51.1,"longitude":-100.057},"SKCG":{"rawOb":"METAR SKCG 260800Z 02007KT 340V070 CAVOK 27/24 Q1008","observationTime":"2026-03-26T08:00:00.000Z","flightCategory":"VFR","latitude":10.447,"longitude":-75.516},"SKCC":{"rawOb":"METAR SKCC 260800Z AUTO 12003KT 090V150 9999 R21/P2000N BKN018/// BKN021 24/21 Q1012","observationTime":"2026-03-26T08:00:00.000Z","flightCategory":"MVFR","latitude":7.93,"longitude":-72.509},"SKBQ":{"rawOb":"METAR SKBQ 260800Z 03009KT CAVOK 27/24 Q1007","observationTime":"2026-03-26T08:00:00.000Z","flightCategory":"VFR","latitude":10.883,"longitude":-74.78},"CYEV":{"rawOb":"METAR CYEV 260800Z 17010G16KT 15SM FEW200 BKN250 M18/M23 A3054 RMK CS2CI5 SLP354","observationTime":"2026-03-26T08:00:00.000Z","flightCategory":"VFR","latitude":68.309,"longitude":-133.5},"SKBO":{"rawOb":"METAR SKBO 260800Z 06004KT 9000 FEW020 SCT035 BKN045 13/13 Q1025 NOSIG","observationTime":"2026-03-26T08:00:00.000Z","flightCategory":"VFR","latitude":4.706,"longitude":-74.151},"CYFS":{"rawOb":"METAR CYFS 260800Z VRB02KT 15SM SKC M28/M32 A3059 RMK SLP384","observationTime":"2026-03-26T08:00:00.000Z","flightCategory":"VFR","latitude":61.76,"longitude":-121.23},"CYGP":{"rawOb":"METAR CYGP 260800Z 26004KT 240V320 15SM FEW070 SCT100 M12/M19 A3018 RMK AC2AC2 SLP225","observationTime":"2026-03-26T08:00:00.000Z","flightCategory":"VFR","latitude":48.777,"longitude":-64.478},"CYGV":{"rawOb":"METAR CYGV 260800Z AUTO 10003KT 350V140 9SM FEW150 SCT170 SCT190 M18/M23 A3018 RMK SLP227","observationTime":"2026-03-26T08:00:00.000Z","flightCategory":"VFR","latitude":50.286,"longitude":-63.606},"CYGX":{"rawOb":"METAR CYGX 260800Z 23005KT 15SM SKC M29/M33 A3020 RMK SLP248","observationTime":"2026-03-26T08:00:00.000Z","flightCategory":"VFR","latitude":56.359,"longitude":-94.704},"CYHK":{"rawOb":"METAR CYHK 260800Z AUTO 33016KT 6SM HZ CLR M33/M37 A3009 RMK SLP201","observationTime":"2026-03-26T08:00:00.000Z","flightCategory":"VFR","latitude":68.633,"longitude":-95.851},"CYHY":{"rawOb":"METAR CYHY 260800Z 00000KT 15SM SKC M26/M29 A3055 RMK SLP373","observationTime":"2026-03-26T08:00:00.000Z","flightCategory":"VFR","latitude":60.839,"longitude":-115.781},"CWAR":{"rawOb":"METAR CWAR 260800Z AUTO 26019KT M01/M04 RMK AO1 SOG 13 3017 PK WND 28029/0726 SLP238 T10101038","observationTime":"2026-03-26T08:00:00.000Z","flightCategory":"null","latitude":47.294,"longitude":-53.993},"CYKA":{"rawOb":"METAR CYKA 260800Z 26008KT 30SM FEW070 02/M05 A3016 RMK AC2 SLP226","observationTime":"2026-03-26T08:00:00.000Z","flightCategory":"VFR","latitude":50.704,"longitude":-120.444},"CYLW":{"rawOb":"METAR CYLW 260800Z AUTO 08004KT 360V110 9SM FEW066 02/M06 A3015 RMK SLP223","observationTime":"2026-03-26T08:00:00.000Z","flightCategory":"VFR","latitude":49.953,"longitude":-119.375},"CXNP":{"rawOb":"METAR CXNP 260800Z AUTO 19003KT M03/M08 RMK AO1 SLP228 T10321079 58019","observationTime":"2026-03-26T08:00:00.000Z","flightCategory":"null","latitude":45.76,"longitude":-64.241},"VAAU":{"rawOb":"METAR VAAU 260800Z 26002KT 4000 HZ NSC 37/12 Q1013 NOSIG","observationTime":"2026-03-26T08:00:00.000Z","flightCategory":"IFR","latitude":19.863,"longitude":75.398},"CXBK":{"rawOb":"METAR CXBK 260800Z AUTO 01008KT M13/M15 RMK AO1 SLP266 T11331154 51021","observationTime":"2026-03-26T08:00:00.000Z","flightCategory":"null","latitude":50.201,"longitude":-104.71},"CWCT":{"rawOb":"METAR CWCT 260800Z AUTO 07002KT M13/M16 RMK AO1 SOG 01 1008 SLP283 T11331156","observationTime":"2026-03-26T08:00:00.000Z","flightCategory":"null","latitude":52.074,"longitude":-111.448},"CWNH":{"rawOb":"METAR CWNH 260800Z AUTO 09001KT M07/M11 RMK AO1 1PAST HR SOG 08 8041 SLP152 P0000 T10651107 50001","observationTime":"2026-03-26T08:00:00.000Z","flightCategory":"null","latitude":47.806,"longitude":-69.548},"CWBK":{"rawOb":"METAR CWBK 260800Z AUTO 14004KT M02/M08 RMK AO1 SLP257 T10211081 57009","observationTime":"2026-03-26T08:00:00.000Z","flightCategory":"null","latitude":45.764,"longitude":-62.681},"CWLB":{"rawOb":"METAR CWLB 260800Z AUTO 02004KT M14/M16 RMK AO1 SOG 09 3016 SLP314 T11391155","observationTime":"2026-03-26T08:00:00.000Z","flightCategory":"null","latitude":54.769,"longitude":-112.024},"CERM":{"rawOb":"METAR CERM 260800Z AUTO 11001KT M07/M15 RMK AO1 SOG 28 8037 SLP173 T10651151","observationTime":"2026-03-26T08:00:00.000Z","flightCategory":"null","latitude":47.417,"longitude":-68.325},"CWEP":{"rawOb":"METAR CWEP 260800Z AUTO 17002KT M06/M08 RMK AO1 SOG 23 5000 SLP259 T10551075","observationTime":"2026-03-26T08:00:00.000Z","flightCategory":"null","latitude":46.46,"longitude":-61.988},"CWEK":{"rawOb":"METAR CWEK 260800Z AUTO 06029G34KT 01/01 RMK AO1 2PAST HR 1019 PK WND 06034/0754 SLP186 P0001 T00090005 50006","observationTime":"2026-03-26T08:00:00.000Z","flightCategory":"null","latitude":54.58,"longitude":-130.698},"CWBY":{"rawOb":"METAR CWBY 260800Z AUTO 04003KT M15/M21 RMK AO1 SOG 52 6003 SLP224 T11491210","observationTime":"2026-03-26T08:00:00.000Z","flightCategory":"null","latitude":49.839,"longitude":-64.293},"CWZG":{"rawOb":"METAR CWZG 260800Z AUTO 08006KT M10/M12 RMK AO1 7PAST HR SOG 12 3016 SLP192 P0003 T11041120 50014","observationTime":"2026-03-26T08:00:00.000Z","flightCategory":"null","latitude":51.194,"longitude":-115.552},"CWPK":{"rawOb":"METAR CWPK 260800Z AUTO 10002KT M07/M09 RMK AO1 4PAST HR SOG 53 6033 SLP089 P0002 T10731088 50009","observationTime":"2026-03-26T08:00:00.000Z","flightCategory":"null","latitude":47.922,"longitude":-74.624},"CWWE":{"rawOb":"METAR CWWE 260800Z AUTO 17010KT 02/M00 RMK AO1 SLP245 T00161004 58020","observationTime":"2026-03-26T08:00:00.000Z","flightCategory":"null","latitude":43.989,"longitude":-64.662},"CWRO":{"rawOb":"METAR CWRO 260800Z AUTO 19006KT 01/M01 RMK AO1 SLP169 T00061006 51015","observationTime":"2026-03-26T08:00:00.000Z","flightCategory":"null","latitude":54.161,"longitude":-131.66},"CWDM":{"rawOb":"METAR CWDM 260800Z AUTO 29013KT M13/M18 RMK AO1 SOG 39 3043 SLP185 T11251178","observationTime":"2026-03-26T08:00:00.000Z","flightCategory":"null","latitude":50.465,"longitude":-59.64},"CWDO":{"rawOb":"METAR CWDO 260800Z AUTO 25025G34KT M05/M09 RMK AO1 SOG 49 3020 PK WND 26034/0744 SLP170 T10471093","observationTime":"2026-03-26T08:00:00.000Z","flightCategory":"null","latitude":49.688,"longitude":-54.8},"CWHO":{"rawOb":"METAR CWHO 260800Z AUTO 00028KT M22/M28 RMK AO1 SLP184 T12181275 52014","observationTime":"2026-03-26T08:00:00.000Z","flightCategory":"null","latitude":55.448,"longitude":-60.23},"CWRN":{"rawOb":"METAR CWRN 260800Z AUTO 18002KT M02/M09 RMK AO1 SLP263 T10151093 58001","observationTime":"2026-03-26T08:00:00.000Z","flightCategory":"null","latitude":45.347,"longitude":-60.98},"CWSS":{"rawOb":"METAR CWSS 260800Z AUTO 10002KT M00/M01 RMK AO1 3PAST HR 8036 SLP189 P0001 T10031008 50003","observationTime":"2026-03-26T08:00:00.000Z","flightCategory":"null","latitude":45.21,"longitude":-67.253},"CWBV":{"rawOb":"METAR CWBV 260800Z AUTO 22008KT 01/01 RMK AO1 SLP245 T00080008 56007","observationTime":"2026-03-26T08:00:00.000Z","flightCategory":"null","latitude":44.825,"longitude":-62.338},"CWGR":{"rawOb":"METAR CWGR 260800Z AUTO 24006KT M06/M12 RMK AO1 SLP247 T10631122 53005","observationTime":"2026-03-26T08:00:00.000Z","flightCategory":"null","latitude":47.425,"longitude":-61.775},"CWGT":{"rawOb":"METAR CWGT 260800Z AUTO 24021G26KT 06/M00 RMK AO1 PK WND 24026/0757 SLP261 T00561003 52039","observationTime":"2026-03-26T08:00:00.000Z","flightCategory":"null","latitude":49.487,"longitude":-124.435},"CWGW":{"rawOb":"METAR CWGW 260800Z AUTO 13008KT M00/M04 RMK AO1 SOG 01 5003 SLP151 T10021044","observationTime":"2026-03-26T08:00:00.000Z","flightCategory":"null","latitude":49.745,"longitude":-114.884},"OBBI":{"rawOb":"METAR OBBI 260800Z 11021KT 9999 SCT017 25/22 Q1003 NOSIG","observationTime":"2026-03-26T08:00:00.000Z","flightCategory":"VFR","latitude":26.271,"longitude":50.634},"UBBQ":{"rawOb":"METAR UBBQ 260800Z 33004KT 9000 OVC013 14/11 Q1004 NOSIG RMK MT OBSC","observationTime":"2026-03-26T08:00:00.000Z","flightCategory":"MVFR","latitude":40.809,"longitude":47.729},"CYMX":{"rawOb":"METAR CYMX 260800Z 06005KT 010V100 5SM -SN OVC007 M06/M08 A2984 RMK SC8 PRESFR SLP113","observationTime":"2026-03-26T08:00:00.000Z","flightCategory":"IFR","latitude":45.68,"longitude":-74.038},"PWAK":{"rawOb":"SPECI PWAK 260800Z AUTO 35005KT 9SM SCT020 27/22 A2983 RMK AO2 SLP104","observationTime":"2026-03-26T08:00:00.000Z","flightCategory":"VFR","latitude":19.287,"longitude":166.623},"ETAR":{"rawOb":"SPECI ETAR 260800Z 32009KT 9999 FEW020 SCT027 BKN035 05/M00 A2994 RMK AO2A SLP148 $","observationTime":"2026-03-26T08:00:00.000Z","flightCategory":"VFR","latitude":49.437,"longitude":7.6},"GMMI":{"rawOb":"METAR GMMI 260800Z COR 04003KT 360V070 8000 SCT026 15/14 Q1011 NOSIG","observationTime":"2026-03-26T08:00:00.000Z","flightCategory":"MVFR","latitude":31.406,"longitude":-9.687},"SPUR":{"rawOb":"METAR SPUR 260800Z 17002KT CAVOK 24/19 Q1010 RMK PP000","observationTime":"2026-03-26T08:00:00.000Z","flightCategory":"VFR","latitude":-5.206,"longitude":-80.616},"SPSO":{"rawOb":"METAR SPSO 260800Z 07002KT CAVOK 20/17 Q1009 RMK BIRD HAZARD RWY 22/04 PP000","observationTime":"2026-03-26T08:00:00.000Z","flightCategory":"VFR","latitude":-13.744,"longitude":-76.221},"SPHI":{"rawOb":"METAR SPHI 260800Z 18010KT CAVOK 23/21 Q1010 RMK BIRD HAZARD RWY 19/01 PP000","observationTime":"2026-03-26T08:00:00.000Z","flightCategory":"VFR","latitude":-6.787,"longitude":-79.828},"CTNK":{"rawOb":"METAR CTNK 260800Z AUTO 10001KT M02/M03 RMK AO1 SOG 34 6016 SLP070 T10181028","observationTime":"2026-03-26T08:00:00.000Z","flightCategory":"null","latitude":45.533,"longitude":-78.266},"CWGY":{"rawOb":"METAR CWGY 260800Z AUTO 00000KT M17/M18 RMK AO1 SOG 01 1013 SLP285 T11701183","observationTime":"2026-03-26T08:00:00.000Z","flightCategory":"null","latitude":51.67,"longitude":-110.206},"CWHL":{"rawOb":"METAR CWHL 260800Z AUTO 02/M01 RMK AO1 2PAST HR 1020 SLP187 P0001 T00161007 50002","observationTime":"2026-03-26T08:00:00.000Z","flightCategory":"null","latitude":54.172,"longitude":-130.361},"CWHQ":{"rawOb":"METAR CWHQ 260800Z AUTO 09004KT M06/M07 RMK AO1 9PAST HR M P0004 T10591071 50017","observationTime":"2026-03-26T08:00:00.000Z","flightCategory":"null","latitude":46.691,"longitude":-71.972},"CWHT":{"rawOb":"METAR CWHT 260800Z AUTO 03002KT M15/M19 RMK AO1 SOG 26 1013 SLP288 T11511191","observationTime":"2026-03-26T08:00:00.000Z","flightCategory":"null","latitude":60.773,"longitude":-137.581},"RJFE":{"rawOb":"METAR RJFE 260800Z 01012KT 9999 FEW030 BKN/// 15/10 Q1012","observationTime":"2026-03-26T08:00:00.000Z","flightCategory":"VFR","latitude":32.666,"longitude":128.833},"RJEC":{"rawOb":"METAR RJEC 260800Z 31008KT 9999 FEW050 SCT/// 09/M02 Q1014","observationTime":"2026-03-26T08:00:00.000Z","flightCategory":"VFR","latitude":43.671,"longitude":142.447},"RJDT":{"rawOb":"METAR RJDT 260800Z 16007KT 110V190 CAVOK 15/09 Q1013","observationTime":"2026-03-26T08:00:00.000Z","flightCategory":"VFR","latitude":34.288,"longitude":129.325},"FQXA":{"rawOb":"METAR FQXA 260800Z 01005KT 320V060 9999 SCT020 ///// Q1017","observationTime":"2026-03-26T08:00:00.000Z","flightCategory":"VFR","latitude":-25.038,"longitude":33.627},"RJDB":{"rawOb":"METAR RJDB 260800Z AUTO 02004KT 350V050 9999 NCD 15/07 Q1013","observationTime":"2026-03-26T08:00:00.000Z","flightCategory":"VFR","latitude":33.749,"longitude":129.785},"GQPP":{"rawOb":"METAR GQPP 260800Z 01005KT 7000 SCT013 19/16 Q1013 NOSIG","observationTime":"2026-03-26T08:00:00.000Z","flightCategory":"MVFR","latitude":20.929,"longitude":-17.031},"CWHV":{"rawOb":"METAR CWHV 260800Z AUTO 16005KT M04/M05 RMK AO1 5PAST HR 6045 SLP128 P0002 T10411052 50007","observationTime":"2026-03-26T08:00:00.000Z","flightCategory":"null","latitude":46.205,"longitude":-70.785},"CWID":{"rawOb":"METAR CWID 260800Z AUTO 00000KT M29/M32 RMK AO1 SOG 56 3006 SLP373 T12871323","observationTime":"2026-03-26T08:00:00.000Z","flightCategory":"null","latitude":61.317,"longitude":-117.605},"CWIG":{"rawOb":"METAR CWIG 260800Z AUTO 02011G16KT RMK AO1","observationTime":"2026-03-26T08:00:00.000Z","flightCategory":"null","latitude":47.074,"longitude":-70.533},"RJCW":{"rawOb":"METAR RJCW 260800Z 11008KT CAVOK 07/M05 Q1015","observationTime":"2026-03-26T08:00:00.000Z","flightCategory":"VFR","latitude":45.404,"longitude":141.802},"RJCO":{"rawOb":"METAR RJCO 260800Z 15012KT 9999 FEW030 BKN200 09/M08 Q1015","observationTime":"2026-03-26T08:00:00.000Z","flightCategory":"VFR","latitude":43.117,"longitude":141.381},"RJCN":{"rawOb":"METAR RJCN 260800Z 04004KT CAVOK 04/M02 Q1017","observationTime":"2026-03-26T08:00:00.000Z","flightCategory":"VFR","latitude":43.578,"longitude":144.96},"RJCM":{"rawOb":"METAR RJCM 260800Z 03004KT 010V070 CAVOK 06/M04 Q1016","observationTime":"2026-03-26T08:00:00.000Z","flightCategory":"VFR","latitude":43.881,"longitude":144.164},"RJCK":{"rawOb":"METAR RJCK 260800Z 21008KT CAVOK 04/M03 Q1017","observationTime":"2026-03-26T08:00:00.000Z","flightCategory":"VFR","latitude":43.041,"longitude":144.193},"RJCH":{"rawOb":"METAR RJCH 260800Z 08011KT 9999 FEW006 BKN012 BKN015 06/03 Q1015","observationTime":"2026-03-26T08:00:00.000Z","flightCategory":"MVFR","latitude":41.77,"longitude":140.822},"SPCL":{"rawOb":"METAR SPCL 260800Z 18003KT 9999 BKN012 BKN080 24/23 Q1008 RMK PP000","observationTime":"2026-03-26T08:00:00.000Z","flightCategory":"MVFR","latitude":-8.378,"longitude":-74.574},"CWII":{"rawOb":"METAR CWII 260800Z AUTO 36009G15KT M10/M12 RMK AO1 SLP200 T11031123 53025","observationTime":"2026-03-26T08:00:00.000Z","flightCategory":"null","latitude":50.695,"longitude":-96.562},"CWIJ":{"rawOb":"METAR CWIJ 260800Z AUTO 28013KT M22/M24 RMK AO1 PK WND 29021/0714 SLP274 T12211244 53006","observationTime":"2026-03-26T08:00:00.000Z","flightCategory":"null","latitude":65.756,"longitude":-111.246},"RJBT":{"rawOb":"METAR RJBT 260800Z 01006KT 9999 FEW025 SCT035 11/06 Q1013","observationTime":"2026-03-26T08:00:00.000Z","flightCategory":"VFR","latitude":35.513,"longitude":134.787},"RJBE":{"rawOb":"METAR RJBE 260800Z 35008KT 9999 FEW030 16/06 Q1011","observationTime":"2026-03-26T08:00:00.000Z","flightCategory":"VFR","latitude":34.633,"longitude":135.224},"RJBD":{"rawOb":"METAR RJBD 260800Z 35010KT 9999 FEW020 SCT050 16/09 Q1009","observationTime":"2026-03-26T08:00:00.000Z","flightCategory":"VFR","latitude":33.662,"longitude":135.364},"CWIS":{"rawOb":"METAR CWIS 260800Z AUTO 36003KT M10/M12 RMK AO1 0PAST HR SOG 102 8039 SLP124 P0004 T11041118 50018","observationTime":"2026-03-26T08:00:00.000Z","flightCategory":"null","latitude":47.284,"longitude":-70.637},"RJAH":{"rawOb":"METAR RJAH 260800Z 03010KT 8000 -RA SCT006 BKN008 BKN015 11/11 Q1010","observationTime":"2026-03-26T08:00:00.000Z","flightCategory":"IFR","latitude":36.182,"longitude":140.415},"CWIT":{"rawOb":"METAR CWIT 260800Z AUTO 12005KT M02/M04 RMK AO1 SOG 02 6047 SLP103 T10151043","observationTime":"2026-03-26T08:00:00.000Z","flightCategory":"null","latitude":45.167,"longitude":-73.678},"RJAF":{"rawOb":"METAR RJAF 260800Z 33010KT 9999 -SHRA FEW015 SCT020 BKN040 10/07 Q1009","observationTime":"2026-03-26T08:00:00.000Z","flightCategory":"VFR","latitude":36.167,"longitude":137.923},"RORT":{"rawOb":"METAR RORT 260800Z AUTO VRB04KT 9999 FEW034 22/14 Q1011","observationTime":"2026-03-26T08:00:00.000Z","flightCategory":"VFR","latitude":24.653,"longitude":124.674},"ROYN":{"rawOb":"METAR ROYN 260800Z AUTO 07007KT 9999 BKN032 22/16 Q1011","observationTime":"2026-03-26T08:00:00.000Z","flightCategory":"VFR","latitude":24.467,"longitude":122.978},"RORY":{"rawOb":"METAR RORY 260800Z AUTO 35011KT 9999 FEW042 21/11 Q1012","observationTime":"2026-03-26T08:00:00.000Z","flightCategory":"VFR","latitude":27.044,"longitude":128.4},"RORS":{"rawOb":"METAR RORS 260800Z 01007KT 9999 FEW035 23/14 Q1011","observationTime":"2026-03-26T08:00:00.000Z","flightCategory":"VFR","latitude":24.827,"longitude":125.145},"RORK":{"rawOb":"METAR RORK 260800Z AUTO 32012KT 9999 SCT033 21/13 Q1010","observationTime":"2026-03-26T08:00:00.000Z","flightCategory":"VFR","latitude":25.944,"longitude":131.326},"ROMY":{"rawOb":"METAR ROMY 260800Z 04007KT 010V070 9999 FEW030 SCT070 22/15 Q1012","observationTime":"2026-03-26T08:00:00.000Z","flightCategory":"VFR","latitude":24.782,"longitude":125.295},"ROMD":{"rawOb":"METAR ROMD 260800Z AUTO 33011KT 290V360 9999 FEW032 SCT033 21/12 Q1010","observationTime":"2026-03-26T08:00:00.000Z","flightCategory":"VFR","latitude":25.847,"longitude":131.264},"OEYN":{"rawOb":"METAR OEYN 260800Z 29022KT 9999 SCT040 23/08 Q1005 NOSIG","observationTime":"2026-03-26T08:00:00.000Z","flightCategory":"VFR","latitude":24.144,"longitude":38.063},"OEWJ":{"rawOb":"METAR OEWJ 260800Z 28023KT 9999 BKN030 20/07 Q1007 NOSIG","observationTime":"2026-03-26T08:00:00.000Z","flightCategory":"MVFR","latitude":26.199,"longitude":36.476},"OEWD":{"rawOb":"METAR OEWD 260800Z 32016KT CAVOK 36/06 Q1004 NOSIG","observationTime":"2026-03-26T08:00:00.000Z","flightCategory":"VFR","latitude":20.504,"longitude":45.197},"ROIG":{"rawOb":"METAR ROIG 260800Z 07008KT 9999 FEW030 23/15 Q1011","observationTime":"2026-03-26T08:00:00.000Z","flightCategory":"VFR","latitude":24.395,"longitude":124.245},"OETR":{"rawOb":"METAR OETR 260800Z 26016KT 9999 BKN030 11/05 Q1000 NOSIG","observationTime":"2026-03-26T08:00:00.000Z","flightCategory":"MVFR","latitude":31.693,"longitude":38.731},"OETF":{"rawOb":"METAR OETF 260800Z 31018KT 9999 FEW025CB BKN030 15/13 Q1011 NOSIG","observationTime":"2026-03-26T08:00:00.000Z","flightCategory":"MVFR","latitude":21.483,"longitude":40.544},"OESK":{"rawOb":"METAR OESK 260800Z 23023KT 9999 SCT040 13/07 Q1004 NOSIG","observationTime":"2026-03-26T08:00:00.000Z","flightCategory":"VFR","latitude":29.785,"longitude":40.1},"OESH":{"rawOb":"METAR OESH 260800Z 21020KT 1000 BLSA FEW035 34/12 Q1008 NOSIG","observationTime":"2026-03-26T08:00:00.000Z","flightCategory":"LIFR","latitude":17.467,"longitude":47.121},"OERS":{"rawOb":"METAR OERS 260800Z 29026KT 2000 BLDU BKN040 21/07 Q1007 NOSIG","observationTime":"2026-03-26T08:00:00.000Z","flightCategory":"IFR","latitude":-99.99,"longitude":-99.99},"VGEG":{"rawOb":"METAR VGEG 260800Z 27010KT 5000 HZ SCT018 31/20 Q1010 BECMG Q1009","observationTime":"2026-03-26T08:00:00.000Z","flightCategory":"MVFR","latitude":22.249,"longitude":91.814},"CWIW":{"rawOb":"METAR CWIW 260800Z AUTO 01007KT M19/M21 RMK AO1 SOG 02 1017 SLP295 T11861206","observationTime":"2026-03-26T08:00:00.000Z","flightCategory":"null","latitude":51.667,"longitude":-105.4},"CWIZ":{"rawOb":"METAR CWIZ 260800Z AUTO 11001KT M02/M04 RMK AO1 SOG 02 T10161035","observationTime":"2026-03-26T08:00:00.000Z","flightCategory":"null","latitude":45.294,"longitude":-73.35},"CWJB":{"rawOb":"METAR CWJB 260800Z AUTO 05006KT M06/M07 RMK AO1 6PAST HR SOG 25 M P0002 T10571066 50020","observationTime":"2026-03-26T08:00:00.000Z","flightCategory":"null","latitude":46.781,"longitude":-71.288},"CWJC":{"rawOb":"METAR CWJC 260800Z AUTO M31/M34 RMK AO1 SLP245 T13101340 56003","observationTime":"2026-03-26T08:00:00.000Z","flightCategory":"null","latitude":61.132,"longitude":-100.884},"CWJH":{"rawOb":"METAR CWJH 260800Z AUTO 28003KT M23/M28 RMK AO1 SOG 71 1015 SLP299 T12301281","observationTime":"2026-03-26T08:00:00.000Z","flightCategory":"null","latitude":56.333,"longitude":-103.283},"CXKI":{"rawOb":"METAR CXKI 260800Z AUTO 35005KT M08/M10 RMK AO1 SOG 83 1005 SLP090 T10781095","observationTime":"2026-03-26T08:00:00.000Z","flightCategory":"null","latitude":48.15,"longitude":-80},"CWKK":{"rawOb":"METAR CWKK 260800Z AUTO 04010KT M12/M14 RMK AO1 SOG 40 8007 SLP146 T11201140","observationTime":"2026-03-26T08:00:00.000Z","flightCategory":"null","latitude":49.713,"longitude":-88.332},"CXLB":{"rawOb":"METAR CXLB 260800Z AUTO 19008KT 02/M00 RMK AO1 SLP237 T00191001 58022","observationTime":"2026-03-26T08:00:00.000Z","flightCategory":"null","latitude":44.36,"longitude":-64.296},"CXPC":{"rawOb":"METAR CXPC 260800Z AUTO M00/M02 RMK AO1 SOG 05 4000 SLP074 T10031015","observationTime":"2026-03-26T08:00:00.000Z","flightCategory":"null","latitude":45.344,"longitude":-80.044},"CXRB":{"rawOb":"METAR CXRB 260800Z AUTO 30006KT M35/M38 RMK AO1 SOG 02 6010 SLP195 T13481382","observationTime":"2026-03-26T08:00:00.000Z","flightCategory":"null","latitude":74.716,"longitude":-94.983},"CXTD":{"rawOb":"METAR CXTD 260800Z AUTO 18005KT M03/M12 RMK AO1 SLP262 T10341118 58003","observationTime":"2026-03-26T08:00:00.000Z","flightCategory":"null","latitude":45.608,"longitude":-61.68},"CXTO":{"rawOb":"METAR CXTO 260800Z AUTO 03/M00 RMK AO1 SLP081 T00321004 56021","observationTime":"2026-03-26T08:00:00.000Z","flightCategory":"null","latitude":43.667,"longitude":-79.4},"CXVN":{"rawOb":"METAR CXVN 260800Z AUTO 28009G16KT 10/01 RMK AO1 PK WND 21021/0720 SLP080 T00990013 56025","observationTime":"2026-03-26T08:00:00.000Z","flightCategory":"null","latitude":43.183,"longitude":-79.4},"SBMQ":{"rawOb":"METAR SBMQ 260800Z 28002KT 9999 FEW009 26/25 Q1010","observationTime":"2026-03-26T08:00:00.000Z","flightCategory":"VFR","latitude":0.051,"longitude":-51.072},"CXZV":{"rawOb":"METAR CXZV 260800Z AUTO 06001KT M17/M26 RMK AO1 SOG 98 6009 SLP216 T11701260","observationTime":"2026-03-26T08:00:00.000Z","flightCategory":"null","latitude":50.217,"longitude":-66.26},"SBNT":{"rawOb":"METAR SBNT 260800Z 20003KT 9999 FEW020 24/22 Q1010","observationTime":"2026-03-26T08:00:00.000Z","flightCategory":"VFR","latitude":-5.911,"longitude":-35.248},"ZHEC":{"rawOb":"METAR ZHEC 260800Z 21002MPS 8000 OVC040 16/13 Q1012 NOSIG","observationTime":"2026-03-26T08:00:00.000Z","flightCategory":"MVFR","latitude":30.3424,"longitude":115.0389},"ZYHB":{"rawOb":"METAR ZYHB 260800Z 28005MPS CAVOK 12/M12 Q1010 NOSIG","observationTime":"2026-03-26T08:00:00.000Z","flightCategory":"VFR","latitude":45.628,"longitude":126.259},"SBCF":{"rawOb":"METAR SBCF 260800Z 12005KT 9999 FEW030 SCT100 20/18 Q1019","observationTime":"2026-03-26T08:00:00.000Z","flightCategory":"VFR","latitude":-19.635,"longitude":-43.966},"ZYCC":{"rawOb":"METAR ZYCC 260800Z 32002MPS 270V360 9999 BKN030 12/M11 Q1012 NOSIG","observationTime":"2026-03-26T08:00:00.000Z","flightCategory":"MVFR","latitude":43.993,"longitude":125.682},"ZUCK":{"rawOb":"METAR ZUCK 260800Z 24003MPS 180V280 9999 SCT033 23/12 Q1010 NOSIG","observationTime":"2026-03-26T08:00:00.000Z","flightCategory":"VFR","latitude":29.718,"longitude":106.639},"ZSOF":{"rawOb":"METAR ZSOF 260800Z 07004MPS 8000 NSC 20/06 Q1012 NOSIG","observationTime":"2026-03-26T08:00:00.000Z","flightCategory":"MVFR","latitude":31.99,"longitude":116.965},"ZSNJ":{"rawOb":"METAR ZSNJ 260800Z 09006MPS 8000 NSC 18/08 Q1012 NOSIG","observationTime":"2026-03-26T08:00:00.000Z","flightCategory":"MVFR","latitude":31.739,"longitude":118.863},"ZLLL":{"rawOb":"METAR ZLLL 260800Z VRB02MPS 9999 SCT023 13/M02 Q1015 NOSIG","observationTime":"2026-03-26T08:00:00.000Z","flightCategory":"VFR","latitude":36.513,"longitude":103.623},"ZJSY":{"rawOb":"METAR ZJSY 260800Z 18003MPS 120V270 CAVOK 28/23 Q1009 NOSIG","observationTime":"2026-03-26T08:00:00.000Z","flightCategory":"VFR","latitude":18.303,"longitude":109.412},"SURV":{"rawOb":"METAR SURV 260800Z 30003KT 1500 BR NSC 14/14 Q1016","observationTime":"2026-03-26T08:00:00.000Z","flightCategory":"LIFR","latitude":-30.97,"longitude":-55.474},"SBRF":{"rawOb":"METAR SBRF 260800Z 22006KT 180V260 5000 -RA BR FEW010 BKN016 FEW023TCU 23/23 Q1011 RETS","observationTime":"2026-03-26T08:00:00.000Z","flightCategory":"MVFR","latitude":-8.126,"longitude":-34.923},"ZJHK":{"rawOb":"METAR ZJHK 260800Z VRB02MPS CAVOK 32/22 Q1007 NOSIG","observationTime":"2026-03-26T08:00:00.000Z","flightCategory":"VFR","latitude":19.934,"longitude":110.445},"ZHHH":{"rawOb":"METAR ZHHH 260800Z VRB01MPS 6000 NSC 19/14 Q1011 NOSIG","observationTime":"2026-03-26T08:00:00.000Z","flightCategory":"MVFR","latitude":30.783,"longitude":114.205},"ZHCC":{"rawOb":"METAR ZHCC 260800Z 18001MPS 7000 NSC 20/09 Q1013 NOSIG","observationTime":"2026-03-26T08:00:00.000Z","flightCategory":"MVFR","latitude":34.52,"longitude":113.834},"ZGHA":{"rawOb":"METAR ZGHA 260800Z 33002MPS 300V360 7000 -DZ BKN006 15/15 Q1012 NOSIG","observationTime":"2026-03-26T08:00:00.000Z","flightCategory":"IFR","latitude":28.18,"longitude":113.219},"ZBHH":{"rawOb":"METAR ZBHH 260800Z 33006MPS CAVOK 18/M07 Q1015 NOSIG","observationTime":"2026-03-26T08:00:00.000Z","flightCategory":"VFR","latitude":40.854,"longitude":111.827},"ZWSH":{"rawOb":"METAR ZWSH 260800Z 11004MPS 050V160 CAVOK 19/M10 Q1021 NOSIG","observationTime":"2026-03-26T08:00:00.000Z","flightCategory":"VFR","latitude":39.542,"longitude":76.019},"ZBSJ":{"rawOb":"METAR ZBSJ 260800Z 15003MPS 4000 HZ NSC 23/11 Q1010 NOSIG","observationTime":"2026-03-26T08:00:00.000Z","flightCategory":"IFR","latitude":38.281,"longitude":114.697},"ZUUU":{"rawOb":"METAR ZUUU 260800Z VRB02MPS 9999 SCT033 24/08 Q1010 NOSIG","observationTime":"2026-03-26T08:00:00.000Z","flightCategory":"VFR","latitude":30.576,"longitude":103.95},"ZUTF":{"rawOb":"METAR ZUTF 260800Z VRB02MPS 9999 SCT040 25/08 Q1009 NOSIG","observationTime":"2026-03-26T08:00:00.000Z","flightCategory":"VFR","latitude":30.304,"longitude":104.436},"ZUGY":{"rawOb":"METAR ZUGY 260800Z 03004MPS 9999 BKN026 19/12 Q1013 NOSIG","observationTime":"2026-03-26T08:00:00.000Z","flightCategory":"MVFR","latitude":26.538,"longitude":106.801},"ZSQD":{"rawOb":"METAR ZSQD 260800Z 16007MPS 8000 NSC 21/06 Q1012 NOSIG","observationTime":"2026-03-26T08:00:00.000Z","flightCategory":"MVFR","latitude":36.362,"longitude":120.087},"ZSNB":{"rawOb":"METAR ZSNB 260800Z 18004MPS CAVOK 15/09 Q1014 NOSIG","observationTime":"2026-03-26T08:00:00.000Z","flightCategory":"VFR","latitude":29.827,"longitude":121.462},"ZSFZ":{"rawOb":"METAR ZSFZ 260800Z 36002MPS 320V030 9999 FEW010 BKN030 15/12 Q1014 NOSIG","observationTime":"2026-03-26T08:00:00.000Z","flightCategory":"MVFR","latitude":25.936,"longitude":119.666},"ZSAM":{"rawOb":"METAR ZSAM 260800Z 11005MPS 080V140 9999 BKN050 21/14 Q1012 NOSIG","observationTime":"2026-03-26T08:00:00.000Z","flightCategory":"VFR","latitude":24.546,"longitude":118.131},"CZKD":{"rawOb":"METAR CZKD 260800Z AUTO 23001KT M31/M34 RMK AO1 SOG 50 1003 SLP258 T13131342","observationTime":"2026-03-26T08:00:00.000Z","flightCategory":"null","latitude":56.037,"longitude":-96.51},"CZMJ":{"rawOb":"METAR CZMJ 260800Z AUTO 34007KT M14/M16 RMK AO1 SOG 01 1019 SLP281 T11381162","observationTime":"2026-03-26T08:00:00.000Z","flightCategory":"null","latitude":50.332,"longitude":-105.538},"CZTB":{"rawOb":"METAR CZTB 260800Z AUTO 09008KT M06/M08 RMK AO1 4PAST HR SOG 30 0000 SLP109 P0002 T10641081 50010","observationTime":"2026-03-26T08:00:00.000Z","flightCategory":"null","latitude":48.369,"longitude":-89.327},"CZZJ":{"rawOb":"METAR CZZJ 260800Z AUTO 02003KT M15/M17 RMK AO1 1PAST HR SOG 20 3020 SLP307 P0000 T11491174 50002","observationTime":"2026-03-26T08:00:00.000Z","flightCategory":"null","latitude":53.583,"longitude":-116.462},"CXZC":{"rawOb":"METAR CXZC 260800Z AUTO 35003KT M24/M26 RMK AO1 SOG 62 8005 SLP172 T12351262","observationTime":"2026-03-26T08:00:00.000Z","flightCategory":"null","latitude":51.292,"longitude":-80.618},"CZEL":{"rawOb":"METAR CZEL 260800Z AUTO 00000KT M00/M02 RMK AO1 SLP082 T10041015 56019","observationTime":"2026-03-26T08:00:00.000Z","flightCategory":"null","latitude":43.642,"longitude":-80.412},"CXKT":{"rawOb":"METAR CXKT 260800Z AUTO 27003KT 01/M04 RMK AO1 SLP235 T00051037 58020","observationTime":"2026-03-26T08:00:00.000Z","flightCategory":"null","latitude":45.067,"longitude":-64.478},"RPVD":{"rawOb":"METAR RPVD 260800Z 29006KT 9999 FEW014CB BKN070 27/25 Q1008 RMK A2977 CB W-NW","observationTime":"2026-03-26T08:00:00.000Z","flightCategory":"VFR","latitude":9.334,"longitude":123.297},"FASI":{"rawOb":"METAR FASI 260800Z AUTO 03002KT //// // ////// 24/17 Q1026","observationTime":"2026-03-26T08:00:00.000Z","flightCategory":"null","latitude":-26.248,"longitude":28.398},"WBGB":{"rawOb":"METAR WBGB 260800Z 33008KT 230V030 9999 FEW014 31/29 Q1007","observationTime":"2026-03-26T08:00:00.000Z","flightCategory":"VFR","latitude":3.12,"longitude":113.025},"WBGS":{"rawOb":"METAR WBGS 260800Z 03004KT 340V070 9999 FEW016 33/22 Q1006","observationTime":"2026-03-26T08:00:00.000Z","flightCategory":"VFR","latitude":2.264,"longitude":111.983},"WBKL":{"rawOb":"METAR WBKL 260800Z 01007KT 330V070 9999 FEW015 FEW017CB 30/24 Q1007","observationTime":"2026-03-26T08:00:00.000Z","flightCategory":"VFR","latitude":5.301,"longitude":115.25},"WBKS":{"rawOb":"METAR WBKS 260800Z 04008KT 9999 FEW016 29/24 Q1008","observationTime":"2026-03-26T08:00:00.000Z","flightCategory":"VFR","latitude":5.901,"longitude":118.059},"WBKT":{"rawOb":"METAR WBKT 260800Z 06006KT 330V120 9999 FEW015 30/25 Q1007","observationTime":"2026-03-26T08:00:00.000Z","flightCategory":"VFR","latitude":6.922,"longitude":116.837},"WBKW":{"rawOb":"METAR WBKW 260800Z 15006KT 070V230 9999 FEW016 31/24 Q1007","observationTime":"2026-03-26T08:00:00.000Z","flightCategory":"VFR","latitude":4.316,"longitude":118.119},"CXBI":{"rawOb":"METAR CXBI 260800Z AUTO 21002KT 03/M02 RMK AO1 SLP074 T00331021 58014","observationTime":"2026-03-26T08:00:00.000Z","flightCategory":"null","latitude":44.484,"longitude":-79.546},"WMAU":{"rawOb":"METAR WMAU 260800Z VRB09KT 9999 SCT020 31/23 Q1007","observationTime":"2026-03-26T08:00:00.000Z","flightCategory":"VFR","latitude":2.387,"longitude":103.876},"WMBA":{"rawOb":"METAR WMBA 260800Z 26008KT 210V340 9999 FEW021 34/25 Q1006","observationTime":"2026-03-26T08:00:00.000Z","flightCategory":"VFR","latitude":4.221,"longitude":100.701},"FVRG":{"rawOb":"METAR FVRG 260800Z VRB03KT 9999 BKN030 23/17 Q1025 NOSIG","observationTime":"2026-03-26T08:00:00.000Z","flightCategory":"MVFR","latitude":-17.921,"longitude":31.1},"WMKA":{"rawOb":"METAR WMKA 260800Z VRB04KT 9999 FEW020 36/21 Q1005","observationTime":"2026-03-26T08:00:00.000Z","flightCategory":"VFR","latitude":6.19,"longitude":100.398},"WMKB":{"rawOb":"METAR WMKB 260800Z 29009KT 240V340 6000 FEW020 33/21 Q1005 NOSIG","observationTime":"2026-03-26T08:00:00.000Z","flightCategory":"MVFR","latitude":5.466,"longitude":100.391},"WMKC":{"rawOb":"METAR WMKC 260800Z 09011KT 050V120 9999 FEW018 31/22 Q1007","observationTime":"2026-03-26T08:00:00.000Z","flightCategory":"VFR","latitude":6.167,"longitude":102.293},"WMKD":{"rawOb":"METAR WMKD 260800Z 05008KT 350V120 9999 FEW020 31/21 Q1007 NOSIG","observationTime":"2026-03-26T08:00:00.000Z","flightCategory":"VFR","latitude":3.775,"longitude":103.209},"WMKE":{"rawOb":"METAR WMKE 260800Z VRB06KT 9999 FEW018 32/22 Q1007","observationTime":"2026-03-26T08:00:00.000Z","flightCategory":"VFR","latitude":4.537,"longitude":103.427},"WMKI":{"rawOb":"METAR WMKI 260800Z VRB04KT 9999 FEW021 35/24 Q1005","observationTime":"2026-03-26T08:00:00.000Z","flightCategory":"VFR","latitude":4.568,"longitude":101.092},"WMKL":{"rawOb":"METAR WMKL 260800Z 24008KT 150V300 9999 FEW020 32/23 Q1006","observationTime":"2026-03-26T08:00:00.000Z","flightCategory":"VFR","latitude":6.33,"longitude":99.729},"LKKU":{"rawOb":"METAR LKKU 260800Z 36016KT 9999 -RA SCT017 BKN027 OVC043 05/03 Q1002","observationTime":"2026-03-26T08:00:00.000Z","flightCategory":"MVFR","latitude":49.042,"longitude":17.442},"LKPD":{"rawOb":"METAR LKPD 260800Z 30006KT 9999 SCT030 OVC080 05/01 Q1006 NOSIG","observationTime":"2026-03-26T08:00:00.000Z","flightCategory":"VFR","latitude":50.016,"longitude":15.74},"LKNA":{"rawOb":"METAR LKNA 260800Z 34015KT 9999 -RA BKN010 OVC017 03/01 Q1003 NOSIG","observationTime":"2026-03-26T08:00:00.000Z","flightCategory":"MVFR","latitude":49.166,"longitude":16.125},"LKLN":{"rawOb":"METAR LKLN 260800Z AUTO 33004KT 290V040 9999 FEW029 SCT042 BKN140 05/M00 Q1008","observationTime":"2026-03-26T08:00:00.000Z","flightCategory":"VFR","latitude":49.675,"longitude":13.275},"LKKB":{"rawOb":"METAR LKKB 260800Z 33007KT 300V360 9999 FEW017 OVC032 05/01 Q1007 NOSIG","observationTime":"2026-03-26T08:00:00.000Z","flightCategory":"VFR","latitude":50.123,"longitude":14.538},"LKCV":{"rawOb":"METAR LKCV 260800Z 32013KT 9999 FEW018 OVC080 05/02 Q1006","observationTime":"2026-03-26T08:00:00.000Z","flightCategory":"VFR","latitude":49.94,"longitude":15.382},"WMKM":{"rawOb":"METAR WMKM 260800Z VRB04KT 9999 SCT021 33/21 Q1006","observationTime":"2026-03-26T08:00:00.000Z","flightCategory":"VFR","latitude":2.263,"longitude":102.252},"FGSL":{"rawOb":"METAR FGSL 260800Z 27003KT 240V320 9999 TS SCT008 FEW018CB 28/24 Q1012 NOSIG","observationTime":"2026-03-26T08:00:00.000Z","flightCategory":"VFR","latitude":3.756,"longitude":8.71},"WMKN":{"rawOb":"METAR WMKN 260800Z VRB06KT 9999 FEW020 31/22 Q1008","observationTime":"2026-03-26T08:00:00.000Z","flightCategory":"VFR","latitude":5.383,"longitude":103.103},"WMKJ":{"rawOb":"METAR WMKJ 260800Z VRB07KT 9999 SCT018 33/23 Q1006","observationTime":"2026-03-26T08:00:00.000Z","flightCategory":"VFR","latitude":1.641,"longitude":103.67},"WMSA":{"rawOb":"METAR WMSA 260800Z 23009KT 190V260 9999 FEW018 34/25 Q1006","observationTime":"2026-03-26T08:00:00.000Z","flightCategory":"VFR","latitude":3.13,"longitude":101.552},"RJFK":{"rawOb":"METAR RJFK 260800Z 19007KT 170V240 9999 FEW040 BKN/// 19/10 Q1010","observationTime":"2026-03-26T08:00:00.000Z","flightCategory":"VFR","latitude":31.803,"longitude":130.719},"FYWB":{"rawOb":"METAR FYWB 260800Z 02006KT CAVOK 22/16 Q1013","observationTime":"2026-03-26T08:00:00.000Z","flightCategory":"VFR","latitude":-22.98,"longitude":14.645},"FYWH":{"rawOb":"METAR FYWH 260800Z 00000KT 9999 SCT010 BKN080 19/17 Q1025 RERA","observationTime":"2026-03-26T08:00:00.000Z","flightCategory":"VFR","latitude":-22.481,"longitude":17.47},"FYOG":{"rawOb":"METAR FYOG 260800Z AUTO 14006KT 9999 SCT003/// BKN220/// 16/16 Q1012","observationTime":"2026-03-26T08:00:00.000Z","flightCategory":"VFR","latitude":-28.585,"longitude":16.447},"FYOA":{"rawOb":"METAR FYOA 260800Z 16003KT 9999 FEW020 24/21 Q1017","observationTime":"2026-03-26T08:00:00.000Z","flightCategory":"VFR","latitude":-17.878,"longitude":15.953},"FQMA":{"rawOb":"METAR FQMA 260800Z 35009KT 9999 SCT020 31/25 Q1014 NOSIG","observationTime":"2026-03-26T08:00:00.000Z","flightCategory":"VFR","latitude":-25.921,"longitude":32.573},"FABL":{"rawOb":"METAR FABL 260800Z VRB01KT CAVOK 21/17 Q1024 NOSIG","observationTime":"2026-03-26T08:00:00.000Z","flightCategory":"VFR","latitude":-29.093,"longitude":26.302},"WBGR":{"rawOb":"METAR WBGR 260800Z COR 34009KT 290V020 9999 SCT016 30/25 Q1006","observationTime":"2026-03-26T08:00:00.000Z","flightCategory":"VFR","latitude":4.322,"longitude":113.987},"SAZG":{"rawOb":"METAR SAZG 260800Z 09006KT CAVOK 13/12 Q1014","observationTime":"2026-03-26T08:00:00.000Z","flightCategory":"VFR","latitude":-35.696,"longitude":-63.758},"GOOY":{"rawOb":"METAR GOOY 260800Z 34008KT 280V360 9999 FEW013 19/17 Q1012","observationTime":"2026-03-26T08:00:00.000Z","flightCategory":"VFR","latitude":14.741,"longitude":-17.49},"GOOK":{"rawOb":"METAR GOOK 260800Z 36012KT CAVOK 19/17 Q1012","observationTime":"2026-03-26T08:00:00.000Z","flightCategory":"VFR","latitude":14.147,"longitude":-16.052},"GOSS":{"rawOb":"METAR GOSS 260800Z 34004KT 300V070 CAVOK 18/17 Q1012","observationTime":"2026-03-26T08:00:00.000Z","flightCategory":"VFR","latitude":16.051,"longitude":-16.461},"GOTK":{"rawOb":"METAR GOTK 260800Z 23004KT 190V280 CAVOK 28/18 Q1010","observationTime":"2026-03-26T08:00:00.000Z","flightCategory":"VFR","latitude":12.572,"longitude":-12.22},"GOTT":{"rawOb":"METAR GOTT 260800Z 32006KT CAVOK 25/09 Q1010","observationTime":"2026-03-26T08:00:00.000Z","flightCategory":"VFR","latitude":13.733,"longitude":-13.657},"GOGG":{"rawOb":"METAR GOGG 260800Z 36008KT CAVOK 20/17 Q1012","observationTime":"2026-03-26T08:00:00.000Z","flightCategory":"VFR","latitude":12.556,"longitude":-16.282},"GAGO":{"rawOb":"METAR GAGO 260800Z 09003KT 6000 NSC 31/04 Q1007","observationTime":"2026-03-26T08:00:00.000Z","flightCategory":"MVFR","latitude":16.247,"longitude":-0.006},"GAKD":{"rawOb":"METAR GAKD 260800Z 24005KT 210V280 CAVOK 28/09 Q1009","observationTime":"2026-03-26T08:00:00.000Z","flightCategory":"VFR","latitude":14.482,"longitude":-11.404},"GAMB":{"rawOb":"METAR GAMB 260800Z 22006KT 4000 DU NSC 31/16 Q1007","observationTime":"2026-03-26T08:00:00.000Z","flightCategory":"IFR","latitude":14.512,"longitude":-4.084},"GATB":{"rawOb":"METAR GATB 260800Z 23003KT 190V270 4000 DU NSC 31/15 Q1007","observationTime":"2026-03-26T08:00:00.000Z","flightCategory":"IFR","latitude":16.73,"longitude":-3.008},"HKLO":{"rawOb":"METAR HKLO 260800Z 06006KT 9999 FEW028 SCT260 33/18 Q1012","observationTime":"2026-03-26T08:00:00.000Z","flightCategory":"VFR","latitude":3.122,"longitude":35.609},"NVVV":{"rawOb":"METAR NVVV 260800Z VRB01KT 9999 FEW018TCU SCT020 BKN300 27/26 Q1009","observationTime":"2026-03-26T08:00:00.000Z","flightCategory":"VFR","latitude":-17.695,"longitude":168.313},"GUCY":{"rawOb":"METAR GUCY 260800Z 27006KT 9999 BKN013 26/23 Q1009 NOSIG","observationTime":"2026-03-26T08:00:00.000Z","flightCategory":"MVFR","latitude":9.577,"longitude":-13.612},"RPLC":{"rawOb":"METAR RPLC 260800Z 14008KT 9999 FEW020 35/20 Q1009 NOSIG RMK A2980","observationTime":"2026-03-26T08:00:00.000Z","flightCategory":"VFR","latitude":15.186,"longitude":120.56},"SYCJ":{"rawOb":"METAR SYCJ 260800Z 09004KT 9999 FEW017 SCT038 25/24 Q1010 NOSIG","observationTime":"2026-03-26T08:00:00.000Z","flightCategory":"VFR","latitude":6.499,"longitude":-58.254},"ORBI":{"rawOb":"METAR ORBI 260800Z 15021KT 9999 BKN030 19/16 Q0998 NOSIG","observationTime":"2026-03-26T08:00:00.000Z","flightCategory":"MVFR","latitude":33.263,"longitude":44.235},"GBYD":{"rawOb":"METAR GBYD 260800Z 32007KT CAVOK 20/15 Q1011 NOSIG","observationTime":"2026-03-26T08:00:00.000Z","flightCategory":"VFR","latitude":13.341,"longitude":-16.653},"HKWJ":{"rawOb":"METAR HKWJ 260800Z 18009KT 9999 -RA BKN029 30/22 Q1011","observationTime":"2026-03-26T08:00:00.000Z","flightCategory":"MVFR","latitude":1.74,"longitude":40.087},"HKML":{"rawOb":"METAR HKML 260800Z 18008KT 9999 BKN023 31/25 Q1013","observationTime":"2026-03-26T08:00:00.000Z","flightCategory":"MVFR","latitude":-3.229,"longitude":40.102},"GVBA":{"rawOb":"METAR GVBA 260800Z 03010KT 9999 SCT014 BKN200 20/15 Q1013 NOSIG","observationTime":"2026-03-26T08:00:00.000Z","flightCategory":"VFR","latitude":16.137,"longitude":-22.889},"HKKI":{"rawOb":"METAR HKKI 260800Z 19007KT 160V220 9999 FEW025CB BKN270 26/19 Q1018","observationTime":"2026-03-26T08:00:00.000Z","flightCategory":"VFR","latitude":-0.086,"longitude":34.734},"GVSV":{"rawOb":"METAR GVSV 260800Z 04014KT 9999 SCT022 BKN200 20/15 Q1014 NOSIG","observationTime":"2026-03-26T08:00:00.000Z","flightCategory":"VFR","latitude":16.833,"longitude":-25.055},"GGOV":{"rawOb":"METAR GGOV 260800Z VRB03KT 8000 NSC 21/15 Q1011 NOSIG","observationTime":"2026-03-26T08:00:00.000Z","flightCategory":"MVFR","latitude":11.895,"longitude":-15.654},"DIBK":{"rawOb":"METAR DIBK 260800Z 24012KT 8000 SCT010 24/24 Q1012 NOSIG","observationTime":"2026-03-26T08:00:00.000Z","flightCategory":"MVFR","latitude":7.739,"longitude":-5.074},"DIYO":{"rawOb":"METAR DIYO 260800Z 22006KT 8000 BKN010 26/24 Q1011 NOSIG","observationTime":"2026-03-26T08:00:00.000Z","flightCategory":"MVFR","latitude":6.903,"longitude":-5.366},"OJAQ":{"rawOb":"METAR OJAQ 260800Z 30004KT 6000 SCT030 SCT040 16/07 Q1006 NOSIG","observationTime":"2026-03-26T08:00:00.000Z","flightCategory":"MVFR","latitude":29.612,"longitude":35.018},"CYHM":{"rawOb":"METAR CYHM 260800Z 23008KT 15SM BKN220 06/00 A2976 RMK CI6 SLP083","observationTime":"2026-03-26T08:00:00.000Z","flightCategory":"VFR","latitude":43.173,"longitude":-79.936},"CYTZ":{"rawOb":"METAR CYTZ 260800Z AUTO VRB02KT 9SM CLR 04/00 A2976 RMK SLP083","observationTime":"2026-03-26T08:00:00.000Z","flightCategory":"VFR","latitude":43.627,"longitude":-79.397},"OJAM":{"rawOb":"METAR OJAM 260800Z 25007KT 5000 HZ BKN020 SCT030 09/06 Q1001 NOSIG","observationTime":"2026-03-26T08:00:00.000Z","flightCategory":"MVFR","latitude":31.973,"longitude":35.992},"OJAI":{"rawOb":"METAR OJAI 260800Z 22014KT 4000 HZ SCT030 SCT100 09/05 Q1001 NOSIG","observationTime":"2026-03-26T08:00:00.000Z","flightCategory":"IFR","latitude":31.723,"longitude":35.993},"FMMT":{"rawOb":"METAR FMMT 260800Z 14008KT 110V170 9999 SCT017TCU 31/26 Q1014 NOSIG","observationTime":"2026-03-26T08:00:00.000Z","flightCategory":"VFR","latitude":-18.11,"longitude":49.392},"GOGS":{"rawOb":"METAR GOGS 260800Z 36008KT 340V040 CAVOK 20/17 Q1011 NOSIG","observationTime":"2026-03-26T08:00:00.000Z","flightCategory":"VFR","latitude":12.389,"longitude":-16.742},"FMNA":{"rawOb":"METAR FMNA 260800Z 14010KT 9999 SCT020 31/22 Q1012","observationTime":"2026-03-26T08:00:00.000Z","flightCategory":"VFR","latitude":-12.35,"longitude":49.293},"FMSD":{"rawOb":"METAR FMSD 260800Z 10019KT 9999 FEW020 32/22 Q1013","observationTime":"2026-03-26T08:00:00.000Z","flightCategory":"VFR","latitude":-25.038,"longitude":46.956},"FMCH":{"rawOb":"METAR FMCH 260800Z 14012KT 110V170 9999 FEW020CB BKN030 26/22 Q1013 TEMPO 4000 SHRA","observationTime":"2026-03-26T08:00:00.000Z","flightCategory":"MVFR","latitude":-11.534,"longitude":43.272},"SBAR":{"rawOb":"METAR SBAR 260800Z 28004KT 250V310 9999 FEW015 SCT030 BKN070 24/22 Q1012 RERA","observationTime":"2026-03-26T08:00:00.000Z","flightCategory":"VFR","latitude":-10.984,"longitude":-37.07},"SBCG":{"rawOb":"METAR SBCG 260800Z VRB01KT CAVOK 20/19 Q1013","observationTime":"2026-03-26T08:00:00.000Z","flightCategory":"VFR","latitude":-20.469,"longitude":-54.672},"SBJP":{"rawOb":"METAR SBJP 260800Z 22003KT 9999 FEW020 25/23 Q1011","observationTime":"2026-03-26T08:00:00.000Z","flightCategory":"VFR","latitude":-7.148,"longitude":-34.951},"GMMC":{"rawOb":"METAR GMMC 260800Z 03003KT 8000 // FEW016 17/13 Q1011","observationTime":"2026-03-26T08:00:00.000Z","flightCategory":"MVFR","latitude":33.557,"longitude":-7.66},"SANL":{"rawOb":"METAR SANL 260800Z 23006KT CAVOK 20/14 Q1014","observationTime":"2026-03-26T08:00:00.000Z","flightCategory":"VFR","latitude":-29.383,"longitude":-66.795},"PHHI":{"rawOb":"SPECI PHHI 260800Z AUTO 35004KT 10SM OVC046 20/17 A3003 RMK AO2 DZE00 SLP161 $","observationTime":"2026-03-26T08:00:00.000Z","flightCategory":"VFR","latitude":21.478,"longitude":-158.044},"UHPP":{"rawOb":"METAR UHPP 260800Z 20007MPS 9999 FEW050 BKN120 02/M04 Q1015 R16R/CLRD62 NOSIG RMK MT OBSC QFE758/1011","observationTime":"2026-03-26T08:00:00.000Z","flightCategory":"VFR","latitude":53.175,"longitude":158.444},"UMOO":{"rawOb":"METAR UMOO 260800Z 16005MPS CAVOK 11/M02 Q1009 NOSIG","observationTime":"2026-03-26T08:00:00.000Z","flightCategory":"VFR","latitude":53.954,"longitude":30.1},"UMMG":{"rawOb":"METAR UMMG 260800Z 33004G07MPS 9000 -RA OVC049 08/05 Q1002 NOSIG","observationTime":"2026-03-26T08:00:00.000Z","flightCategory":"VFR","latitude":53.602,"longitude":24.056},"UMII":{"rawOb":"METAR UMII 260800Z 17006G09MPS CAVOK 11/M01 Q1006 NOSIG","observationTime":"2026-03-26T08:00:00.000Z","flightCategory":"VFR","latitude":55.133,"longitude":30.36},"HLLM":{"rawOb":"METAR HLLM 260800Z 24015KT 7000 NSC 19/01 Q1013","observationTime":"2026-03-26T08:00:00.000Z","flightCategory":"MVFR","latitude":32.894,"longitude":13.276},"CWLS":{"rawOb":"METAR CWLS 260800Z AUTO 25004KT 06/M00 RMK AO1 SLP079 T00601004 56009","observationTime":"2026-03-26T08:00:00.000Z","flightCategory":"null","latitude":43.983,"longitude":-80.74},"FTTD":{"rawOb":"METAR FTTD 260800Z 22008KT CAVOK 32/20 Q////","observationTime":"2026-03-26T08:00:00.000Z","flightCategory":"VFR","latitude":8.624,"longitude":16.071},"FKYS":{"rawOb":"METAR FKYS 260800Z 22007KT 6000 BKN006 24/20 Q1016 BECMG BKN011","observationTime":"2026-03-26T08:00:00.000Z","flightCategory":"IFR","latitude":3.833,"longitude":11.521},"SARE":{"rawOb":"METAR SARE 260800Z 17002KT CAVOK 18/17 Q1013","observationTime":"2026-03-26T08:00:00.000Z","flightCategory":"VFR","latitude":-27.45,"longitude":-59.056},"SBLB":{"rawOb":"METAR SBLB 260800Z AUTO 06014KT 9999 -RA NCD 27/23 Q1016 W///S4","observationTime":"2026-03-26T08:00:00.000Z","flightCategory":"VFR","latitude":-22.109,"longitude":-39.917},"FOON":{"rawOb":"METAR FOON 260800Z /////KT 9999 SCT004 BKN010 23/22 Q1015","observationTime":"2026-03-26T08:00:00.000Z","flightCategory":"MVFR","latitude":-1.656,"longitude":13.438},"FCPP":{"rawOb":"METAR FCPP 260800Z VRB03KT 9000 TS FEW010 FEW030CB 29/25 Q1012 BECMG NSW","observationTime":"2026-03-26T08:00:00.000Z","flightCategory":"VFR","latitude":-4.816,"longitude":11.887},"FEFF":{"rawOb":"METAR FEFF 260800Z 18006KT 9999 BKN007 23/22 Q1013 BECMG BKN016","observationTime":"2026-03-26T08:00:00.000Z","flightCategory":"IFR","latitude":4.399,"longitude":18.519},"TBPB":{"rawOb":"METAR TBPB 260800Z 08013KT 9999 BKN020 25/20 Q1012 NOSIG","observationTime":"2026-03-26T08:00:00.000Z","flightCategory":"MVFR","latitude":13.075,"longitude":-59.492},"SBFN":{"rawOb":"METAR SBFN 260800Z AUTO 15013KT 9999 SCT022 27/23 Q1009","observationTime":"2026-03-26T08:00:00.000Z","flightCategory":"VFR","latitude":-3.855,"longitude":-32.423},"CYRB":{"rawOb":"METAR CYRB 260800Z 35010KT 25SM FEW010 M29/M33 A3007 RMK SC1 SC TR SLP199","observationTime":"2026-03-26T08:00:00.000Z","flightCategory":"VFR","latitude":74.713,"longitude":-94.982},"CYQY":{"rawOb":"METAR CYQY 260800Z 21005KT 15SM FEW140 SCT240 M08/M11 A3030 RMK AC2CI1 SLP265","observationTime":"2026-03-26T08:00:00.000Z","flightCategory":"VFR","latitude":46.166,"longitude":-60.049},"CYTE":{"rawOb":"METAR CYTE 260800Z AUTO 28003KT 9SM OVC034 M26/M29 A2971 RMK SLP069","observationTime":"2026-03-26T08:00:00.000Z","flightCategory":"VFR","latitude":64.23,"longitude":-76.528},"CYTL":{"rawOb":"METAR CYTL 260800Z AUTO 02003KT 360V060 9SM FEW200 M23/M28 A3009 RMK SLP218","observationTime":"2026-03-26T08:00:00.000Z","flightCategory":"VFR","latitude":53.816,"longitude":-89.892},"MPMG":{"rawOb":"METAR MPMG 260800Z AUTO 32005KT //// R01///// // FEW110/// 25/22 Q1009","observationTime":"2026-03-26T08:00:00.000Z","flightCategory":"null","latitude":8.967,"longitude":-79.555},"UTAK":{"rawOb":"METAR UTAK 260800Z 18010KT 5000 BR OVC003 12/12 Q1006 R16R/CLRD70 NOSIG","observationTime":"2026-03-26T08:00:00.000Z","flightCategory":"LIFR","latitude":40.054,"longitude":53.007},"UTAT":{"rawOb":"METAR UTAT 260800Z 11014KT CAVOK 23/06 Q1006 R08/CLRD70 NOSIG","observationTime":"2026-03-26T08:00:00.000Z","flightCategory":"VFR","latitude":41.761,"longitude":59.827},"UTAV":{"rawOb":"METAR UTAV 260800Z 19014KT CAVOK 30/09 Q1007 R13/CLRD70 NOSIG","observationTime":"2026-03-26T08:00:00.000Z","flightCategory":"VFR","latitude":39.083,"longitude":63.613},"SMJP":{"rawOb":"METAR SMJP 260800Z 00000KT 9999 FEW007 24/24 Q1010","observationTime":"2026-03-26T08:00:00.000Z","flightCategory":"VFR","latitude":5.453,"longitude":-55.188},"RPVM":{"rawOb":"METAR RPVM 260800Z 04005KT 360V080 CAVOK 31/23 Q1008 NOSIG RMK A2977","observationTime":"2026-03-26T08:00:00.000Z","flightCategory":"VFR","latitude":10.308,"longitude":123.978},"ANYN":{"rawOb":"METAR ANYN 260800Z 19004KT 9999 FEW020 BKN100 28/25 Q1009","observationTime":"2026-03-26T08:00:00.000Z","flightCategory":"VFR","latitude":-0.547,"longitude":166.919},"DRRN":{"rawOb":"METAR DRRN 260800Z 23012KT 6000 NSC 32/18 Q1008 TEMPO 3500 DU","observationTime":"2026-03-26T08:00:00.000Z","flightCategory":"MVFR","latitude":13.483,"longitude":2.17},"CZRP":{"rawOb":"METAR CZRP 260800Z AUTO 28006KT M25/M28 RMK AO1 SOG 113 6006 SLP209 T12511278","observationTime":"2026-03-26T08:00:00.000Z","flightCategory":"null","latitude":75.377,"longitude":-105.715},"OEGS":{"rawOb":"METAR OEGS 260800Z 21005KT 9999 RA BKN030 15/14 Q1005 TEMPO 4000 TSRA","observationTime":"2026-03-26T08:00:00.000Z","flightCategory":"MVFR","latitude":26.303,"longitude":43.774},"SUPU":{"rawOb":"METAR SUPU 260800Z AUTO 06002KT //// ////// 12/09 Q1016","observationTime":"2026-03-26T08:00:00.000Z","flightCategory":"null","latitude":-32.362,"longitude":-58.067},"SEMT":{"rawOb":"METAR SEMT 260800Z 20005KT 9999 BKN020 25/22 Q1007 RMK A2975","observationTime":"2026-03-26T08:00:00.000Z","flightCategory":"MVFR","latitude":-0.946,"longitude":-80.679},"SKBG":{"rawOb":"METAR SKBG 260800Z AUTO VRB01KT //// -SHRA BKN005/// BKN008/// OVC009/// 20/20 Q1013","observationTime":"2026-03-26T08:00:00.000Z","flightCategory":"null","latitude":7.127,"longitude":-73.185},"SKMD":{"rawOb":"METAR SKMD 260800Z AUTO VRB01KT 0800NDV R02/P2000N FG BKN020/// OVC058/// 19/18 Q1018","observationTime":"2026-03-26T08:00:00.000Z","flightCategory":"IFR","latitude":6.221,"longitude":-75.59},"SEQM":{"rawOb":"METAR SEQM 260800Z 16004KT 9999 OVC004 13/12 Q1024 NOSIG RMK A3024","observationTime":"2026-03-26T08:00:00.000Z","flightCategory":"LIFR","latitude":-0.124,"longitude":-78.354},"SPQU":{"rawOb":"METAR SPQU 260800Z VRB02KT 9999 FEW080 SCT100 13/10 Q1024 RMK PP000","observationTime":"2026-03-26T08:00:00.000Z","flightCategory":"VFR","latitude":-16.341,"longitude":-71.583},"SPTN":{"rawOb":"METAR SPTN 260800Z VRB02KT 9999 FEW017 BKN025 20/14 Q1013 RMK PP000","observationTime":"2026-03-26T08:00:00.000Z","flightCategory":"MVFR","latitude":-18.049,"longitude":-70.277},"SPZO":{"rawOb":"METAR SPZO 260800Z VRB01KT 9999 FEW010 SCT040 BKN080 10/09 Q1029 NOSIG RMK BIRD HAZARD RWY 10/28 PP000","observationTime":"2026-03-26T08:00:00.000Z","flightCategory":"VFR","latitude":-13.536,"longitude":-71.939},"UWLW":{"rawOb":"METAR UWLW 260800Z 07002MPS CAVOK 04/M00 Q1018 R02/CLRD60 NOSIG RMK QFE757/1009","observationTime":"2026-03-26T08:00:00.000Z","flightCategory":"VFR","latitude":54.402,"longitude":48.8},"CYQX":{"rawOb":"METAR CYQX 260800Z 25013G18KT 20SM SCT026 M06/M09 A3009 RMK SC4 SLP201","observationTime":"2026-03-26T08:00:00.000Z","flightCategory":"VFR","latitude":48.946,"longitude":-54.576},"FMNN":{"rawOb":"METAR FMNN 260800Z 18002KT 9999 SCT020 29/// Q1013","observationTime":"2026-03-26T08:00:00.000Z","flightCategory":"VFR","latitude":-13.317,"longitude":48.31},"FCBB":{"rawOb":"METAR FCBB 260800Z VRB02KT 9000 FEW010 SCT023 26/22 Q1016 NOSIG","observationTime":"2026-03-26T08:00:00.000Z","flightCategory":"VFR","latitude":-4.252,"longitude":15.253},"DNMM":{"rawOb":"METAR DNMM 260800Z 16008KT 8000 SCT013 30/25 Q10SCERTAIN READABILTY STATUS OF THE SYSTEM X RYRYRYRYRYRYRYRYRYRYRYRYRYRYRYRYRYRYRYRYRYRYRYR PLS RUSH REPLY X GA TFC IF ANY","observationTime":"2026-03-26T08:00:00.000Z","flightCategory":"MVFR","latitude":6.577,"longitude":3.321},"FCOD":{"rawOb":"METAR FCOD 260800Z 27008KT 8000 FEW006 FEW026CB 23/19 Q1014","observationTime":"2026-03-26T08:00:00.000Z","flightCategory":"MVFR","latitude":-1.226,"longitude":15.91},"SUMU":{"rawOb":"METAR SUMU 260800Z 00000KT 9000 MIFG NSC 13/13 Q1017 TEMPO 3000 BR","observationTime":"2026-03-26T08:00:00.000Z","flightCategory":"VFR","latitude":-34.838,"longitude":-56.031},"FKKD":{"rawOb":"METAR FKKD 260800Z 13003KT 060V200 8000 TS BKN013 FEW016CB 31/26 Q1012 NOSIG","observationTime":"2026-03-26T08:00:00.000Z","flightCategory":"MVFR","latitude":4.006,"longitude":9.72},"FKKN":{"rawOb":"METAR FKKN 260800Z 20006KT 7000 BKN010 26/21 Q1018","observationTime":"2026-03-26T08:00:00.000Z","flightCategory":"MVFR","latitude":7.357,"longitude":13.559},"FKKR":{"rawOb":"METAR FKKR 260800Z 28017KT CAVOK 34/19 Q1010 NOSIG","observationTime":"2026-03-26T08:00:00.000Z","flightCategory":"VFR","latitude":9.336,"longitude":13.37},"CMGB":{"rawOb":"METAR CMGB 260800Z AUTO 17002KT 02/01 RMK AO1 2PAST HR SOG 03 8038 SLP118 P0001 T00210010 50020","observationTime":"2026-03-26T08:00:00.000Z","flightCategory":"null","latitude":45.373,"longitude":-72.774},"CWBU":{"rawOb":"METAR CWBU 260800Z AUTO 30004KT M22/M24 RMK AO1 SOG 25 3018 SLP296 T12211244","observationTime":"2026-03-26T08:00:00.000Z","flightCategory":"null","latitude":53.333,"longitude":-104.005},"CWIK":{"rawOb":"METAR CWIK 260800Z AUTO 01008KT M15/M17 RMK AO1 SLP252 T11471169 51028","observationTime":"2026-03-26T08:00:00.000Z","flightCategory":"null","latitude":50.366,"longitude":-102.567},"CWMT":{"rawOb":"METAR CWMT 260800Z AUTO 26005KT M26/M29 RMK AO1 SOG 19 3003 SLP359 T12641289","observationTime":"2026-03-26T08:00:00.000Z","flightCategory":"null","latitude":63.134,"longitude":-117.245},"CZEV":{"rawOb":"METAR CZEV 260800Z AUTO 17006KT M19/M23 RMK AO1 SOG 59 7011 SLP353 T11901231","observationTime":"2026-03-26T08:00:00.000Z","flightCategory":"null","latitude":68.313,"longitude":-133.496},"CZFS":{"rawOb":"METAR CZFS 260800Z AUTO 14004G15KT M28/M31 RMK AO1 SOG 44 3006 PK WND 02038/0725 SLP381 T12761312","observationTime":"2026-03-26T08:00:00.000Z","flightCategory":"null","latitude":61.76,"longitude":-121.23},"CZHY":{"rawOb":"METAR CZHY 260800Z AUTO 26004KT M26/M29 RMK AO1 SOG 31 2006 SLP370 T12611290","observationTime":"2026-03-26T08:00:00.000Z","flightCategory":"null","latitude":60.839,"longitude":-115.781},"WBGY":{"rawOb":"METAR WBGY 260800Z AUTO VRB02KT //// // ////// 34/26 Q1004","observationTime":"2026-03-26T08:00:00.000Z","flightCategory":"null","latitude":1.222,"longitude":111.466},"CWZL":{"rawOb":"METAR CWZL 260800Z AUTO 16012KT 03/02 RMK AO1 3008 PK WND 16017/0748 SLP179 T00330017 50004","observationTime":"2026-03-26T08:00:00.000Z","flightCategory":"null","latitude":53.03,"longitude":-131.602},"GMFB":{"rawOb":"METAR GMFB 260800Z COR 10011KT 9999 SCT028TCU FEW033CB SCT036 14/13 Q1013 RERA TEMPO RA","observationTime":"2026-03-26T08:00:00.000Z","flightCategory":"VFR","latitude":32.514,"longitude":-1.978},"SPRU":{"rawOb":"METAR SPRU 260800Z 14005KT 8000 NSC 22/22 Q1010 RMK PP000","observationTime":"2026-03-26T08:00:00.000Z","flightCategory":"MVFR","latitude":-8.087,"longitude":-79.109},"CYXT":{"rawOb":"METAR CYXT 260800Z 36007KT 10SM -SN OVC040 M03/M09 A3018 RMK SC8 SLP234","observationTime":"2026-03-26T08:00:00.000Z","flightCategory":"VFR","latitude":54.471,"longitude":-128.577},"CWZW":{"rawOb":"METAR CWZW 260800Z AUTO 25004KT M22/M26 RMK AO1 SOG 90 3011 SLP318 T12191259","observationTime":"2026-03-26T08:00:00.000Z","flightCategory":"null","latitude":60.167,"longitude":-132.733},"CWRM":{"rawOb":"METAR CWRM 260800Z AUTO 07002KT M13/M15 RMK AO1 5PAST HR SOG 04 1017 SLP256 P0002 T11261148 50012","observationTime":"2026-03-26T08:00:00.000Z","flightCategory":"null","latitude":52.431,"longitude":-114.907},"CYYD":{"rawOb":"METAR CYYD 260800Z AUTO 14009G15KT 100V160 9SM -SN OVC034 M07/M13 A3019 RMK SLP257","observationTime":"2026-03-26T08:00:00.000Z","flightCategory":"VFR","latitude":54.823,"longitude":-127.185},"OTHH":{"rawOb":"METAR OTHH 260800Z 13019KT CAVOK 27/21 Q1004 NOSIG","observationTime":"2026-03-26T08:00:00.000Z","flightCategory":"VFR","latitude":25.273,"longitude":51.609},"LOAV":{"rawOb":"METAR LOAV 260800Z 30015KT 9999 -RA SCT020 BKN030 05/03 Q////","observationTime":"2026-03-26T08:00:00.000Z","flightCategory":"MVFR","latitude":47.965,"longitude":16.259},"LOAN":{"rawOb":"METAR LOAN 260800Z 33012KT 9999 -RA FEW012 BKN020 ///// Q////","observationTime":"2026-03-26T08:00:00.000Z","flightCategory":"MVFR","latitude":47.843,"longitude":16.26},"CWXC":{"rawOb":"METAR CWXC 260800Z AUTO 03001KT M14/M15 RMK AO1 4PAST HR 6052 SLP122 P0002 T11351154 50004","observationTime":"2026-03-26T08:00:00.000Z","flightCategory":"null","latitude":48.894,"longitude":-71.032},"CWWS":{"rawOb":"METAR CWWS 260800Z AUTO 35010KT M21/M24 RMK AO1 SOG 88 1017 PK WND 00017/0702 SLP252 T12061244","observationTime":"2026-03-26T08:00:00.000Z","flightCategory":"null","latitude":52.819,"longitude":-97.616},"CWME":{"rawOb":"METAR CWME 260800Z AUTO 06003KT M00/M00 RMK AO1 SLP246 T10021001 51036","observationTime":"2026-03-26T08:00:00.000Z","flightCategory":"null","latitude":52.187,"longitude":-127.471},"SBAN":{"rawOb":"METAR SBAN 260800Z 08005KT 9999 FEW004 SCT100 18/17 Q1019","observationTime":"2026-03-26T08:00:00.000Z","flightCategory":"VFR","latitude":-16.229,"longitude":-48.964},"SBBW":{"rawOb":"METAR SBBW 260800Z AUTO VRB02KT 9999 BKN002 OVC009 22/22 Q1014","observationTime":"2026-03-26T08:00:00.000Z","flightCategory":"LIFR","latitude":-15.861,"longitude":-52.389},"CYYE":{"rawOb":"METAR CYYE 260800Z 31003KT 15SM SCT190 M26/M29 A3050 RMK AC3 SLP377","observationTime":"2026-03-26T08:00:00.000Z","flightCategory":"VFR","latitude":58.839,"longitude":-122.59},"FZAA":{"rawOb":"METAR FZAA 260800Z 00000KT 4000 BR BKN014 25/23 Q1014 NOSIG","observationTime":"2026-03-26T08:00:00.000Z","flightCategory":"IFR","latitude":-4.387,"longitude":15.448},"SBJU":{"rawOb":"METAR SBJU 260800Z 00000KT 9999 BKN020 23/21 Q1014","observationTime":"2026-03-26T08:00:00.000Z","flightCategory":"MVFR","latitude":-7.219,"longitude":-39.27},"SBKG":{"rawOb":"METAR SBKG 260800Z 17004KT 9999 SCT015 22/21 Q1014","observationTime":"2026-03-26T08:00:00.000Z","flightCategory":"VFR","latitude":-7.27,"longitude":-35.895},"FOOL":{"rawOb":"METAR FOOL 260800Z 09005KT 9999 FEW012 27/24 Q1012 NOSIG","observationTime":"2026-03-26T08:00:00.000Z","flightCategory":"VFR","latitude":0.459,"longitude":9.412},"FOOG":{"rawOb":"METAR FOOG 260800Z 10004KT 060V150 9999 SCT008 FEW018TCU 30/25 Q1012","observationTime":"2026-03-26T08:00:00.000Z","flightCategory":"VFR","latitude":-0.712,"longitude":8.754},"FGBT":{"rawOb":"METAR FGBT 260800Z 14005KT 9999 FEW010 27/26 Q1012 NOSIG","observationTime":"2026-03-26T08:00:00.000Z","flightCategory":"VFR","latitude":1.905,"longitude":9.806},"FPST":{"rawOb":"METAR FPST 260800Z 03003KT 9999 FEW025CB 31/25 Q1011 NOSIG","observationTime":"2026-03-26T08:00:00.000Z","flightCategory":"VFR","latitude":0.378,"longitude":6.712},"CYYF":{"rawOb":"METAR CYYF 260800Z 19005KT 15SM FEW080 04/M09 A3017 RMK AC2 SLP228","observationTime":"2026-03-26T08:00:00.000Z","flightCategory":"VFR","latitude":49.46,"longitude":-119.606},"VEKI":{"rawOb":"METAR VEKI 260800Z VRB03KT 5000 HZ NSC 32/12 Q1010 NOSIG","observationTime":"2026-03-26T08:00:00.000Z","flightCategory":"MVFR","latitude":26.776,"longitude":83.889},"FBPM":{"rawOb":"METAR FBPM 260800Z 08006KT 030V120 9999 SCT020 24/19 Q1021","observationTime":"2026-03-26T08:00:00.000Z","flightCategory":"VFR","latitude":-21.159,"longitude":27.477},"DBBB":{"rawOb":"METAR DBBB 260800Z 22006KT 180V250 9999 SCT013 30/25 Q1010 NOSIG","observationTime":"2026-03-26T08:00:00.000Z","flightCategory":"VFR","latitude":6.357,"longitude":2.384},"SEGU":{"rawOb":"METAR SEGU 260800Z 26005KT 220V280 9999 SCT026 BKN100 27/22 Q1008 NOSIG RMK A2976","observationTime":"2026-03-26T08:00:00.000Z","flightCategory":"VFR","latitude":-2.158,"longitude":-79.884},"SPJC":{"rawOb":"METAR SPJC 260800Z 21004KT 9000 NSC 22/19 Q1009 NOSIG RMK PP000","observationTime":"2026-03-26T08:00:00.000Z","flightCategory":"VFR","latitude":-12.024,"longitude":-77.113},"CMFM":{"rawOb":"METAR CMFM 260800Z AUTO 00000KT M10/M12 RMK AO1 6PAST HR SOG 91 8042 SLP123 P0002 T11021118 50012","observationTime":"2026-03-26T08:00:00.000Z","flightCategory":"null","latitude":47.323,"longitude":-71.148},"FTTA":{"rawOb":"METAR FTTA 260800Z 22009KT CAVOK 30/19 Q1012","observationTime":"2026-03-26T08:00:00.000Z","flightCategory":"VFR","latitude":9.144,"longitude":18.374},"DFOO":{"rawOb":"METAR DFOO 260800Z 22011KT CAVOK 28/21 Q1011","observationTime":"2026-03-26T08:00:00.000Z","flightCategory":"VFR","latitude":11.163,"longitude":-4.322},"DXXX":{"rawOb":"METAR DXXX 260800Z 22006KT 190V260 9999 SCT012 29/26 Q1011 NOSIG","observationTime":"2026-03-26T08:00:00.000Z","flightCategory":"VFR","latitude":6.166,"longitude":1.254},"DXNG":{"rawOb":"METAR DXNG 260800Z 20005KT CAVOK 26/19 Q1014","observationTime":"2026-03-26T08:00:00.000Z","flightCategory":"VFR","latitude":9.767,"longitude":1.091},"CYQQ":{"rawOb":"METAR CYQQ 260800Z 28005KT 20SM BKN150 04/M03 A3031 RMK AC6 DENSITY ALT -1647FT CIG PDMTLY TRANSPARENT SLP264","observationTime":"2026-03-26T08:00:00.000Z","flightCategory":"VFR","latitude":49.712,"longitude":-124.895},"DRRM":{"rawOb":"METAR DRRM 260800Z 16004KT 7000 NSC 31/10 Q1012","observationTime":"2026-03-26T08:00:00.000Z","flightCategory":"MVFR","latitude":13.502,"longitude":7.12},"SBMG":{"rawOb":"METAR SBMG 260800Z AUTO 07012KT CAVOK 22/19 Q1014","observationTime":"2026-03-26T08:00:00.000Z","flightCategory":"VFR","latitude":-23.476,"longitude":-52.017},"DRRT":{"rawOb":"METAR DRRT 260800Z 06016KT CAVOK 33/06 Q1011","observationTime":"2026-03-26T08:00:00.000Z","flightCategory":"VFR","latitude":14.878,"longitude":5.27},"DRZA":{"rawOb":"METAR DRZA 260800Z 10023KT 4200 BLDU NSC 28/03 Q1012","observationTime":"2026-03-26T08:00:00.000Z","flightCategory":"IFR","latitude":16.964,"longitude":7.989},"DRZR":{"rawOb":"METAR DRZR 260800Z 05007KT 3200 DU NSC 30/08 Q1012","observationTime":"2026-03-26T08:00:00.000Z","flightCategory":"IFR","latitude":13.779,"longitude":8.984},"DRZF":{"rawOb":"METAR DRZF 260800Z 06013KT 1500 DU NSC 31/03 Q1011","observationTime":"2026-03-26T08:00:00.000Z","flightCategory":"LIFR","latitude":13.373,"longitude":12.625},"SCBA":{"rawOb":"METAR SCBA 260759Z AUTO 31019KT //// // FEW039/// OVC059/// 07/02 Q1010","observationTime":"2026-03-26T07:59:00.000Z","flightCategory":"null","latitude":-45.913,"longitude":-71.694},"KNGU":{"rawOb":"METAR KNGU 260759Z 21008KT 10SM SCT055 BKN180 BKN250 14/09 A3017 RMK AO2 SLP217 T01390089 $","observationTime":"2026-03-26T07:59:00.000Z","flightCategory":"VFR","latitude":36.937,"longitude":-76.281},"KNOZ":{"rawOb":"METAR KNOZ 260759Z AUTO A2984 RMK AO2 SLPNO PWINO TSNO $","observationTime":"2026-03-26T07:59:00.000Z","flightCategory":"null","latitude":32.55,"longitude":-114.512},"KMRH":{"rawOb":"METAR KMRH 260758Z AUTO 00000KT 10SM CLR 13/10 A3018 RMK AO2 SLP220 T01280100 $","observationTime":"2026-03-26T07:58:00.000Z","flightCategory":"VFR","latitude":34.7326,"longitude":-76.6566},"KMEI":{"rawOb":"METAR KMEI 260758Z AUTO 21004KT 8SM CLR 17/16 A3011 RMK AO2 SLP193 T01670156","observationTime":"2026-03-26T07:58:00.000Z","flightCategory":"VFR","latitude":32.3348,"longitude":-88.7507},"KROG":{"rawOb":"METAR KROG 260758Z AUTO 19006KT 10SM CLR 18/14 A2996 RMK AO2 SLP132 T01830139 TSNO","observationTime":"2026-03-26T07:58:00.000Z","flightCategory":"VFR","latitude":36.3749,"longitude":-94.1078},"KBCR":{"rawOb":"METAR KBCR 260758Z AUTO 02003KT 8SM CLR 13/13 A3016 RMK AO2 SLP171 T01330133","observationTime":"2026-03-26T07:58:00.000Z","flightCategory":"VFR","latitude":30.8432,"longitude":-85.6043},"K0J4":{"rawOb":"METAR K0J4 260758Z AUTO 00000KT 10SM CLR 13/12 A3016 RMK AO2 SLP209 T01280122","observationTime":"2026-03-26T07:58:00.000Z","flightCategory":"VFR","latitude":31.0447,"longitude":-86.3119},"KEUF":{"rawOb":"METAR KEUF 260758Z AUTO 00000KT 10SM CLR 13/12 A3017 RMK AO1 SLP213 I1000 T01280122","observationTime":"2026-03-26T07:58:00.000Z","flightCategory":"VFR","latitude":31.9516,"longitude":-85.1312},"KNFE":{"rawOb":"METAR KNFE 260758Z AUTO 20003KT 10SM BKN044 OVC050 13/09 A3017 RMK AO2 SLP219 T01330094","observationTime":"2026-03-26T07:58:00.000Z","flightCategory":"VFR","latitude":36.701,"longitude":-76.129},"KNYL":{"rawOb":"METAR KNYL 260757Z AUTO 00000KT 10SM CLR 21/04 A2982 RMK AO2 SLP096 T02110044","observationTime":"2026-03-26T07:57:00.000Z","flightCategory":"VFR","latitude":32.66,"longitude":-114.6078},"KNFL":{"rawOb":"METAR KNFL 260757Z AUTO 35006KT 10SM CLR 12/M06 A3006 RMK AO2 SLP147 T01171056 402890039 PNO $","observationTime":"2026-03-26T07:57:00.000Z","flightCategory":"VFR","latitude":39.417,"longitude":-118.705},"KFLG":{"rawOb":"METAR KFLG 260757Z AUTO 23003KT 10SM CLR 07/M06 A3021 RMK AO2 SLP135 T00721061 $","observationTime":"2026-03-26T07:57:00.000Z","flightCategory":"VFR","latitude":35.1443,"longitude":-111.6664},"KSUE":{"rawOb":"METAR KSUE 260757Z AUTO 09007KT 10SM CLR 04/M01 A2976 RMK AO2 SLP082 T00391006 $","observationTime":"2026-03-26T07:57:00.000Z","flightCategory":"VFR","latitude":44.847,"longitude":-87.425},"PHNG":{"rawOb":"METAR PHNG 260757Z 05017G22KT 7SM BKN027 BKN050 23/17 A2998 RMK AO2 SLP148 T02280172","observationTime":"2026-03-26T07:57:00.000Z","flightCategory":"MVFR","latitude":21.45,"longitude":-157.763},"PTTP":{"rawOb":"METAR PTTP 260757Z 00000KT 15SM FEW018 SCT300 28/25 A2978 RMK SLP084 T02800253","observationTime":"2026-03-26T07:57:00.000Z","flightCategory":"VFR","latitude":6.96,"longitude":158.21},"KMNM":{"rawOb":"METAR KMNM 260757Z AUTO 05005KT 10SM CLR 01/M01 A2977 RMK AO2 SLP086 T00111006 FZRANO PNO $","observationTime":"2026-03-26T07:57:00.000Z","flightCategory":"VFR","latitude":45.126,"longitude":-87.639},"K8D3":{"rawOb":"METAR K8D3 260756Z AUTO 33009KT 05/04 A2985 RMK AO1 SLP105 P0006 T00500044 $","observationTime":"2026-03-26T07:56:00.000Z","flightCategory":"null","latitude":45.669,"longitude":-96.9918},"PFYU":{"rawOb":"METAR PFYU 260756Z AUTO 00000KT 4SM HZ CLR M25/M31 A3050 RMK AO2 SLP352 T12501306 FZRANO TSNO","observationTime":"2026-03-26T07:56:00.000Z","flightCategory":"MVFR","latitude":66.572,"longitude":-145.243},"PFZK":{"rawOb":"METAR PFZK 260756Z AUTO 33004KT 10SM CLR M14/M18 A3043 RMK AO2 SLP302 T11391183 410611161 FZRANO $","observationTime":"2026-03-26T07:56:00.000Z","flightCategory":"VFR","latitude":60.9156,"longitude":-161.4884},"PFKO":{"rawOb":"METAR PFKO 260756Z AUTO 36005KT CLR M19/M22 A3048 RMK AO2 SLP322 T11941217 411111222 PWINO FZRANO RVRNO $","observationTime":"2026-03-26T07:56:00.000Z","flightCategory":"null","latitude":63.0334,"longitude":-163.5323},"TJSJ":{"rawOb":"METAR TJSJ 260756Z 00000KT 10SM FEW030 SCT085 23/21 A2996 RMK AO2 SLP144 T02330211","observationTime":"2026-03-26T07:56:00.000Z","flightCategory":"VFR","latitude":18.4326,"longitude":-66.0106},"PAPH":{"rawOb":"METAR PAPH 260756Z AUTO 00000KT 10SM CLR M14/M16 A3038 RMK AO2 SLP290 T11441161 410721167 FZRANO","observationTime":"2026-03-26T07:56:00.000Z","flightCategory":"VFR","latitude":56.959,"longitude":-158.631},"KWMC":{"rawOb":"METAR KWMC 260756Z AUTO 05004KT 10SM CLR 13/M06 A3007 RMK AO2 SLP143 T01331061 402670011","observationTime":"2026-03-26T07:56:00.000Z","flightCategory":"VFR","latitude":40.9018,"longitude":-117.8081},"PAPM":{"rawOb":"METAR PAPM 260756Z AUTO 34013KT 10SM CLR A3039 RMK AO2 SLPNO FZRANO TSNO $","observationTime":"2026-03-26T07:56:00.000Z","flightCategory":"VFR","latitude":59.011,"longitude":-161.82},"PAGH":{"rawOb":"METAR PAGH 260756Z AUTO 14007KT 10SM CLR M13/M20 A3050 RMK AO2 SLP336 T11281200 FZRANO","observationTime":"2026-03-26T07:56:00.000Z","flightCategory":"VFR","latitude":66.886,"longitude":-157.159},"KNCA":{"rawOb":"METAR KNCA 260756Z AUTO 00000KT 10SM CLR 09/09 A3018 RMK AO2 SLP222 T00940089 PWINO","observationTime":"2026-03-26T07:56:00.000Z","flightCategory":"VFR","latitude":34.7062,"longitude":-77.4406},"KOAJ":{"rawOb":"METAR KOAJ 260756Z AUTO 00000KT 10SM BKN050 11/10 A3019 RMK AO2 SLP226 T01060100 $","observationTime":"2026-03-26T07:56:00.000Z","flightCategory":"VFR","latitude":34.8251,"longitude":-77.6189},"KJAC":{"rawOb":"METAR KJAC 260756Z AUTO 00000KT 10SM CLR 06/M04 A2995 RMK AO2 SLP102 T00611039","observationTime":"2026-03-26T07:56:00.000Z","flightCategory":"VFR","latitude":43.6129,"longitude":-110.7366},"KWVL":{"rawOb":"METAR KWVL 260756Z AUTO 20006KT 10SM -RA OVC005 01/01 A2999 RMK AO2 SLP162 P0001 T00110011 FZRANO","observationTime":"2026-03-26T07:56:00.000Z","flightCategory":"IFR","latitude":44.5301,"longitude":-69.6753},"PADU":{"rawOb":"METAR PADU 260756Z AUTO 01008KT 10SM CLR M02/M07 A3051 RMK AO2 SLP330 T10221067 400111028 FZRANO","observationTime":"2026-03-26T07:56:00.000Z","flightCategory":"VFR","latitude":53.896,"longitude":-166.543},"PAJZ":{"rawOb":"METAR PAJZ 260756Z AUTO 32007KT 8SM CLR M12/M17 A3036 RMK AO2 SLP283 T11221167 410671128 FZRANO $","observationTime":"2026-03-26T07:56:00.000Z","flightCategory":"VFR","latitude":59.727,"longitude":-157.267},"KMTW":{"rawOb":"METAR KMTW 260756Z AUTO 02005KT 10SM CLR 05/03 A2974 RMK AO2 SLP076 T00500028 $","observationTime":"2026-03-26T07:56:00.000Z","flightCategory":"VFR","latitude":44.1322,"longitude":-87.6819},"PAPO":{"rawOb":"METAR PAPO 260756Z AUTO 16017KT OVC017 M13/M14 A3034 RMK AO2 SLP275 T11281139 PWINO FZRANO $","observationTime":"2026-03-26T07:56:00.000Z","flightCategory":"null","latitude":68.345,"longitude":-166.807},"PARC":{"rawOb":"METAR PARC 260756Z AUTO 00000KT 10SM CLR M23/M26 A3031 RMK AO2 SLP354 T12281261 FZRANO TSNO","observationTime":"2026-03-26T07:56:00.000Z","flightCategory":"VFR","latitude":68.113,"longitude":-145.576},"PASA":{"rawOb":"METAR PASA 260756Z AUTO 29008KT 10SM FEW016 OVC024 M02/M04 A3041 RMK AO2 SLP299 T10221039 FZRANO","observationTime":"2026-03-26T07:56:00.000Z","flightCategory":"MVFR","latitude":63.689,"longitude":-170.49},"KSDF":{"rawOb":"METAR KSDF 260756Z 20011KT 10SM FEW070 OVC130 20/11 A2995 RMK AO2 SLP139 T02000111","observationTime":"2026-03-26T07:56:00.000Z","flightCategory":"VFR","latitude":38.1774,"longitude":-85.7308},"PASK":{"rawOb":"METAR PASK 260756Z AUTO 05005KT 10SM CLR M23/M26 A3052 RMK AO2 SLP330 T12331256 FZRANO","observationTime":"2026-03-26T07:56:00.000Z","flightCategory":"VFR","latitude":66.599,"longitude":-159.991},"KP53":{"rawOb":"METAR KP53 260756Z AUTO 31004KT 01/01 A2976 RMK AO1 SLP084 T00060006 $","observationTime":"2026-03-26T07:56:00.000Z","flightCategory":"null","latitude":46.412,"longitude":-86.6504},"KTPH":{"rawOb":"METAR KTPH 260756Z AUTO 31018G24KT 10SM CLR 17/M10 A3007 RMK AO2 PK WND 32027/0737 SLP111 T01671100 402830083","observationTime":"2026-03-26T07:56:00.000Z","flightCategory":"VFR","latitude":38.0505,"longitude":-117.0906},"PASM":{"rawOb":"METAR PASM 260756Z AUTO 35003KT 10SM CLR M12/M19 A3045 RMK AO2 SLP327 T11171194 410441161 FZRANO","observationTime":"2026-03-26T07:56:00.000Z","flightCategory":"VFR","latitude":62.057,"longitude":-163.298},"KEHR":{"rawOb":"METAR KEHR 260756Z AUTO 21012KT 10SM 19/11 A2993 RMK AO2 SLP134 T01940111 $","observationTime":"2026-03-26T07:56:00.000Z","flightCategory":"VFR","latitude":37.8066,"longitude":-87.6824},"KAFJ":{"rawOb":"METAR KAFJ 260756Z AUTO 22006KT 10SM FEW060 SCT100 15/04 A2997 RMK AO2 SLP144 T01500039 $","observationTime":"2026-03-26T07:56:00.000Z","flightCategory":"VFR","latitude":40.1362,"longitude":-80.2851},"PASX":{"rawOb":"METAR PASX 260756Z AUTO 04003KT 10SM CLR M13/M18 A3016 RMK AO2 SLP221 T11331183 410111194 FZRANO TSNO","observationTime":"2026-03-26T07:56:00.000Z","flightCategory":"VFR","latitude":60.476,"longitude":-151.053},"KDAY":{"rawOb":"METAR KDAY 260756Z 21010KT 10SM FEW090 BKN160 16/08 A2991 RMK AO2 RAB15E34 SLP125 P0000 T01560083","observationTime":"2026-03-26T07:56:00.000Z","flightCategory":"VFR","latitude":39.9064,"longitude":-84.2185},"PATG":{"rawOb":"METAR PATG 260756Z AUTO 02008KT 10SM CLR M14/M17 A3037 RMK AO2 SLP286 T11441172 410111172 FZRANO","observationTime":"2026-03-26T07:56:00.000Z","flightCategory":"VFR","latitude":59.051,"longitude":-160.398},"KJAX":{"rawOb":"METAR KJAX 260756Z 34003KT 1/4SM VV002 16/15 A3014 RMK AO2 SLP208 T01560150 $","observationTime":"2026-03-26T07:56:00.000Z","flightCategory":"LIFR","latitude":30.4953,"longitude":-81.6937},"KNID":{"rawOb":"METAR KNID 260756Z AUTO 24005KT 10SM CLR 18/04 A2990 RMK AO2 SLP108 T01780044 403440128 $","observationTime":"2026-03-26T07:56:00.000Z","flightCategory":"VFR","latitude":35.688,"longitude":-117.69},"KALK":{"rawOb":"METAR KALK 260756Z AUTO 24010KT 10SM CLR 17/M07 A3014 RMK AO2 SLP113 T01721067","observationTime":"2026-03-26T07:56:00.000Z","flightCategory":"VFR","latitude":31.606,"longitude":-110.428},"KCTB":{"rawOb":"METAR KCTB 260756Z AUTO 10004KT 10SM OVC004 M06/M07 A3001 RMK AO2 SLP182 T10561072","observationTime":"2026-03-26T07:56:00.000Z","flightCategory":"LIFR","latitude":48.6036,"longitude":-112.3766},"KLWS":{"rawOb":"METAR KLWS 260756Z AUTO 29018G26KT 10SM OVC090 07/M03 A3023 RMK AO2 PK WND 29026/0756 SLP241 T00721028 401500067","observationTime":"2026-03-26T07:56:00.000Z","flightCategory":"VFR","latitude":46.3746,"longitude":-117.0153},"KSMN":{"rawOb":"METAR KSMN 260756Z AUTO 02014G22KT 10SM FEW048 BKN080 OVC100 08/M02 A3000 RMK AO2 PK WND 36026/0659 SLP144 T00781022","observationTime":"2026-03-26T07:56:00.000Z","flightCategory":"VFR","latitude":45.1283,"longitude":-113.8833},"KCXY":{"rawOb":"METAR KCXY 260756Z AUTO VRB04KT 10SM OVC085 11/02 A2998 RMK AO2 SLP154 T01110017","observationTime":"2026-03-26T07:56:00.000Z","flightCategory":"VFR","latitude":40.2184,"longitude":-76.8552},"PAFM":{"rawOb":"METAR PAFM 260756Z AUTO 01007KT 10SM CLR M12/M20 A3051 RMK AO2 SLP344 T11221200 FZRANO $","observationTime":"2026-03-26T07:56:00.000Z","flightCategory":"VFR","latitude":67.106,"longitude":-157.858},"PAKP":{"rawOb":"METAR PAKP 260756Z AUTO 21010KT 10SM CLR M16/M22 A3029 RMK AO2 SLPNO T11611222 411441172 FZRANO $","observationTime":"2026-03-26T07:56:00.000Z","flightCategory":"VFR","latitude":68.136,"longitude":-151.74},"K79J":{"rawOb":"METAR K79J 260756Z AUTO 00000KT 6SM BR CLR 13/13 A3013 RMK AO2 SLP201 T01330128 TSNO","observationTime":"2026-03-26T07:56:00.000Z","flightCategory":"VFR","latitude":31.3061,"longitude":-86.3902},"KLAS":{"rawOb":"METAR KLAS 260756Z 20009G16KT 10SM CLR 27/01 A2985 RMK AO2 SLP080 T02670006 403670200","observationTime":"2026-03-26T07:56:00.000Z","flightCategory":"VFR","latitude":36.0719,"longitude":-115.1634},"PAMD":{"rawOb":"METAR PAMD 260756Z AUTO 03011KT 10SM OVC060 M02/M07 A3005 RMK AO2 SLP177 T10171067 FZRANO $","observationTime":"2026-03-26T07:56:00.000Z","flightCategory":"VFR","latitude":59.442,"longitude":-146.317},"PAMH":{"rawOb":"METAR PAMH 260756Z AUTO 00000KT 10SM CLR M14/M21 A3036 RMK AO2 SLP127 T11391211 410281144 FZRANO $","observationTime":"2026-03-26T07:56:00.000Z","flightCategory":"VFR","latitude":63.889,"longitude":-152.292},"KMSV":{"rawOb":"METAR KMSV 260756Z AUTO 00000KT 10SM OVC075 06/M02 A2996 RMK AO2 SLP150 T00561022","observationTime":"2026-03-26T07:56:00.000Z","flightCategory":"VFR","latitude":41.7056,"longitude":-74.8004},"KSBP":{"rawOb":"METAR KSBP 260756Z 26005KT 8SM CLR 13/11 A3000 RMK AO2 SLP156 T01280111 402720106 $","observationTime":"2026-03-26T07:56:00.000Z","flightCategory":"VFR","latitude":35.2381,"longitude":-120.644},"KUCP":{"rawOb":"METAR KUCP 260756Z AUTO 23004KT 10SM BKN085 15/04 A2989 RMK AO2 SLP135 T01500044","observationTime":"2026-03-26T07:56:00.000Z","flightCategory":"VFR","latitude":41.0228,"longitude":-80.4153},"KSOP":{"rawOb":"METAR KSOP 260756Z AUTO 21007KT 10SM OVC042 14/12 A3017 RMK AO2 SLP221 T01390117 PNO $","observationTime":"2026-03-26T07:56:00.000Z","flightCategory":"VFR","latitude":35.2371,"longitude":-79.3921},"KUKI":{"rawOb":"METAR KUKI 260756Z AUTO 00000KT 10SM CLR 09/06 A3012 RMK AO2 SLP195 T00890056 402500067","observationTime":"2026-03-26T07:56:00.000Z","flightCategory":"VFR","latitude":39.1278,"longitude":-123.2001},"KFSD":{"rawOb":"METAR KFSD 260756Z AUTO 05008KT 10SM CLR 11/04 A2964 RMK AO2 SLP031 T01110044","observationTime":"2026-03-26T07:56:00.000Z","flightCategory":"VFR","latitude":43.5775,"longitude":-96.7539},"KINW":{"rawOb":"METAR KINW 260756Z AUTO 21004KT 10SM CLR 14/M04 A3009 RMK AO2 SLP124 T01391039","observationTime":"2026-03-26T07:56:00.000Z","flightCategory":"VFR","latitude":35.0279,"longitude":-110.7221},"KPQI":{"rawOb":"METAR KPQI 260756Z AUTO VRB04KT 9SM -SN OVC024 M03/M08 A3001 RMK AO2 SNB22 SLP196 P0000 T10281078","observationTime":"2026-03-26T07:56:00.000Z","flightCategory":"MVFR","latitude":46.697,"longitude":-68.054},"KBIH":{"rawOb":"METAR KBIH 260756Z AUTO 29009KT 10SM CLR 13/00 A3000 RMK AO2 SLP115 T01280000 403060061","observationTime":"2026-03-26T07:56:00.000Z","flightCategory":"VFR","latitude":37.3711,"longitude":-118.3589},"KGNA":{"rawOb":"METAR KGNA 260756Z AUTO 10015KT M02/M06 A2981 RMK AO1 SLP106 T10221056 $","observationTime":"2026-03-26T07:56:00.000Z","flightCategory":"null","latitude":47.745,"longitude":-90.346},"PAGA":{"rawOb":"METAR PAGA 260756Z AUTO 26005KT 10SM CLR M18/M23 A3048 RMK AO2 SLP328 T11831233 FZRANO TSNO","observationTime":"2026-03-26T07:56:00.000Z","flightCategory":"VFR","latitude":64.738,"longitude":-156.92},"KD07":{"rawOb":"METAR KD07 260756Z AUTO 03020G28KT 07/01 A2985 RMK AO1 PK WND 03030/0702 SLP107 T00720011","observationTime":"2026-03-26T07:56:00.000Z","flightCategory":"null","latitude":45.0326,"longitude":-102.02},"PAEM":{"rawOb":"METAR PAEM 260756Z AUTO 10SM CLR A3048 RMK AO2 SLPNO FZRANO $","observationTime":"2026-03-26T07:56:00.000Z","flightCategory":"VFR","latitude":62.785,"longitude":-164.488},"KHPN":{"rawOb":"METAR KHPN 260756Z VRB03KT 10SM BKN100 06/02 A3001 RMK AO2 SLP167 T00610022","observationTime":"2026-03-26T07:56:00.000Z","flightCategory":"VFR","latitude":41.0624,"longitude":-73.7045},"KHYA":{"rawOb":"METAR KHYA 260756Z AUTO 21010G18KT 10SM BKN060 OVC070 07/05 A3007 RMK AO2 RAE56 SLP184 P0000 T00670050 $","observationTime":"2026-03-26T07:56:00.000Z","flightCategory":"VFR","latitude":41.6719,"longitude":-70.2697},"PAOU":{"rawOb":"METAR PAOU 260756Z AUTO 19003KT 10SM CLR M13/M16 A3039 RMK AO2 SLP290 T11331156 FZRANO","observationTime":"2026-03-26T07:56:00.000Z","flightCategory":"VFR","latitude":56.006,"longitude":-161.162},"KISP":{"rawOb":"METAR KISP 260756Z AUTO 20013G23KT 10SM OVC110 08/06 A3003 RMK AO2 SLP170 T00780056","observationTime":"2026-03-26T07:56:00.000Z","flightCategory":"VFR","latitude":40.7939,"longitude":-73.1018},"KSXT":{"rawOb":"METAR KSXT 260756Z AUTO 01006KT 10SM CLR M02/M04 A3028 RMK AO2 SLP269 T10221039 401001022","observationTime":"2026-03-26T07:56:00.000Z","flightCategory":"VFR","latitude":42.6,"longitude":-123.366},"KCEC":{"rawOb":"METAR KCEC 260756Z AUTO 34013G22KT 10SM CLR 08/04 A3034 RMK AO2 SLP273 T00830044 401390083","observationTime":"2026-03-26T07:56:00.000Z","flightCategory":"VFR","latitude":41.7836,"longitude":-124.238},"KGAI":{"rawOb":"METAR KGAI 260756Z AUTO 20007KT 10SM CLR 12/02 A3003 RMK AO2 SLP181 T01170017","observationTime":"2026-03-26T07:56:00.000Z","flightCategory":"VFR","latitude":39.1696,"longitude":-77.1653},"KFOD":{"rawOb":"METAR KFOD 260756Z AUTO 00000KT 10SM CLR 13/08 A2968 RMK AO2 SLP059 T01280078 $","observationTime":"2026-03-26T07:56:00.000Z","flightCategory":"VFR","latitude":42.549,"longitude":-94.182},"KFKL":{"rawOb":"METAR KFKL 260756Z AUTO 23009KT 10SM BKN075 13/03 A2989 RMK AO2 SLP120 T01330033","observationTime":"2026-03-26T07:56:00.000Z","flightCategory":"VFR","latitude":41.3805,"longitude":-79.8603},"KBID":{"rawOb":"METAR KBID 260756Z AUTO 19011KT 10SM BKN055 06/04 A3007 RMK AO2 SLP184 T00560039 PNO $","observationTime":"2026-03-26T07:56:00.000Z","flightCategory":"VFR","latitude":41.1668,"longitude":-71.5757},"PANW":{"rawOb":"METAR PANW 260756Z AUTO 32008KT 10SM CLR M13/M18 A3030 RMK AO2 SLP275 T11281178 410721133 FZRANO","observationTime":"2026-03-26T07:56:00.000Z","flightCategory":"VFR","latitude":59.451,"longitude":-157.325},"PANI":{"rawOb":"METAR PANI 260756Z AUTO VRB03KT 10SM CLR M11/M18 A3039 RMK AO2 SLP296 T11111183 410561156 FZRANO $","observationTime":"2026-03-26T07:56:00.000Z","flightCategory":"VFR","latitude":61.578,"longitude":-159.539},"KSGH":{"rawOb":"METAR KSGH 260756Z AUTO 22013KT 10SM -RA FEW100 16/08 A2991 RMK AO2 RAB52 SLP128 P0000 T01560083","observationTime":"2026-03-26T07:56:00.000Z","flightCategory":"VFR","latitude":39.8358,"longitude":-83.8443},"KNGP":{"rawOb":"METAR KNGP 260756Z AUTO 16014KT 10SM CLR 22/20 A3002 RMK AO2 SLP164 T02170200 $","observationTime":"2026-03-26T07:56:00.000Z","flightCategory":"VFR","latitude":27.688,"longitude":-97.292},"PAIN":{"rawOb":"METAR PAIN 260756Z AUTO 00000KT 10SM CLR M19/M24 A3027 RMK AO2 SLP297 T11941244 410561322 FZRANO TSNO $","observationTime":"2026-03-26T07:56:00.000Z","flightCategory":"VFR","latitude":63.733,"longitude":-148.912},"KOWB":{"rawOb":"METAR KOWB 260756Z AUTO 19009KT 10SM CLR 18/12 A2995 RMK AO2 SLP140 T01780117","observationTime":"2026-03-26T07:56:00.000Z","flightCategory":"VFR","latitude":37.7297,"longitude":-87.1683},"KBZN":{"rawOb":"METAR KBZN 260756Z AUTO 30008KT 10SM OVC042 06/M01 A2998 RMK AO2 SLP140 T00561006","observationTime":"2026-03-26T07:56:00.000Z","flightCategory":"VFR","latitude":45.7876,"longitude":-111.1615},"PAKK":{"rawOb":"METAR PAKK 260756Z AUTO 00000KT 10SM CLR M12/M19 A3042 RMK AO2 SLP312 T11171194 FZRANO $","observationTime":"2026-03-26T07:56:00.000Z","flightCategory":"VFR","latitude":64.939,"longitude":-161.156},"PAPN":{"rawOb":"METAR PAPN 260756Z AUTO 22005KT 10SM CLR M12/M14 A3034 RMK AO2 SLP276 T11171139 FZRANO","observationTime":"2026-03-26T07:56:00.000Z","flightCategory":"VFR","latitude":57.578,"longitude":-157.569},"PAKI":{"rawOb":"METAR PAKI 260756Z AUTO 35010KT 10SM CLR M16/M19 A3047 RMK AO2 SLP321 T11561189 FZRANO","observationTime":"2026-03-26T07:56:00.000Z","flightCategory":"VFR","latitude":59.935,"longitude":-164.033},"KSPD":{"rawOb":"METAR KSPD 260756Z AUTO 22010KT 12/M01 A2983 RMK AO1 SLP037 T01171006","observationTime":"2026-03-26T07:56:00.000Z","flightCategory":"null","latitude":37.2834,"longitude":-102.6138},"PAII":{"rawOb":"METAR PAII 260756Z AUTO 34005KT 10SM CLR M12/M15 A3034 RMK AO2 SLP274 T11221150 410561122 FZRANO","observationTime":"2026-03-26T07:56:00.000Z","flightCategory":"VFR","latitude":58.186,"longitude":-157.375},"KCVN":{"rawOb":"METAR KCVN 260756Z AUTO 22009KT 10SM CLR 16/05 A2999 RMK AO2 SLP110 T01610050 $","observationTime":"2026-03-26T07:56:00.000Z","flightCategory":"VFR","latitude":34.4227,"longitude":-103.0803},"KGUC":{"rawOb":"METAR KGUC 260756Z AUTO 07005KT 10SM CLR 03/M03 A3018 RMK AO2 SLP151 T00281033 $","observationTime":"2026-03-26T07:56:00.000Z","flightCategory":"VFR","latitude":38.5322,"longitude":-106.9419},"KP60":{"rawOb":"METAR KP60 260756Z AUTO 30003KT 02/M02 A2997 RMK AO1 SLP102 T00221017","observationTime":"2026-03-26T07:56:00.000Z","flightCategory":"null","latitude":44.5448,"longitude":-110.422},"PAGS":{"rawOb":"METAR PAGS 260756Z AUTO 31007KT 10SM OVC060 M05/M16 A3012 RMK AO2 SLP199 T10501156 FZRANO $","observationTime":"2026-03-26T07:56:00.000Z","flightCategory":"VFR","latitude":58.425,"longitude":-135.707},"PASD":{"rawOb":"METAR PASD 260756Z AUTO 34014G22KT 10SM CLR M06/M12 A3033 RMK AO2 SLPNO T10561122 FZRANO $","observationTime":"2026-03-26T07:56:00.000Z","flightCategory":"VFR","latitude":55.318,"longitude":-160.525},"PAUN":{"rawOb":"METAR PAUN 260756Z AUTO 10007KT 10SM CLR M21/M22 A3050 RMK AO2 SLP334 T12061222 FZRANO","observationTime":"2026-03-26T07:56:00.000Z","flightCategory":"VFR","latitude":63.885,"longitude":-160.794},"PATQ":{"rawOb":"METAR PATQ 260756Z AUTO 10SM CLR M19/M21 A3032 RMK AO2 SLP275 T11891206 FZRANO TSNO $","observationTime":"2026-03-26T07:56:00.000Z","flightCategory":"VFR","latitude":70.469,"longitude":-157.428},"PACX":{"rawOb":"METAR PACX 260756Z AUTO 04003KT 10SM CLR M19/M24 A3045 RMK AO2 SLP934 T11941239 410221256 FZRANO","observationTime":"2026-03-26T07:56:00.000Z","flightCategory":"VFR","latitude":67.252,"longitude":-150.204},"PAVD":{"rawOb":"METAR PAVD 260756Z AUTO 07016G20KT 10SM CLR M03/M17 A3021 RMK AO2 PK WND 01026/0711 SLP229 T10331167 400001094 FZRANO TSNO $","observationTime":"2026-03-26T07:56:00.000Z","flightCategory":"VFR","latitude":61.133,"longitude":-146.251},"PABL":{"rawOb":"METAR PABL 260756Z AUTO 13005KT 10SM CLR M22/M24 A3049 RMK AO2 SLP329 T12171244 411001267 FZRANO","observationTime":"2026-03-26T07:56:00.000Z","flightCategory":"VFR","latitude":65.979,"longitude":-161.146},"PAHC":{"rawOb":"METAR PAHC 260756Z AUTO VRB03KT 10SM CLR M08/M18 A3042 RMK AO2 SLP306 T10781183 410561133 FZRANO","observationTime":"2026-03-26T07:56:00.000Z","flightCategory":"VFR","latitude":62.191,"longitude":-159.773},"PAVC":{"rawOb":"METAR PAVC 260756Z AUTO 25020G29KT CLR M07/M11 A3037 RMK AO2 PK WND 25030/0708 SLP287 T10671106 PWINO FZRANO $","observationTime":"2026-03-26T07:56:00.000Z","flightCategory":"null","latitude":55.115,"longitude":-162.271},"KLGD":{"rawOb":"METAR KLGD 260756Z AUTO 36007KT 10SM OVC055 03/M06 A3029 RMK AO2 SLP265 T00331056 401560033 $","observationTime":"2026-03-26T07:56:00.000Z","flightCategory":"VFR","latitude":45.2906,"longitude":-118.0088},"PAWM":{"rawOb":"METAR PAWM 260756Z AUTO 34007KT 9SM CLR M14/M18 A3046 RMK AO2 SLP323 T11391178 FZRANO $","observationTime":"2026-03-26T07:56:00.000Z","flightCategory":"VFR","latitude":64.688,"longitude":-163.41},"KCAE":{"rawOb":"METAR KCAE 260756Z 23004KT 10SM SCT036 SCT050 OVC090 14/11 A3018 RMK AO2 SLP216 T01390111 $","observationTime":"2026-03-26T07:56:00.000Z","flightCategory":"VFR","latitude":33.9422,"longitude":-81.118},"KOTG":{"rawOb":"METAR KOTG 260756Z AUTO 00000KT 10SM CLR 12/04 A2967 RMK AO2 SLP045 T01170039","observationTime":"2026-03-26T07:56:00.000Z","flightCategory":"VFR","latitude":43.6525,"longitude":-95.5759},"K2WX":{"rawOb":"METAR K2WX 260756Z AUTO 02014G23KT 05/01 A2992 RMK AO1 SLP131 T00500006","observationTime":"2026-03-26T07:56:00.000Z","flightCategory":"null","latitude":45.6043,"longitude":-103.547},"PFNO":{"rawOb":"METAR PFNO 260756Z AUTO 04003KT 10SM CLR M18/M20 A3049 RMK AO2 SLP326 T11781200 FZRANO $","observationTime":"2026-03-26T07:56:00.000Z","flightCategory":"VFR","latitude":66.819,"longitude":-161.024},"KNJK":{"rawOb":"METAR KNJK 260756Z AUTO 25015KT 10SM CLR 27/M03 A2982 RMK AO2 RAE14 SLP115 P0000 T02671028 403720133 $","observationTime":"2026-03-26T07:56:00.000Z","flightCategory":"VFR","latitude":32.823,"longitude":-115.668},"PADK":{"rawOb":"METAR PADK 260756Z AUTO 16010KT 10SM BKN020 02/M02 A3044 RMK AO2 SLP307 T00171022 400611039 FZRANO","observationTime":"2026-03-26T07:56:00.000Z","flightCategory":"MVFR","latitude":51.881,"longitude":-176.644},"KARG":{"rawOb":"METAR KARG 260756Z AUTO 19008KT 10SM CLR 17/14 A2996 RMK AO2 SLP144 T01720139 $","observationTime":"2026-03-26T07:56:00.000Z","flightCategory":"VFR","latitude":36.1256,"longitude":-90.9216},"KBKX":{"rawOb":"METAR KBKX 260756Z AUTO 06013KT 10SM CLR 13/07 A2970 RMK AO2 SLP060 T01330072","observationTime":"2026-03-26T07:56:00.000Z","flightCategory":"VFR","latitude":44.3075,"longitude":-96.8183},"KAUO":{"rawOb":"METAR KAUO 260756Z AUTO 14004KT 10SM CLR 14/12 A3017 RMK AO2 SLP205 T01440117 $","observationTime":"2026-03-26T07:56:00.000Z","flightCategory":"VFR","latitude":32.617,"longitude":-85.4342},"KHEF":{"rawOb":"METAR KHEF 260756Z AUTO 20008KT 10SM BKN100 12/02 A3004 RMK AO2 SLP176 T01170022 $","observationTime":"2026-03-26T07:56:00.000Z","flightCategory":"VFR","latitude":38.724,"longitude":-77.5175},"KHYI":{"rawOb":"METAR KHYI 260756Z 18011KT 10SM OVC021 21/17 A3004 RMK AO2 SLP162 T02110172 $","observationTime":"2026-03-26T07:56:00.000Z","flightCategory":"MVFR","latitude":29.8958,"longitude":-97.8664},"KCWI":{"rawOb":"METAR KCWI 260756Z AUTO 09007KT 10SM CLR 08/06 A2974 RMK AO2 SLP074 T00780056","observationTime":"2026-03-26T07:56:00.000Z","flightCategory":"VFR","latitude":41.8295,"longitude":-90.3328},"PFCL":{"rawOb":"METAR PFCL 260756Z AUTO 10SM CLR M12/M15 A3036 RMK AO2 SLP274 T11221150 FZRANO $","observationTime":"2026-03-26T07:56:00.000Z","flightCategory":"VFR","latitude":58.837,"longitude":-158.526},"KOLU":{"rawOb":"METAR KOLU 260756Z AUTO 19009KT 10SM CLR 19/08 A2968 RMK AO2 SLP040 T01890083","observationTime":"2026-03-26T07:56:00.000Z","flightCategory":"VFR","latitude":41.4472,"longitude":-97.3391},"PFEL":{"rawOb":"METAR PFEL 260756Z AUTO 00000KT 10SM CLR M13/M18 A3046 RMK AO2 SLP319 T11281178 FZRANO $","observationTime":"2026-03-26T07:56:00.000Z","flightCategory":"VFR","latitude":64.616,"longitude":-162.272},"KDYR":{"rawOb":"METAR KDYR 260756Z AUTO 16004KT 10SM CLR 19/12 A3000 RMK AO2 SLP161 T01890122 $","observationTime":"2026-03-26T07:56:00.000Z","flightCategory":"VFR","latitude":35.9957,"longitude":-89.4057},"PAKH":{"rawOb":"METAR PAKH 260756Z AUTO 00000KT CLR A3016 RMK AO2 SLPNO PWINO FZRANO $","observationTime":"2026-03-26T07:56:00.000Z","flightCategory":"null","latitude":56.94,"longitude":-154.181},"KOFK":{"rawOb":"METAR KOFK 260756Z AUTO 02004KT 10SM CLR 15/08 A2964 RMK AO2 SLP027 T01500078","observationTime":"2026-03-26T07:56:00.000Z","flightCategory":"VFR","latitude":41.9799,"longitude":-97.4335},"KJXN":{"rawOb":"METAR KJXN 260756Z AUTO 21010KT 10SM CLR 12/04 A2982 RMK AO2 SLP097 T01170044","observationTime":"2026-03-26T07:56:00.000Z","flightCategory":"VFR","latitude":42.259,"longitude":-84.4589},"KNQI":{"rawOb":"METAR KNQI 260756Z AUTO 16008KT 10SM BKN025 21/19 A3002 RMK AO2 SLP161 T02060189 TSNO $","observationTime":"2026-03-26T07:56:00.000Z","flightCategory":"MVFR","latitude":27.507,"longitude":-97.81},"KOTH":{"rawOb":"METAR KOTH 260756Z AUTO 15005KT 10SM FEW043 04/03 A3047 RMK AO2 SLP316 T00390033","observationTime":"2026-03-26T07:56:00.000Z","flightCategory":"VFR","latitude":43.4194,"longitude":-124.2438},"KJHW":{"rawOb":"METAR KJHW 260756Z AUTO 21007KT 10SM OVC065 11/01 A2985 RMK AO2 SLP115 T01060006","observationTime":"2026-03-26T07:56:00.000Z","flightCategory":"VFR","latitude":42.1534,"longitude":-79.2541},"KCIU":{"rawOb":"METAR KCIU 260756Z AUTO 36005KT 8SM OVC080 M02/M02 A2976 RMK AO2 SLP086 T10171022 FZRANO","observationTime":"2026-03-26T07:56:00.000Z","flightCategory":"VFR","latitude":46.2531,"longitude":-84.4773},"KBHB":{"rawOb":"METAR KBHB 260756Z AUTO 20016G21KT 6SM -RA BR BKN009 OVC015 03/02 A3007 RMK AO2 PK WND 19028/0740 CIG 007V010 SLP183 P0000 T00330022 $","observationTime":"2026-03-26T07:56:00.000Z","flightCategory":"IFR","latitude":44.4549,"longitude":-68.3617},"KCOE":{"rawOb":"METAR KCOE 260756Z AUTO 24008KT 10SM CLR 02/M06 A3012 RMK AO2 SLP228 T00221056 401220022 FZRANO PNO $","observationTime":"2026-03-26T07:56:00.000Z","flightCategory":"VFR","latitude":47.7719,"longitude":-116.8332},"PABA":{"rawOb":"METAR PABA 260756Z AUTO 21008KT 10SM CLR M21/M26 A3040 RMK AO2 SLP313 T12111256 FZRANO TSNO","observationTime":"2026-03-26T07:56:00.000Z","flightCategory":"VFR","latitude":70.135,"longitude":-143.585},"KM19":{"rawOb":"METAR KM19 260756Z AUTO 21009KT 10SM CLR 17/13 A2997 RMK AO2 SLP162 T01720133 $","observationTime":"2026-03-26T07:56:00.000Z","flightCategory":"VFR","latitude":35.643,"longitude":-91.1735},"KMBL":{"rawOb":"METAR KMBL 260756Z AUTO 11003KT 10SM CLR 01/M01 A2975 RMK AO2 SLP078 T00061006 FZRANO $","observationTime":"2026-03-26T07:56:00.000Z","flightCategory":"VFR","latitude":44.2714,"longitude":-86.2378},"KMJX":{"rawOb":"METAR KMJX 260756Z AUTO 19009KT 10SM OVC110 11/06 A3005 RMK AO2 SLP178 T01060061 $","observationTime":"2026-03-26T07:56:00.000Z","flightCategory":"VFR","latitude":39.9235,"longitude":-74.297},"KMKT":{"rawOb":"METAR KMKT 260756Z AUTO 02005KT 10SM BKN110 11/06 A2970 RMK AO2 SLP058 T01060061","observationTime":"2026-03-26T07:56:00.000Z","flightCategory":"VFR","latitude":44.2184,"longitude":-93.9179},"KMQY":{"rawOb":"METAR KMQY 260756Z AUTO 00000KT 10SM CLR 17/12 A3007 RMK AO2 SLP187 T01670117","observationTime":"2026-03-26T07:56:00.000Z","flightCategory":"VFR","latitude":36.0029,"longitude":-86.5144},"KMVN":{"rawOb":"METAR KMVN 260756Z AUTO 20008KT 10SM CLR 19/13 A2988 RMK AO2 SLP121 T01890128 $","observationTime":"2026-03-26T07:56:00.000Z","flightCategory":"VFR","latitude":38.3284,"longitude":-88.853},"KOKK":{"rawOb":"METAR KOKK 260756Z AUTO 23011KT 10SM BKN070 16/12 A2987 RMK AO2 RAB10E24 SLP112 P0001 T01610122 $","observationTime":"2026-03-26T07:56:00.000Z","flightCategory":"VFR","latitude":40.5304,"longitude":-86.055},"KOXC":{"rawOb":"METAR KOXC 260756Z AUTO 18005KT 10SM OVC100 05/03 A3001 RMK AO2 SLP179 T00500028 $","observationTime":"2026-03-26T07:56:00.000Z","flightCategory":"VFR","latitude":41.4741,"longitude":-73.1353},"KNBC":{"rawOb":"METAR KNBC 260756Z AUTO 00000KT 8SM CLR 14/13 A3018 RMK AO2 SLP220 T01390128","observationTime":"2026-03-26T07:56:00.000Z","flightCategory":"VFR","latitude":32.477,"longitude":-80.722},"PAIK":{"rawOb":"METAR PAIK 260756Z AUTO VRB03KT 10SM CLR M14/M21 A3050 RMK AO2 SLP330 T11391206 FZRANO","observationTime":"2026-03-26T07:56:00.000Z","flightCategory":"VFR","latitude":66.975,"longitude":-160.439},"PPIZ":{"rawOb":"METAR PPIZ 260756Z AUTO 20020KT 10SM CLR A3030 RMK AO2 SLPNO FZRANO $","observationTime":"2026-03-26T07:56:00.000Z","flightCategory":"VFR","latitude":69.735,"longitude":-163.003},"PAIG":{"rawOb":"METAR PAIG 260756Z AUTO 19005KT 10SM CLR M16/M18 A3029 RMK AO2 SLP268 T11561183 410221211 FZRANO","observationTime":"2026-03-26T07:56:00.000Z","flightCategory":"VFR","latitude":59.325,"longitude":-155.897},"KEKY":{"rawOb":"METAR KEKY 260756Z AUTO 15005KT CLR 17/13 A3014 RMK AO2 SLP181 T01670128 PWINO RVRNO $","observationTime":"2026-03-26T07:56:00.000Z","flightCategory":"null","latitude":33.314,"longitude":-86.925},"PANU":{"rawOb":"METAR PANU 260756Z AUTO 34004KT 10SM CLR M13/M21 A3049 RMK AO2 SLP236 T11331206 410721156 FZRANO","observationTime":"2026-03-26T07:56:00.000Z","flightCategory":"VFR","latitude":64.7304,"longitude":-158.0752},"KAWO":{"rawOb":"METAR KAWO 260756Z AUTO 00000KT 10SM SCT031 OVC035 03/03 A3039 RMK AO2 RAB10E28 SLP297 P0000 T00280028","observationTime":"2026-03-26T07:56:00.000Z","flightCategory":"VFR","latitude":48.1584,"longitude":-122.1591},"PAVA":{"rawOb":"METAR PAVA 260756Z AUTO 10SM CLR M14/M15 A3050 RMK AO2 SLP330 T11391150 FZRANO $","observationTime":"2026-03-26T07:56:00.000Z","flightCategory":"VFR","latitude":61.537,"longitude":-165.604},"KCOD":{"rawOb":"METAR KCOD 260756Z AUTO 35012G18KT 10SM FEW100 08/M03 A2993 RMK AO2 SLP096 T00781033 $","observationTime":"2026-03-26T07:56:00.000Z","flightCategory":"VFR","latitude":44.52,"longitude":-109.0268},"KOCH":{"rawOb":"METAR KOCH 260756Z AUTO VRB04KT OVC010 19/18 A3007 RMK AO2 SLP185 T01890178 RVRNO $","observationTime":"2026-03-26T07:56:00.000Z","flightCategory":"null","latitude":31.5809,"longitude":-94.7081},"KPTV":{"rawOb":"METAR KPTV 260756Z AUTO 22003KT 10SM CLR 13/11 A3003 RMK AO2 SLP165 T01330106 403000117 $","observationTime":"2026-03-26T07:56:00.000Z","flightCategory":"VFR","latitude":36.0273,"longitude":-119.0629},"PAHP":{"rawOb":"METAR PAHP 260756Z AUTO 32006KT 10SM FEW100 M11/M13 A3048 RMK AO2 SLP321 T11111128 410111200 FZRANO","observationTime":"2026-03-26T07:56:00.000Z","flightCategory":"VFR","latitude":61.519,"longitude":-166.138},"PAGL":{"rawOb":"METAR PAGL 260756Z AUTO 30007KT 10SM CLR M16/M21 A3049 RMK AO2 SLP320 T11611206 FZRANO $","observationTime":"2026-03-26T07:56:00.000Z","flightCategory":"VFR","latitude":64.548,"longitude":-163.013},"PABV":{"rawOb":"METAR PABV 260756Z AUTO 13005KT 10SM CLR M08/M17 A3016 RMK AO2 SLP216 T10781167 410111167 FZRANO $","observationTime":"2026-03-26T07:56:00.000Z","flightCategory":"VFR","latitude":61.416,"longitude":-149.511},"KDUG":{"rawOb":"METAR KDUG 260756Z AUTO 01009KT 10SM CLR 13/M06 A3007 RMK AO2 SLP121 T01281061 TSNO","observationTime":"2026-03-26T07:56:00.000Z","flightCategory":"VFR","latitude":31.4725,"longitude":-109.6022},"KNTU":{"rawOb":"METAR KNTU 260756Z 21007KT 10SM BKN041 OVC048 14/09 A3016 RMK AO2 SLP216 T01390089","observationTime":"2026-03-26T07:56:00.000Z","flightCategory":"VFR","latitude":36.8209,"longitude":-76.0277},"KSFO":{"rawOb":"METAR KSFO 260756Z 28017KT 10SM FEW200 11/08 A3008 RMK AO2 SLP186 T01110083 402060111 $","observationTime":"2026-03-26T07:56:00.000Z","flightCategory":"VFR","latitude":37.6196,"longitude":-122.3656},"PFTO":{"rawOb":"METAR PFTO 260756Z AUTO 30003KT 10SM CLR M23/M26 A3031 RMK AO2 SLP776 T12281256 410891250 FZRANO $","observationTime":"2026-03-26T07:56:00.000Z","flightCategory":"VFR","latitude":63.329,"longitude":-142.954},"KELZ":{"rawOb":"METAR KELZ 260756Z AUTO 21008KT 10SM OVC065 09/M01 A2987 RMK AO2 RAE11 SLP118 P0000 T00891011","observationTime":"2026-03-26T07:56:00.000Z","flightCategory":"VFR","latitude":42.1077,"longitude":-77.9842},"KEKO":{"rawOb":"METAR KEKO 260756Z AUTO 30003KT 10SM CLR 06/M06 A3002 RMK AO2 SLP133 T00611056 402560006","observationTime":"2026-03-26T07:56:00.000Z","flightCategory":"VFR","latitude":40.824,"longitude":-115.7863},"KBJJ":{"rawOb":"METAR KBJJ 260756Z AUTO 23007KT 10SM CLR 12/06 A2989 RMK AO2 SLP122 T01170056","observationTime":"2026-03-26T07:56:00.000Z","flightCategory":"VFR","latitude":40.8732,"longitude":-81.8886},"KWJF":{"rawOb":"METAR KWJF 260756Z AUTO 26019KT 10SM CLR 19/05 A2999 RMK AO2 PK WND 25026/0749 SLP137 T01890050 403110111","observationTime":"2026-03-26T07:56:00.000Z","flightCategory":"VFR","latitude":34.7412,"longitude":-118.2125},"KSLE":{"rawOb":"METAR KSLE 260756Z AUTO 20004KT 10SM CLR 02/00 A3043 RMK AO2 SLP306 T00170000 401330006","observationTime":"2026-03-26T07:56:00.000Z","flightCategory":"VFR","latitude":44.9049,"longitude":-123.001},"KDIJ":{"rawOb":"METAR KDIJ 260756Z AUTO 18007KT 10SM CLR 10/M02 A2997 RMK AO2 SLP103 T01001022 $","observationTime":"2026-03-26T07:56:00.000Z","flightCategory":"VFR","latitude":43.745,"longitude":-111.0913},"KCVO":{"rawOb":"METAR KCVO 260756Z AUTO 00000KT 10SM CLR 01/00 A3045 RMK AO2 SLP318 T00110000 401390006 FZRANO","observationTime":"2026-03-26T07:56:00.000Z","flightCategory":"VFR","latitude":44.5013,"longitude":-123.293},"KMKY":{"rawOb":"METAR KMKY 260756Z AUTO 09003KT 8SM FEW002 17/17 A3009 RMK AO2 SLP189 T01720167 PNO $","observationTime":"2026-03-26T07:56:00.000Z","flightCategory":"VFR","latitude":25.999,"longitude":-81.674},"KLZU":{"rawOb":"METAR KLZU 260756Z AUTO 00000KT OVC070 11/10 A3019 RMK AO2 SLP231 T01110100 PWINO $","observationTime":"2026-03-26T07:56:00.000Z","flightCategory":"null","latitude":33.9828,"longitude":-83.9585},"KTVF":{"rawOb":"METAR KTVF 260756Z AUTO 33016KT 10SM OVC004 M03/M04 A2990 RMK AO2 SLP139 T10331039 FZRANO","observationTime":"2026-03-26T07:56:00.000Z","flightCategory":"LIFR","latitude":48.0597,"longitude":-96.1787},"KSRC":{"rawOb":"METAR KSRC 260756Z AUTO 21005KT 10SM CLR 18/14 A2999 RMK AO2 SLP153 T01780139","observationTime":"2026-03-26T07:56:00.000Z","flightCategory":"VFR","latitude":35.2134,"longitude":-91.7393},"PFSH":{"rawOb":"METAR PFSH 260756Z AUTO 05004KT 10SM CLR M19/M22 A3048 RMK AO2 SLP323 T11941222 FZRANO $","observationTime":"2026-03-26T07:56:00.000Z","flightCategory":"VFR","latitude":64.367,"longitude":-161.217},"PAZK":{"rawOb":"METAR PAZK 260756Z AUTO 34006KT 10SM CLR M19/M23 A3003 RMK AO2 SLP266 T11891233 411221206 FZRANO $","observationTime":"2026-03-26T07:56:00.000Z","flightCategory":"VFR","latitude":61.938,"longitude":-147.169},"KSGT":{"rawOb":"METAR KSGT 260756Z AUTO 21009KT 10SM CLR 19/14 A3002 RMK AO2 SLP163 T01890144 $","observationTime":"2026-03-26T07:56:00.000Z","flightCategory":"VFR","latitude":34.5998,"longitude":-91.5763},"KSGJ":{"rawOb":"METAR KSGJ 260756Z AUTO 31004KT 8SM SCT018 BKN023 OVC037 17/17 A3015 RMK AO2 SLP208 T01670167 $","observationTime":"2026-03-26T07:56:00.000Z","flightCategory":"MVFR","latitude":29.9592,"longitude":-81.341},"KSFZ":{"rawOb":"METAR KSFZ 260756Z AUTO VRB05KT 10SM SCT100 05/ A3003 RMK AO2 RAE20 SLP172 P0000 T0050 $","observationTime":"2026-03-26T07:56:00.000Z","flightCategory":"VFR","latitude":41.9168,"longitude":-71.4924},"PAHL":{"rawOb":"METAR PAHL 260756Z AUTO 02003KT 10SM CLR M14/M19 A3048 RMK AO2 SLP330 T11391194 410441172 FZRANO TSNO $","observationTime":"2026-03-26T07:56:00.000Z","flightCategory":"VFR","latitude":65.699,"longitude":-156.353},"KBOK":{"rawOb":"METAR KBOK 260756Z AUTO 02007G17KT 310V060 10SM CLR 08/01 A3034 RMK AO2 SLP275 T00830011 PNO $","observationTime":"2026-03-26T07:56:00.000Z","flightCategory":"VFR","latitude":42.0754,"longitude":-124.2902},"KBMI":{"rawOb":"METAR KBMI 260756Z AUTO 18016KT 10SM FEW080 17/14 A2980 RMK AO2 TSE13RAE28 SLP083 P0002 T01670139","observationTime":"2026-03-26T07:56:00.000Z","flightCategory":"VFR","latitude":40.4777,"longitude":-88.9144},"KBLM":{"rawOb":"METAR KBLM 260756Z AUTO 22010KT 10SM FEW090 OVC110 11/09 A3004 RMK AO2 RAB35E45 SLP174 P0000 T01110089","observationTime":"2026-03-26T07:56:00.000Z","flightCategory":"VFR","latitude":40.1822,"longitude":-74.1207},"PAGM":{"rawOb":"METAR PAGM 260756Z AUTO 19009KT 3SM BR OVC002 M03/M04 A3041 RMK AO2 SLP303 T10331044 FZRANO","observationTime":"2026-03-26T07:56:00.000Z","flightCategory":"LIFR","latitude":63.777,"longitude":-171.735},"KAJO":{"rawOb":"METAR KAJO 260756Z AUTO 00000KT 6SM BR CLR 14/13 A2998 RMK AO2 SLP148 T01390128 403000111","observationTime":"2026-03-26T07:56:00.000Z","flightCategory":"VFR","latitude":33.8956,"longitude":-117.5961},"K1M4":{"rawOb":"METAR K1M4 260756Z AUTO 18007KT 10SM CLR 16/13 A3011 RMK AO2 SLP955 T01610128 $","observationTime":"2026-03-26T07:56:00.000Z","flightCategory":"VFR","latitude":34.2832,"longitude":-87.5986},"KP28":{"rawOb":"METAR KP28 260756Z AUTO 15006KT 22/16 A2982 RMK AO1 SLP081 T02170156 $","observationTime":"2026-03-26T07:56:00.000Z","flightCategory":"null","latitude":37.2664,"longitude":-98.5463},"KMHS":{"rawOb":"METAR KMHS 260756Z AUTO 10SM CLR 04/M01 A3020 RMK AO2 SLP234 T00441011 402060039 $","observationTime":"2026-03-26T07:56:00.000Z","flightCategory":"VFR","latitude":41.3149,"longitude":-122.3171},"KIWD":{"rawOb":"METAR KIWD 260756Z AUTO 36008KT 10SM SCT070 BKN090 02/M01 A2976 RMK AO2 PRESRR SLP087 T00171011 FZRANO","observationTime":"2026-03-26T07:56:00.000Z","flightCategory":"VFR","latitude":46.5321,"longitude":-90.126},"KRDM":{"rawOb":"METAR KRDM 260756Z AUTO 12005KT 10SM CLR M01/M06 A3030 RMK AO2 WSHFT 0643 SLP267 T10111056 401501017","observationTime":"2026-03-26T07:56:00.000Z","flightCategory":"VFR","latitude":44.2558,"longitude":-121.1407},"KHND":{"rawOb":"METAR KHND 260756Z 19015KT 10SM CLR 24/01 A2988 RMK AO2 SLP107 T02440011 $","observationTime":"2026-03-26T07:56:00.000Z","flightCategory":"VFR","latitude":35.9657,"longitude":-115.1343},"PADL":{"rawOb":"METAR PADL 260756Z AUTO 32005KT 10SM CLR M11/M17 A3034 RMK AO2 SLP280 T11061172 410391117 FZRANO $","observationTime":"2026-03-26T07:56:00.000Z","flightCategory":"VFR","latitude":59.04,"longitude":-158.507},"KSHV":{"rawOb":"METAR KSHV 260756Z 19008KT 10SM CLR 20/17 A3004 RMK SLPNO","observationTime":"2026-03-26T07:56:00.000Z","flightCategory":"VFR","latitude":32.4473,"longitude":-93.8244},"KGPZ":{"rawOb":"METAR KGPZ 260756Z AUTO 18004KT 10SM FEW070 SCT085 BKN120 03/00 A2974 RMK AO2 SLP080 T00330000","observationTime":"2026-03-26T07:56:00.000Z","flightCategory":"VFR","latitude":47.2029,"longitude":-93.5071},"KGDV":{"rawOb":"METAR KGDV 260756Z AUTO 01013KT 10SM OVC095 M02/M04 A3005 RMK AO2 SNE24 SLP189 P0000 T10171039 FZRANO TSNO $","observationTime":"2026-03-26T07:56:00.000Z","flightCategory":"VFR","latitude":47.1401,"longitude":-104.8127},"KGBD":{"rawOb":"METAR KGBD 260756Z AUTO 18021G26KT 10SM CLR 22/14 A2977 RMK AO2 PK WND 19029/0737 SLP057 T02220139 $","observationTime":"2026-03-26T07:56:00.000Z","flightCategory":"VFR","latitude":38.3405,"longitude":-98.8591},"KCGZ":{"rawOb":"METAR KCGZ 260756Z AUTO 00000KT 10SM CLR 21/M03 A2990 RMK AO2 SLP111 T02111033 $","observationTime":"2026-03-26T07:56:00.000Z","flightCategory":"VFR","latitude":32.9531,"longitude":-111.7725},"PASL":{"rawOb":"METAR PASL 260756Z AUTO VRB03KT 10SM CLR M10/M17 A3039 RMK AO2 SLP285 T11001172 410441117 FZRANO","observationTime":"2026-03-26T07:56:00.000Z","flightCategory":"VFR","latitude":61.697,"longitude":-157.167},"KEKQ":{"rawOb":"METAR KEKQ 260756Z AUTO 20005KT 10SM FEW120 16/11 A3008 RMK AO2 SLP175 T01610111 PNO $","observationTime":"2026-03-26T07:56:00.000Z","flightCategory":"VFR","latitude":36.8576,"longitude":-84.8562},"KEAR":{"rawOb":"METAR KEAR 260756Z AUTO 21009KT 10SM CLR 17/01 A2971 RMK AO2 SLP039 T01670011","observationTime":"2026-03-26T07:56:00.000Z","flightCategory":"VFR","latitude":40.7193,"longitude":-99.0086},"KENV":{"rawOb":"METAR KENV 260756Z AUTO VRB03KT 10SM CLR 17/M11 A2995 RMK AO2 SLP108 T01721106","observationTime":"2026-03-26T07:56:00.000Z","flightCategory":"VFR","latitude":40.7211,"longitude":-114.0312},"KBVX":{"rawOb":"METAR KBVX 260756Z AUTO 22010G15KT 10SM CLR 22/14 A2997 RMK AO2 SLP146 T02220144 $","observationTime":"2026-03-26T07:56:00.000Z","flightCategory":"VFR","latitude":35.7259,"longitude":-91.6518},"KDWU":{"rawOb":"METAR KDWU 260756Z AUTO 00000KT 10SM FEW095 16/07 A3000 RMK AO2 SLP156 T01610067 $","observationTime":"2026-03-26T07:56:00.000Z","flightCategory":"VFR","latitude":38.556,"longitude":-82.7375},"KBTP":{"rawOb":"METAR KBTP 260756Z AUTO 23007KT 10SM BKN085 OVC100 14/04 A2991 RMK AO2 SLP132 T01440039 $","observationTime":"2026-03-26T07:56:00.000Z","flightCategory":"VFR","latitude":40.7765,"longitude":-79.9568},"KDVL":{"rawOb":"METAR KDVL 260756Z AUTO 35016KT 9SM -SN OVC009 M08/M09 A3000 RMK AO2 SNB30 SLP186 P0000 T10831094 FZRANO","observationTime":"2026-03-26T07:56:00.000Z","flightCategory":"IFR","latitude":48.1136,"longitude":-98.9034},"KESC":{"rawOb":"METAR KESC 260756Z AUTO 00000KT 8SM BKN009 01/00 A2977 RMK AO2 SLP091 T00060000 FZRANO","observationTime":"2026-03-26T07:56:00.000Z","flightCategory":"IFR","latitude":45.7225,"longitude":-87.0893},"KEWK":{"rawOb":"METAR KEWK 260756Z AUTO 20019G24KT 10SM CLR 21/16 A2981 RMK AO2 PK WND 20026/0740 SLP076 T02110156 $","observationTime":"2026-03-26T07:56:00.000Z","flightCategory":"VFR","latitude":38.0621,"longitude":-97.275},"KRKD":{"rawOb":"METAR KRKD 260756Z AUTO 22011G21KT 8SM -RA OVC010 03/03 A3006 RMK AO2 CIG 009V013 SLP178 P0007 T00330028","observationTime":"2026-03-26T07:56:00.000Z","flightCategory":"MVFR","latitude":44.0611,"longitude":-69.1014},"KFAM":{"rawOb":"METAR KFAM 260756Z AUTO 21008KT 10SM CLR 20/13 A2990 RMK AO2 SLP128 T02000133 $","observationTime":"2026-03-26T07:56:00.000Z","flightCategory":"VFR","latitude":37.7631,"longitude":-90.4292},"KPVU":{"rawOb":"METAR KPVU 260756Z 00000KT 10SM CLR 17/04 A2993 RMK AO2 SLP082 T01670044 PNO $","observationTime":"2026-03-26T07:56:00.000Z","flightCategory":"VFR","latitude":40.224,"longitude":-111.7252},"KFNL":{"rawOb":"METAR KFNL 260756Z AUTO 00000KT 10SM CLR 14/M02 A2985 RMK AO2 SLP034 T01441017 $","observationTime":"2026-03-26T07:56:00.000Z","flightCategory":"VFR","latitude":40.4427,"longitude":-105.0097},"KFRM":{"rawOb":"METAR KFRM 260756Z AUTO 00000KT 10SM CLR 10/06 A2967 RMK AO2 SLP050 T01000061","observationTime":"2026-03-26T07:56:00.000Z","flightCategory":"VFR","latitude":43.6455,"longitude":-94.4168},"KGTR":{"rawOb":"METAR KGTR 260756Z AUTO 17007KT 10SM OVC065 18/15 A3010 RMK AO2 SLP193 T01780150 $","observationTime":"2026-03-26T07:56:00.000Z","flightCategory":"VFR","latitude":33.456,"longitude":-88.593},"KGAD":{"rawOb":"METAR KGAD 260756Z AUTO 00000KT 10SM CLR 10/10 A3015 RMK AO2 SLP213 T01000100 $","observationTime":"2026-03-26T07:56:00.000Z","flightCategory":"VFR","latitude":33.9686,"longitude":-86.0917},"KGVQ":{"rawOb":"METAR KGVQ 260756Z AUTO 20008G14KT 10SM OVC075 12/03 A2977 RMK AO2 SLP080 T01170033","observationTime":"2026-03-26T07:56:00.000Z","flightCategory":"VFR","latitude":43.0298,"longitude":-78.1665},"KHEZ":{"rawOb":"METAR KHEZ 260756Z AUTO 18003KT 10SM CLR 17/16 A3010 RMK AO2 SLP192 T01720156 $","observationTime":"2026-03-26T07:56:00.000Z","flightCategory":"VFR","latitude":31.6159,"longitude":-91.2973},"KHNB":{"rawOb":"METAR KHNB 260756Z AUTO 19010KT 10SM BKN110 18/12 A2992 RMK AO2 SLP129 T01830117","observationTime":"2026-03-26T07:56:00.000Z","flightCategory":"VFR","latitude":38.2505,"longitude":-86.9473},"KNMT":{"rawOb":"METAR KNMT 260756Z AUTO 36013G21KT 10SM 22/17 A2996 RMK AO2 SLP104 T02220172 $","observationTime":"2026-03-26T07:56:00.000Z","flightCategory":"VFR","latitude":28.236,"longitude":-98.724},"KGNR":{"rawOb":"METAR KGNR 260756Z AUTO 16006KT M03/M03 A2990 RMK AO1 SLP143 P0001 T10331033","observationTime":"2026-03-26T07:56:00.000Z","flightCategory":"null","latitude":45.4649,"longitude":-69.5542},"PASH":{"rawOb":"METAR PASH 260756Z AUTO 14007KT 10SM OVC025 M16/M18 A3042 RMK AO2 SLP304 T11561183 FZRANO","observationTime":"2026-03-26T07:56:00.000Z","flightCategory":"MVFR","latitude":66.252,"longitude":-166.084},"KHYS":{"rawOb":"METAR KHYS 260756Z AUTO 18015KT 10SM CLR 22/12 A2974 RMK AO2 PK WND 17026/0707 SLP049 T02170122 $","observationTime":"2026-03-26T07:56:00.000Z","flightCategory":"VFR","latitude":38.8392,"longitude":-99.2742},"PARY":{"rawOb":"METAR PARY 260756Z AUTO 00000KT 10SM CLR M11/M21 A3042 RMK AO2 SLP320 T11061206 410561161 FZRANO TSNO","observationTime":"2026-03-26T07:56:00.000Z","flightCategory":"VFR","latitude":64.731,"longitude":-155.463},"KISM":{"rawOb":"METAR KISM 260756Z AUTO 07003KT 10SM SCT029 SCT035 BKN050 21/19 A3012 RMK AO2 SLP199 T02060194 $","observationTime":"2026-03-26T07:56:00.000Z","flightCategory":"VFR","latitude":28.2924,"longitude":-81.4371},"PARS":{"rawOb":"METAR PARS 260756Z AUTO 10SM CLR M16/M19 A3044 RMK AO2 SLP311 T11561194 FZRANO $","observationTime":"2026-03-26T07:56:00.000Z","flightCategory":"VFR","latitude":61.78,"longitude":-161.321},"KJRB":{"rawOb":"METAR KJRB 260756Z AUTO 00000KT 10SM OVC100 08/07 A3005 RMK AO2 SLP175 T00830072","observationTime":"2026-03-26T07:56:00.000Z","flightCategory":"VFR","latitude":40.701,"longitude":-74.009},"KKLS":{"rawOb":"METAR KKLS 260756Z AUTO 00000KT 10SM OVC038 03/02 A3044 RMK AO2 RAB28E44 SLP313 P0000 T00330022 401280028","observationTime":"2026-03-26T07:56:00.000Z","flightCategory":"VFR","latitude":46.118,"longitude":-122.898},"PAQH":{"rawOb":"METAR PAQH 260756Z AUTO 34010KT 10SM CLR M16/M18 A3043 RMK AO2 SLP307 T11561178 410831178 FZRANO","observationTime":"2026-03-26T07:56:00.000Z","flightCategory":"VFR","latitude":59.751,"longitude":-161.842},"PAOO":{"rawOb":"METAR PAOO 260756Z AUTO 31011KT 10SM M10/M18 A3048 RMK AO2 SLP330 T11001178 FZRANO TSNO $","observationTime":"2026-03-26T07:56:00.000Z","flightCategory":"VFR","latitude":60.537,"longitude":-165.089},"PAOH":{"rawOb":"METAR PAOH 260756Z AUTO 10008G18KT 070V130 10SM BKN055 OVC070 M03/M13 A3012 RMK AO2 SLP200 T10331128 FZRANO $","observationTime":"2026-03-26T07:56:00.000Z","flightCategory":"VFR","latitude":58.108,"longitude":-135.448},"PANV":{"rawOb":"METAR PANV 260756Z AUTO 36004KT 10SM CLR M09/M19 A3041 RMK AO2 SLP443 T10941189 410281122 FZRANO TSNO","observationTime":"2026-03-26T07:56:00.000Z","flightCategory":"VFR","latitude":62.647,"longitude":-160.191},"KLBT":{"rawOb":"METAR KLBT 260756Z AUTO 00000KT 10SM BKN055 11/10 A3017 RMK AO2 SLP215 T01110100","observationTime":"2026-03-26T07:56:00.000Z","flightCategory":"VFR","latitude":34.6082,"longitude":-79.059},"KLBL":{"rawOb":"METAR KLBL 260756Z AUTO 19013KT 10SM CLR 19/07 A2980 RMK AO2 SLP055 T01890072 $","observationTime":"2026-03-26T07:56:00.000Z","flightCategory":"VFR","latitude":37.0375,"longitude":-100.9574},"KLCI":{"rawOb":"METAR KLCI 260756Z AUTO 20006KT 10SM SCT060 OVC080 03/01 A2999 RMK AO2 SLP160 T00280006","observationTime":"2026-03-26T07:56:00.000Z","flightCategory":"VFR","latitude":43.5718,"longitude":-71.4254},"KLEW":{"rawOb":"METAR KLEW 260756Z AUTO 18006KT 10SM OVC007 02/01 A3002 RMK AO2 UPE0657 SLP175 T00170011 FZRANO","observationTime":"2026-03-26T07:56:00.000Z","flightCategory":"IFR","latitude":44.0444,"longitude":-70.2853},"PAMK":{"rawOb":"METAR PAMK 260756Z AUTO 10004KT 10SM CLR M17/M20 A3047 RMK AO2 SLP322 T11671200 FZRANO","observationTime":"2026-03-26T07:56:00.000Z","flightCategory":"VFR","latitude":63.484,"longitude":-162.115},"KGON":{"rawOb":"METAR KGON 260756Z AUTO 17004KT 10SM SCT120 05/04 A3004 RMK AO2 SLP172 T00500039","observationTime":"2026-03-26T07:56:00.000Z","flightCategory":"VFR","latitude":41.3279,"longitude":-72.0489},"KFCI":{"rawOb":"METAR KFCI 260756Z AUTO 20007KT 10SM CLR 12/08 A3013 RMK AO2 SLP213 T01170083 $","observationTime":"2026-03-26T07:56:00.000Z","flightCategory":"VFR","latitude":37.407,"longitude":-77.522},"KCHS":{"rawOb":"METAR KCHS 260756Z 00000KT 7SM MIFG SCT050 SCT200 12/12 A3019 RMK AO2 SLP221 T01170117","observationTime":"2026-03-26T07:56:00.000Z","flightCategory":"VFR","latitude":32.8995,"longitude":-80.0407},"PAAK":{"rawOb":"METAR PAAK 260756Z AUTO 10010KT OVC021 01/M02 A3050 RMK AO2 SLP328 T00111022 PWINO FZRANO TSNO $","observationTime":"2026-03-26T07:56:00.000Z","flightCategory":"null","latitude":52.219,"longitude":-174.208},"KNMM":{"rawOb":"METAR KNMM 260756Z AUTO 00000KT 10SM CLR 18/16 A3011 RMK AO2 SLP204 T01830161","observationTime":"2026-03-26T07:56:00.000Z","flightCategory":"VFR","latitude":32.546,"longitude":-88.543},"PAWG":{"rawOb":"METAR PAWG 260756Z AUTO 09010G15KT 10SM OVC050 01/M07 A3006 RMK AO2 SLP181 T00061072 FZRANO TSNO $","observationTime":"2026-03-26T07:56:00.000Z","flightCategory":"VFR","latitude":56.486,"longitude":-132.377},"PFWS":{"rawOb":"METAR PFWS 260756Z AUTO 34011KT 10SM CLR M10/M14 A3032 RMK AO2 SLP270 T11001144 410781150 FZRANO","observationTime":"2026-03-26T07:56:00.000Z","flightCategory":"VFR","latitude":58.704,"longitude":-157.005},"KART":{"rawOb":"METAR KART 260756Z AUTO 20008KT 10SM OVC090 10/M01 A2978 RMK AO2 SLP083 T01001011 $","observationTime":"2026-03-26T07:56:00.000Z","flightCategory":"VFR","latitude":43.9888,"longitude":-76.0261},"KPVC":{"rawOb":"METAR KPVC 260756Z AUTO 20010KT 10SM -RA BKN050 BKN060 05/05 A3009 RMK AO2 SLP189 T00500050 PNO $","observationTime":"2026-03-26T07:56:00.000Z","flightCategory":"VFR","latitude":42.0743,"longitude":-70.2183},"KY50":{"rawOb":"METAR KY50 260756Z AUTO 14003KT 10SM FEW120 06/04 A2971 RMK AO2 SLP056 T00610044","observationTime":"2026-03-26T07:56:00.000Z","flightCategory":"VFR","latitude":44.0435,"longitude":-89.304},"KPVG":{"rawOb":"METAR KPVG 260756Z AUTO 20005KT 10SM BKN055 13/10 A3017 RMK AO2 SLP218 T01330100 $","observationTime":"2026-03-26T07:56:00.000Z","flightCategory":"VFR","latitude":36.7824,"longitude":-76.452},"KLNR":{"rawOb":"METAR KLNR 260756Z AUTO 11003KT 9SM CLR 04/03 A2972 RMK AO2 SLP060 T00440033","observationTime":"2026-03-26T07:56:00.000Z","flightCategory":"VFR","latitude":43.2111,"longitude":-90.1874},"KNLC":{"rawOb":"METAR KNLC 260756Z AUTO 32008KT 10SM CLR 14/09 A3000 RMK AO2 SLP158 T01440089 403110094","observationTime":"2026-03-26T07:56:00.000Z","flightCategory":"VFR","latitude":36.3024,"longitude":-119.9397},"KPWG":{"rawOb":"METAR KPWG 260756Z AUTO 17011KT 10SM CLR 19/18 A3002 RMK AO2 SLP159 T01940178","observationTime":"2026-03-26T07:56:00.000Z","flightCategory":"VFR","latitude":31.4891,"longitude":-97.3202},"PMDY":{"rawOb":"METAR PMDY 260756Z AUTO 08012KT 10SM CLR 19/17 A3021 RMK AO2 SLP231 T01940167 $","observationTime":"2026-03-26T07:56:00.000Z","flightCategory":"VFR","latitude":28.206,"longitude":-177.382},"KHWV":{"rawOb":"METAR KHWV 260756Z AUTO 20013G23KT 10SM BKN120 08/06 A3005 RMK AO2 SLP176 T00780056 PWINO $","observationTime":"2026-03-26T07:56:00.000Z","flightCategory":"VFR","latitude":40.8212,"longitude":-72.8674},"KRUT":{"rawOb":"METAR KRUT 260756Z AUTO 13009KT 10SM SCT065 BKN120 04/01 A2992 RMK AO2 SLP130 T00390006","observationTime":"2026-03-26T07:56:00.000Z","flightCategory":"VFR","latitude":43.53,"longitude":-72.9517},"KGRD":{"rawOb":"METAR KGRD 260756Z AUTO 18004KT 10SM OVC075 12/10 A3020 RMK AO2 SLP222 T01220100 $","observationTime":"2026-03-26T07:56:00.000Z","flightCategory":"VFR","latitude":34.254,"longitude":-82.1526},"KMDT":{"rawOb":"METAR KMDT 260756Z 16003KT 10SM OVC095 09/03 A2998 RMK AO2 SLP153 T00940028","observationTime":"2026-03-26T07:56:00.000Z","flightCategory":"VFR","latitude":40.1962,"longitude":-76.7725},"KEED":{"rawOb":"METAR KEED 260756Z AUTO 24007KT 10SM CLR 28/M01 A2981 RMK AO2 SLP063 T02781006 403830211","observationTime":"2026-03-26T07:56:00.000Z","flightCategory":"VFR","latitude":34.7678,"longitude":-114.6184},"KEAU":{"rawOb":"METAR KEAU 260756Z AUTO 00000KT 10SM SCT110 09/05 A2971 RMK AO2 SLP059 T00890050","observationTime":"2026-03-26T07:56:00.000Z","flightCategory":"VFR","latitude":44.8665,"longitude":-91.4881},"PAFE":{"rawOb":"METAR PAFE 260756Z AUTO 04011G20KT 5SM -SN BR FEW016 OVC028 M03/M04 A3005 RMK AO2 SLP185 P0002 T10281044 FZRANO","observationTime":"2026-03-26T07:56:00.000Z","flightCategory":"MVFR","latitude":56.961,"longitude":-133.91},"KVIS":{"rawOb":"METAR KVIS 260756Z AUTO 31008KT 10SM CLR 16/12 A3001 RMK AO2 SLP160 T01610117 402940106 $","observationTime":"2026-03-26T07:56:00.000Z","flightCategory":"VFR","latitude":36.3135,"longitude":-119.3884},"KEUL":{"rawOb":"METAR KEUL 260756Z AUTO 27016KT 10SM CLR 08/01 A3013 RMK AO2 SLP195 T00830006 $","observationTime":"2026-03-26T07:56:00.000Z","flightCategory":"VFR","latitude":43.6405,"longitude":-116.6302},"KEGE":{"rawOb":"METAR KEGE 260756Z AUTO 00000KT 10SM CLR 09/M02 A3007 RMK AO2 SLP108 T00891017 $","observationTime":"2026-03-26T07:56:00.000Z","flightCategory":"VFR","latitude":39.6448,"longitude":-106.9176},"KSDY":{"rawOb":"METAR KSDY 260756Z AUTO 36011KT 10SM OVC014 M04/M07 A3010 RMK AO2 SLP212 T10441072 FZRANO $","observationTime":"2026-03-26T07:56:00.000Z","flightCategory":"MVFR","latitude":47.7029,"longitude":-104.1951},"KSGU":{"rawOb":"METAR KSGU 260756Z AUTO 34004KT 10SM CLR 20/M01 A2990 RMK AO2 SLP094 T02001006","observationTime":"2026-03-26T07:56:00.000Z","flightCategory":"VFR","latitude":37.0444,"longitude":-113.5034},"PAMB":{"rawOb":"METAR PAMB 260756Z AUTO 29005KT 10SM CLR M11/M14 A3036 RMK AO2 SLP284 T11061139 FZRANO","observationTime":"2026-03-26T07:56:00.000Z","flightCategory":"VFR","latitude":58.986,"longitude":-159.05},"PALG":{"rawOb":"METAR PALG 260756Z AUTO 00000KT 10SM CLR M14/M19 A3043 RMK AO2 SLP307 T11391194 410331139 FZRANO","observationTime":"2026-03-26T07:56:00.000Z","flightCategory":"VFR","latitude":61.538,"longitude":-160.34},"KSLG":{"rawOb":"METAR KSLG 260756Z AUTO 19008KT 10SM CLR 18/14 A2996 RMK AO2 SLP133 T01830139","observationTime":"2026-03-26T07:56:00.000Z","flightCategory":"VFR","latitude":36.1941,"longitude":-94.488},"KSQI":{"rawOb":"METAR KSQI 260756Z AUTO 11004KT 10SM CLR 10/07 A2976 RMK AO2 SLP074 T01000067 $","observationTime":"2026-03-26T07:56:00.000Z","flightCategory":"VFR","latitude":41.7432,"longitude":-89.6655},"KUDG":{"rawOb":"METAR KUDG 260756Z AUTO 24004KT 10SM CLR 12/12 A3018 RMK AO2 SLP221 T01220117 $","observationTime":"2026-03-26T07:56:00.000Z","flightCategory":"VFR","latitude":34.4474,"longitude":-79.8902},"KVBT":{"rawOb":"METAR KVBT 260756Z AUTO 20007KT 10SM CLR 20/14 A2996 RMK AO2 SLP137 T02000144 $","observationTime":"2026-03-26T07:56:00.000Z","flightCategory":"VFR","latitude":36.3444,"longitude":-94.2211},"KWWD":{"rawOb":"METAR KWWD 260756Z AUTO 18009KT 10SM BKN110 11/07 A3009 RMK AO2 SLP191 T01060072 $","observationTime":"2026-03-26T07:56:00.000Z","flightCategory":"VFR","latitude":39.0108,"longitude":-74.9079},"KYKN":{"rawOb":"METAR KYKN 260756Z AUTO 11006KT 10SM CLR 16/06 A2959 RMK AO2 PRESFR SLP026 T01610061","observationTime":"2026-03-26T07:56:00.000Z","flightCategory":"VFR","latitude":42.9141,"longitude":-97.3807},"PAJC":{"rawOb":"METAR PAJC 260756Z AUTO 24006KT 10SM FEW026 M07/M14 A3032 RMK AO2 SLP270 T10721139 FZRANO","observationTime":"2026-03-26T07:56:00.000Z","flightCategory":"VFR","latitude":56.312,"longitude":-158.374},"RJOI":{"rawOb":"METAR RJOI 260756Z 16009KT 10SM FEW030 FEW250 16/09 A2986 RMK AO2 SLP111 T01610094 $","observationTime":"2026-03-26T07:56:00.000Z","flightCategory":"VFR","latitude":34.144,"longitude":132.236},"PFKT":{"rawOb":"METAR PFKT 260756Z AUTO 08007KT 10SM BKN039 M14/M18 A3047 RMK AO2 SLP320 T11441178 FZRANO $","observationTime":"2026-03-26T07:56:00.000Z","flightCategory":"VFR","latitude":65.33,"longitude":-166.479},"PHNY":{"rawOb":"METAR PHNY 260756Z AUTO 04023G29KT 10SM CLR 19/16 A3001 RMK AO2 PK WND 03029/0751 SLP144 T01890161 $","observationTime":"2026-03-26T07:56:00.000Z","flightCategory":"VFR","latitude":20.783,"longitude":-156.955},"PAWS":{"rawOb":"METAR PAWS 260756Z AUTO 10SM CLR M03/M17 A3014 RMK AO2 SLP181 T10331172 410171078 FZRANO $","observationTime":"2026-03-26T07:56:00.000Z","flightCategory":"VFR","latitude":61.571,"longitude":-149.538},"LICZ":{"rawOb":"METAR LICZ 260755Z 26016KT 9999 SCT070 15/11 Q1006 RMK BKN SCT200 VIS MIN 9999 WIND THR 28 26015KT WIND THR 10 ///// KT A2972 BLU","observationTime":"2026-03-26T07:55:00.000Z","flightCategory":"VFR","latitude":37.406,"longitude":14.919},"LIQO":{"rawOb":"METAR LIQO 260755Z AUTO 33015KT //// // ///////// 04/01 Q0994 RMK ///","observationTime":"2026-03-26T07:55:00.000Z","flightCategory":"null","latitude":42.387,"longitude":11.17},"K1HW":{"rawOb":"METAR K1HW 260755Z AUTO 27006KT 10SM OVC120 22/M01 A2976 RMK AO2 SLP016 T02201013 $","observationTime":"2026-03-26T07:55:00.000Z","flightCategory":"VFR","latitude":41.325,"longitude":-102.83},"KCEF":{"rawOb":"METAR KCEF 260755Z AUTO 20008KT 10SM OVC110 06/02 A2998 RMK AO2 SLP157 T00560024","observationTime":"2026-03-26T07:55:00.000Z","flightCategory":"VFR","latitude":42.201,"longitude":-72.525},"KBIF":{"rawOb":"METAR KBIF 260755Z AUTO 13005KT 10SM CLR 20/M07 A2998 RMK AO2 SLP084 T02011074 $","observationTime":"2026-03-26T07:55:00.000Z","flightCategory":"VFR","latitude":31.861,"longitude":-106.369},"K1YT":{"rawOb":"METAR K1YT 260755Z AUTO 20005KT 10SM CLR 01/M06 A3023 RMK AO2 SLP247 T00051062 401581002 $","observationTime":"2026-03-26T07:55:00.000Z","flightCategory":"VFR","latitude":46.668,"longitude":-120.457},"KPHP":{"rawOb":"METAR KPHP 260755Z AUTO 36010KT 10SM CLR 09/02 A2979 RMK AO2 SLP075 T00940017","observationTime":"2026-03-26T07:55:00.000Z","flightCategory":"VFR","latitude":44.051,"longitude":-101.6014},"KLCK":{"rawOb":"METAR KLCK 260755Z AUTO 20008KT 10SM SCT090 15/09 A2993 RMK AO2 T01520091","observationTime":"2026-03-26T07:55:00.000Z","flightCategory":"VFR","latitude":39.83,"longitude":-82.919},"K1MN":{"rawOb":"METAR K1MN 260755Z AUTO 35014KT 9SM -SN OVC010 M09/M10 M RMK AO2 SNE0655SNB39 CIG 008V010 SLPNO P0000 T10861102 $","observationTime":"2026-03-26T07:55:00.000Z","flightCategory":"MVFR","latitude":48.67,"longitude":-101.88},"KSCK":{"rawOb":"METAR KSCK 260755Z AUTO 29006KT 10SM CLR 14/10 A3001 RMK AO2 SLP163 T01390100 402830083","observationTime":"2026-03-26T07:55:00.000Z","flightCategory":"VFR","latitude":37.89,"longitude":-121.2264},"LIQW":{"rawOb":"METAR LIQW 260755Z 35011KT 9999 SCT040 11/M03 Q0996 RMK OVC BKN070 VIS MIN 9999 WIND THR14 34011KT BLU","observationTime":"2026-03-26T07:55:00.000Z","flightCategory":"VFR","latitude":44.088,"longitude":9.987},"LIRG":{"rawOb":"METAR LIRG 260755Z /////KT 9999 -TSRA FEW025CB SCT035 10/04 Q0995 RMK BKN MON NE CIME INC NC VIS MIN 9999 BLU","observationTime":"2026-03-26T07:55:00.000Z","flightCategory":"VFR","latitude":41.996,"longitude":12.735},"RODN":{"rawOb":"METAR RODN 260755Z 35010KT 10SM FEW040 24/12 A2990 RMK AO2A SLPNO T02320125 RVRNO FZRANO TSNO $","observationTime":"2026-03-26T07:55:00.000Z","flightCategory":"VFR","latitude":26.356,"longitude":127.768},"LIVM":{"rawOb":"METAR LIVM 260755Z AUTO 04027G37KT //// // ///////// 09/07 Q0988 RMK ///","observationTime":"2026-03-26T07:55:00.000Z","flightCategory":"null","latitude":44.441,"longitude":12.296},"EGUL":{"rawOb":"METAR EGUL 260755Z AUTO 31010KT 9999 CLR 03/M01 A3015 RMK AO2 SLP214 T00341006 $","observationTime":"2026-03-26T07:55:00.000Z","flightCategory":"VFR","latitude":52.409,"longitude":0.561},"LIRH":{"rawOb":"METAR LIRH 260755Z 26005G21KT 3500 -RA BR BKN030 SCT035TCU 07/04 Q0996 RMK BKN MON CIME INC NC VIS MIN 3500 WIND THR16 /////KT YLO","observationTime":"2026-03-26T07:55:00.000Z","flightCategory":"IFR","latitude":41.646,"longitude":13.3},"LIRS":{"rawOb":"METAR LIRS 260755Z 36011KT 9999 FEW020TCU SCT022 10/04 Q0996 RMK BKN VIS MIN 9999 WIND THR03 02012KT WIND THR21 02012KT BLU","observationTime":"2026-03-26T07:55:00.000Z","flightCategory":"VFR","latitude":42.76,"longitude":11.072},"LIRY":{"rawOb":"METAR LIRY 260755Z AUTO VRB01KT //// // ///////// ///// Q0995","observationTime":"2026-03-26T07:55:00.000Z","flightCategory":"null","latitude":-99.99,"longitude":-99.99},"KGUS":{"rawOb":"METAR KGUS 260755Z AUTO 22009KT 10SM BKN070 BKN085 OVC130 16/11 A2983 RMK AO2 DZB0655E0656RAB10E13 SLP102 P0010 T01560114 $","observationTime":"2026-03-26T07:55:00.000Z","flightCategory":"VFR","latitude":40.6375,"longitude":-86.1631},"LIPA":{"rawOb":"METAR LIPA 260755Z 05011KT 9999 SCT050 BKN070 10/M00 Q0994 RMK OVC VIS MIN 9999 WIND THR05 /////KT WIND THR23 /////KT A2937 BLU","observationTime":"2026-03-26T07:55:00.000Z","flightCategory":"VFR","latitude":46.03,"longitude":12.599},"KOFF":{"rawOb":"METAR KOFF 260755Z AUTO 00000KT 10SM SCT190 BKN220 13/08 A2967 RMK AO2 SLP047 T01260077","observationTime":"2026-03-26T07:55:00.000Z","flightCategory":"VFR","latitude":41.122,"longitude":-95.91},"KTDR":{"rawOb":"METAR KTDR 260755Z AUTO 06003KT 9SM CLR 16/16 A3006 RMK AO2 SLP180 T01620159 $","observationTime":"2026-03-26T07:55:00.000Z","flightCategory":"VFR","latitude":30.038,"longitude":-85.528},"KIRK":{"rawOb":"METAR KIRK 260755Z AUTO 22009KT 10SM CLR 20/14 A2974 RMK AO2 SLP065 T02000139","observationTime":"2026-03-26T07:55:00.000Z","flightCategory":"VFR","latitude":40.0966,"longitude":-92.5469},"KPRX":{"rawOb":"METAR KPRX 260755Z AUTO 18007KT 10SM CLR 18/15 A3000 RMK AO2 SLP154 T01830150 PNO","observationTime":"2026-03-26T07:55:00.000Z","flightCategory":"VFR","latitude":33.636,"longitude":-95.4514},"LIPC":{"rawOb":"METAR LIPC 260755Z 28031G43KT 5000 RA BR SCT008 BKN015 02/02 Q0989 RMK OVC VIS MIN 5000 WIND THR11 28027G41KT WIND THR29 28027G37KT WHT","observationTime":"2026-03-26T07:55:00.000Z","flightCategory":"MVFR","latitude":44.224,"longitude":12.307},"KTIK":{"rawOb":"METAR KTIK 260755Z AUTO 20013KT 10SM CLR 21/15 A2989 RMK AO2 SLP109 T02080149 $","observationTime":"2026-03-26T07:55:00.000Z","flightCategory":"VFR","latitude":35.415,"longitude":-97.386},"KMMT":{"rawOb":"METAR KMMT 260755Z AUTO 00000KT 10SM SCT042 OVC055 14/10 A3016 RMK AO2 SLP215 T01370103 $","observationTime":"2026-03-26T07:55:00.000Z","flightCategory":"VFR","latitude":33.922,"longitude":-80.802},"KLIC":{"rawOb":"METAR KLIC 260755Z AUTO 35005KT 10SM CLR 07/M03 A2989 RMK AO2 SLP057 T00671028","observationTime":"2026-03-26T07:55:00.000Z","flightCategory":"VFR","latitude":39.2733,"longitude":-103.6674},"KWRB":{"rawOb":"METAR KWRB 260755Z AUTO 33003KT 9SM CLR 11/10 A3017 RMK AO2 SLP218 T01110098","observationTime":"2026-03-26T07:55:00.000Z","flightCategory":"VFR","latitude":32.639,"longitude":-83.593},"KHOP":{"rawOb":"METAR KHOP 260755Z AUTO 18008KT 10SM FEW150 20/12 A2998 RMK AO2 LTG DSNT N SLP150 T01970124","observationTime":"2026-03-26T07:55:00.000Z","flightCategory":"VFR","latitude":36.672,"longitude":-87.495},"K1HM":{"rawOb":"METAR K1HM 260755Z AUTO 14010KT 10SM OVC120 M03/M06 A2997 RMK AO2 SLP166 T10351060 $","observationTime":"2026-03-26T07:55:00.000Z","flightCategory":"VFR","latitude":47.698,"longitude":-111.943},"KGTU":{"rawOb":"METAR KGTU 260755Z AUTO 16013G24KT 10SM OVC019 21/17 A3003 RMK AO2 SLPNO T02060167","observationTime":"2026-03-26T07:55:00.000Z","flightCategory":"MVFR","latitude":30.6809,"longitude":-97.6767},"PHSF":{"rawOb":"METAR PHSF 260755Z AUTO 10004KT 10SM CLR 11/09 A3025 RMK AO2 SLP138 T01070086 $","observationTime":"2026-03-26T07:55:00.000Z","flightCategory":"VFR","latitude":19.758,"longitude":-155.557},"RKSO":{"rawOb":"METAR RKSO 260755Z 29009KT 7SM FEW210 17/03 A2991 RMK AO2A SLP132 T01650025 FZRANO $","observationTime":"2026-03-26T07:55:00.000Z","flightCategory":"VFR","latitude":37.091,"longitude":127.03},"LIVE":{"rawOb":"METAR LIVE 260755Z AUTO 35011KT 320V030 //// // ///////// M03/M07 Q1001 RMK ///","observationTime":"2026-03-26T07:55:00.000Z","flightCategory":"null","latitude":46.833,"longitude":10.5},"K1LW":{"rawOb":"METAR K1LW 260755Z AUTO 33009KT 10SM SCT140 18/M03 A2982 RMK AO2 SLP031 T01771026 $","observationTime":"2026-03-26T07:55:00.000Z","flightCategory":"VFR","latitude":40.921,"longitude":-103.691},"KMGE":{"rawOb":"METAR KMGE 260755Z AUTO 00000KT 10SM CLR 13/09 A3015 RMK AO2 SLP208 T01270088 $","observationTime":"2026-03-26T07:55:00.000Z","flightCategory":"VFR","latitude":33.9189,"longitude":-84.5267},"KFCS":{"rawOb":"METAR KFCS 260755Z AUTO 32006KT 10SM CLR 14/M03 A2993 RMK AO2 SLP065 T01431031 $","observationTime":"2026-03-26T07:55:00.000Z","flightCategory":"VFR","latitude":38.6756,"longitude":-104.751},"KFTK":{"rawOb":"METAR KFTK 260755Z AUTO 19011KT 10SM BKN130 18/12 A2995 RMK AO2 SLP139 T01810123","observationTime":"2026-03-26T07:55:00.000Z","flightCategory":"VFR","latitude":37.907,"longitude":-85.973},"LIVD":{"rawOb":"METAR LIVD 260755Z AUTO 30004KT 220V330 //// // ///////// M01/M02 Q1000 RMK /// WIND THR/////KT","observationTime":"2026-03-26T07:55:00.000Z","flightCategory":"null","latitude":46.729,"longitude":12.228},"KXNO":{"rawOb":"METAR KXNO 260755Z AUTO 00000KT 10SM SCT055 14/12 A3017 RMK AO2 SLP218 T01390116 $","observationTime":"2026-03-26T07:55:00.000Z","flightCategory":"VFR","latitude":33.612,"longitude":-81.07},"KFFO":{"rawOb":"METAR KFFO 260755Z AUTO 21010KT 10SM FEW070 SCT100 BKN150 16/09 A2990 RMK AO2 SLP126 T01630090","observationTime":"2026-03-26T07:55:00.000Z","flightCategory":"VFR","latitude":39.837,"longitude":-84.035},"KBAD":{"rawOb":"METAR KBAD 260755Z AUTO 13005KT 10SM CLR 18/16 A3004 RMK AO2 SLP175 T01800158 $","observationTime":"2026-03-26T07:55:00.000Z","flightCategory":"VFR","latitude":32.488,"longitude":-93.658},"BGTL":{"rawOb":"METAR BGTL 260755Z AUTO 10009KT 9999 CLR M28/M36 A2978 RMK AO2 SLP071 T12801360 TSNO ?","observationTime":"2026-03-26T07:55:00.000Z","flightCategory":"VFR","latitude":76.527,"longitude":-68.758},"KBLV":{"rawOb":"METAR KBLV 260755Z AUTO 20005KT 10SM CLR 18/14 A2982 RMK AO2 SLP098 T01820141 $","observationTime":"2026-03-26T07:55:00.000Z","flightCategory":"VFR","latitude":38.54,"longitude":-89.845},"KFAF":{"rawOb":"METAR KFAF 260755Z AUTO 20004KT 10SM OVC036 15/09 A3015 RMK AO2 SLP213 T01450091 $","observationTime":"2026-03-26T07:55:00.000Z","flightCategory":"VFR","latitude":37.134,"longitude":-76.61},"K1FW":{"rawOb":"METAR K1FW 260755Z AUTO 28008KT 10SM FEW140 20/04 A2981 RMK AO2 SLP020 T01950040 $","observationTime":"2026-03-26T07:55:00.000Z","flightCategory":"VFR","latitude":41.364,"longitude":-103.489},"LIMY":{"rawOb":"METAR LIMY 260755Z AUTO 31014KT //// // ///////// ///// Q//// RMK ///","observationTime":"2026-03-26T07:55:00.000Z","flightCategory":"null","latitude":44.258,"longitude":7.794},"KFRI":{"rawOb":"METAR KFRI 260755Z AUTO 21018G25KT 10SM CLR 24/14 A2972 RMK AO2 SLP051 T02400141 $","observationTime":"2026-03-26T07:55:00.000Z","flightCategory":"VFR","latitude":39.0568,"longitude":-96.7617},"LIPI":{"rawOb":"METAR LIPI 260755Z 34014KT 9999 FEW020 BKN070 09/M01 Q0995 RMK OVC VIS MIN 9999 WIND THR06 01015KT WIND THR24 01007KT BLU","observationTime":"2026-03-26T07:55:00.000Z","flightCategory":"VFR","latitude":45.979,"longitude":13.049},"KADW":{"rawOb":"METAR KADW 260755Z AUTO 21014KT 10SM BKN100 13/02 A3002 RMK AO2 SLP172 T01270020 $","observationTime":"2026-03-26T07:55:00.000Z","flightCategory":"VFR","latitude":38.8215,"longitude":-76.8654},"KP58":{"rawOb":"METAR KP58 260755Z AUTO 00000KT 04/M01 A2978 RMK AO1 SLP089 T00391006","observationTime":"2026-03-26T07:55:00.000Z","flightCategory":"null","latitude":44.0217,"longitude":-82.7929},"KHRT":{"rawOb":"METAR KHRT 260755Z 01004KT 10SM CLR 13/12 A3011 RMK AO2A SLP194 T01340121 $","observationTime":"2026-03-26T07:55:00.000Z","flightCategory":"VFR","latitude":30.428,"longitude":-86.69},"LIPS":{"rawOb":"METAR LIPS 260755Z 33003KT 9999 -RA SCT015 BKN030 07/04 Q0996 RMK OVC VIS MIN 9999 WIND THR26 35005KT WIND THR08 33003KT BLU","observationTime":"2026-03-26T07:55:00.000Z","flightCategory":"MVFR","latitude":45.689,"longitude":12.101},"KMUI":{"rawOb":"METAR KMUI 260755Z AUTO 00000KT 10SM OVC080 08/03 A2997 RMK AO2 SLP153 T00810034","observationTime":"2026-03-26T07:55:00.000Z","flightCategory":"VFR","latitude":40.4381,"longitude":-76.5643},"LIMN":{"rawOb":"METAR LIMN 260755Z 35016KT 9999 SCT060 11/M10 Q1000 RMK SCT VIS MIN 9999 WIND THR/////KT BLU","observationTime":"2026-03-26T07:55:00.000Z","flightCategory":"VFR","latitude":45.53,"longitude":8.669},"LIBA":{"rawOb":"METAR LIBA 260755Z 22020G34KT 9999 SCT040 14/03 Q0996 RMK SCT VIS MIN 9999 WIND THR11 21024G34KT WIND THR29 /////KT BLU","observationTime":"2026-03-26T07:55:00.000Z","flightCategory":"VFR","latitude":41.538,"longitude":15.714},"KLRF":{"rawOb":"METAR KLRF 260755Z AUTO 19004KT 10SM CLR 20/14 A2998 RMK AO2 SLP152 T02000143","observationTime":"2026-03-26T07:55:00.000Z","flightCategory":"VFR","latitude":34.92,"longitude":-92.131},"KDOV":{"rawOb":"METAR KDOV 260755Z AUTO 20013KT 10SM OVC100 13/08 A3003 RMK AO2 SLP173 T01290076","observationTime":"2026-03-26T07:55:00.000Z","flightCategory":"VFR","latitude":39.13,"longitude":-75.465},"K1IM":{"rawOb":"METAR K1IM 260755Z AUTO 11008KT 10SM OVC065 02/M03 A2997 RMK AO2 SLP163 T00201035 $","observationTime":"2026-03-26T07:55:00.000Z","flightCategory":"VFR","latitude":47.312,"longitude":-111.473},"KGSB":{"rawOb":"METAR KGSB 260755Z 19004KT 10SM SCT045 BKN050 BKN200 12/10 A3019 RMK SLPNO WND DATA ESTMD ALSTG ESTMD RVRNO TSNO $","observationTime":"2026-03-26T07:55:00.000Z","flightCategory":"VFR","latitude":35.3445,"longitude":-77.9458},"LIBY":{"rawOb":"METAR LIBY 260755Z AUTO 03005KT 350V060 //// // ///////// 15/06 Q1002 RMK ///","observationTime":"2026-03-26T07:55:00.000Z","flightCategory":"null","latitude":39.811,"longitude":18.342},"KIAB":{"rawOb":"METAR KIAB 260755Z AUTO 22016KT 10SM CLR 22/16 A2981 RMK AO2 SLP082 T02190159","observationTime":"2026-03-26T07:55:00.000Z","flightCategory":"VFR","latitude":37.622,"longitude":-97.268},"KU16":{"rawOb":"METAR KU16 260755Z AUTO 14006KT 10SM CLR 14/M07 A2992 RMK AO2 SLP094 T01351067","observationTime":"2026-03-26T07:55:00.000Z","flightCategory":"VFR","latitude":41.059,"longitude":-113.083},"PKMJ":{"rawOb":"METAR PKMJ 260755Z 25007KT 15SM FEW015 SCT050 BKN0120 OVC300 26/24 A2981 RMK LAST","observationTime":"2026-03-26T07:55:00.000Z","flightCategory":"VFR","latitude":7.065,"longitude":171.269},"LICF":{"rawOb":"METAR LICF 260755Z AUTO VRB06KT //// // ///////// 16/07 Q1005 RMK ///","observationTime":"2026-03-26T07:55:00.000Z","flightCategory":"null","latitude":38.2,"longitude":15.549},"RKSG":{"rawOb":"METAR RKSG 260755Z 34006KT 6SM HZ CLR 17/04 A2989 RMK AO2A SLP121 WND DATA ESTMD ALSTG/SLP ESTMD T01690038 PWINO $","observationTime":"2026-03-26T07:55:00.000Z","flightCategory":"VFR","latitude":36.962,"longitude":127.031},"LIED":{"rawOb":"METAR LIED 260755Z 32019G29KT 9999 -RA FEW008 SCT020 BKN040 11/01 Q1008 RMK OVC VIS MIN 9999 WIND THR34 30017KT WIND THR16 32015G21KT BLU","observationTime":"2026-03-26T07:55:00.000Z","flightCategory":"VFR","latitude":39.354,"longitude":8.973},"KSEQ":{"rawOb":"METAR KSEQ 260755Z AUTO 19009KT 10SM OVC020 21/18 A2998 RMK AO2 SLP148 T02130179 $","observationTime":"2026-03-26T07:55:00.000Z","flightCategory":"MVFR","latitude":29.566,"longitude":-97.908},"KMXF":{"rawOb":"METAR KMXF 260755Z AUTO 13004KT 10SM CLR 16/14 A3011 RMK AO2 SLP198 T01570137","observationTime":"2026-03-26T07:55:00.000Z","flightCategory":"VFR","latitude":32.3877,"longitude":-86.3724},"KGXF":{"rawOb":"METAR KGXF 260755Z AUTO 14008KT 10SM CLR 24/M06 A2984 RMK AO2 SLP090 T02381063 FZRANO $","observationTime":"2026-03-26T07:55:00.000Z","flightCategory":"VFR","latitude":32.885,"longitude":-112.721},"LIRL":{"rawOb":"METAR LIRL 260755Z 26012KT 7000 - RA SCT020 BKN030 10/03 Q0997 RMK OVC MON CLD CIME NC VIS MIN 7000 WIND THR12/////KT WIND THR30/////KT WHT","observationTime":"2026-03-26T07:55:00.000Z","flightCategory":"MVFR","latitude":41.545,"longitude":12.91},"KDYS":{"rawOb":"METAR KDYS 260755Z AUTO 18007KT 10SM CLR 20/11 A2992 RMK AO2 SLP107 T01970109","observationTime":"2026-03-26T07:55:00.000Z","flightCategory":"VFR","latitude":32.406,"longitude":-99.85},"KVAD":{"rawOb":"METAR KVAD 260755Z AUTO 00000KT 10SM OVC004 16/15 A3015 RMK AO2 SLPNO T01590154 $","observationTime":"2026-03-26T07:55:00.000Z","flightCategory":"LIFR","latitude":30.979,"longitude":-83.192},"KFHU":{"rawOb":"METAR KFHU 260755Z AUTO 25011KT 10SM CLR 20/M07 A3012 RMK AO2 SLP129 T01961069","observationTime":"2026-03-26T07:55:00.000Z","flightCategory":"VFR","latitude":31.586,"longitude":-110.348},"LIRM":{"rawOb":"METAR LIRM 260755Z 21027G37KT 9999 FEW040 SCT080 13/M06 Q0998 RMK BKN VIS MIN 9999 WIND THR06 /////KT BLU","observationTime":"2026-03-26T07:55:00.000Z","flightCategory":"VFR","latitude":41.061,"longitude":14.082},"KAAT":{"rawOb":"METAR KAAT 260755Z AUTO 32006KT 10SM CLR 04/M01 A3020 RMK AO2 SLP209 T00441006 402060028","observationTime":"2026-03-26T07:55:00.000Z","flightCategory":"VFR","latitude":41.4836,"longitude":-120.5615},"KHMN":{"rawOb":"METAR KHMN 260755Z 09005KT 10SM FEW200 20/M09 A3001 RMK AO2A SLP085 T02041090 $","observationTime":"2026-03-26T07:55:00.000Z","flightCategory":"VFR","latitude":32.852,"longitude":-106.108},"K1AW":{"rawOb":"METAR K1AW 260755Z AUTO 36004KT 10SM OVC160 18/M02 A2987 RMK AO2 RAB05E21 SLP035 P0000 T01751017 $","observationTime":"2026-03-26T07:55:00.000Z","flightCategory":"VFR","latitude":41.329,"longitude":-104.265},"PAFB":{"rawOb":"METAR PAFB 260755Z 01004KT 10SM CLR M17/M24 A3039 RMK AO2A SLP308 T11731240","observationTime":"2026-03-26T07:55:00.000Z","flightCategory":"VFR","latitude":64.836,"longitude":-147.614},"LIMS":{"rawOb":"METAR LIMS 260755Z /////KT 9999 SCT020 BKN080 09/M03 Q0997 RMK OVC VIS MIN 9999 WIND THR30 28015KT BLU","observationTime":"2026-03-26T07:55:00.000Z","flightCategory":"VFR","latitude":44.913,"longitude":9.723},"KXIF":{"rawOb":"METAR KXIF 260755Z AUTO 20007KT 9SM BKN090 12/01 A2997 RMK AO2 SLP153 T01240014 $","observationTime":"2026-03-26T07:55:00.000Z","flightCategory":"VFR","latitude":-99.99,"longitude":-99.99},"LIRV":{"rawOb":"METAR LIRV 260755Z 33007KT 290V010 9999 FEW024 BKN040 04/02 Q0994 RMK BKN MON E SE LIB VAR RAPID VIS MIN 9999 BLU","observationTime":"2026-03-26T07:55:00.000Z","flightCategory":"VFR","latitude":42.43,"longitude":12.064},"K1GW":{"rawOb":"METAR K1GW 260755Z AUTO 31003KT 10SM FEW100 BKN140 OVC180 24/M02 A2982 RMK AO2 SLP028 T02411017 $","observationTime":"2026-03-26T07:55:00.000Z","flightCategory":"VFR","latitude":41.208,"longitude":-103.097},"KHST":{"rawOb":"METAR KHST 260755Z AUTO 00000KT 10SM CLR 18/16 A3006 RMK AO2 SLP183 T01840160","observationTime":"2026-03-26T07:55:00.000Z","flightCategory":"VFR","latitude":25.49,"longitude":-80.379},"KLUF":{"rawOb":"METAR KLUF 260755Z 00000KT 10SM CLR 23/00 A2983 RMK AO2A SLP087 T02320003 $","observationTime":"2026-03-26T07:55:00.000Z","flightCategory":"VFR","latitude":33.538,"longitude":-112.38},"KGRF":{"rawOb":"METAR KGRF 260755Z AUTO 14008KT 10SM CLR 03/01 A3037 RMK AO2 SLP290 T00250009 401190018 $","observationTime":"2026-03-26T07:55:00.000Z","flightCategory":"VFR","latitude":47.079,"longitude":-122.58},"KCOF":{"rawOb":"METAR KCOF 260755Z AUTO 17004KT 10SM FEW035 22/20 A3006 RMK AO2 RAE21DZB21E27 SLP184 P0004 T02220203 $","observationTime":"2026-03-26T07:55:00.000Z","flightCategory":"VFR","latitude":28.242,"longitude":-80.608},"KDAA":{"rawOb":"METAR KDAA 260755Z AUTO 19006KT 10SM FEW110 FEW170 12/05 A3002 RMK AO2 SLP169 T01210046 $","observationTime":"2026-03-26T07:55:00.000Z","flightCategory":"VFR","latitude":38.714,"longitude":-77.178},"KFSI":{"rawOb":"METAR KFSI 260755Z AUTO 16007KT 10SM CLR 20/15 A2985 RMK AO2 SLP097 T02010149 $","observationTime":"2026-03-26T07:55:00.000Z","flightCategory":"VFR","latitude":34.6457,"longitude":-98.404},"KGUR":{"rawOb":"METAR KGUR 260755Z AUTO 30005KT 9SM CLR 15/M03 A2981 RMK AO2 SLP064 T01461032","observationTime":"2026-03-26T07:55:00.000Z","flightCategory":"VFR","latitude":42.261,"longitude":-104.732},"KBAB":{"rawOb":"METAR KBAB 260755Z AUTO 05005KT 10SM CLR 16/10 A3000 RMK AO2 SLP161 T01600101 402900087 $","observationTime":"2026-03-26T07:55:00.000Z","flightCategory":"VFR","latitude":39.145,"longitude":-121.436},"KHIF":{"rawOb":"METAR KHIF 260755Z AUTO 18004KT 10SM OVC120 19/05 A2993 RMK AO2 SLP076 T01870045 $","observationTime":"2026-03-26T07:55:00.000Z","flightCategory":"VFR","latitude":41.111,"longitude":-111.962},"LIMU":{"rawOb":"METAR LIMU 260755Z AUTO /////KT //// // ///////// 13/M13 Q0999 RMK ///","observationTime":"2026-03-26T07:55:00.000Z","flightCategory":"null","latitude":43.958,"longitude":8.17},"KTQS":{"rawOb":"METAR KTQS 260755Z AUTO 35007KT 8SM CLR 14/13 A3001 RMK AO2 SLP165 T01350133 401900098 $","observationTime":"2026-03-26T07:55:00.000Z","flightCategory":"VFR","latitude":34.633,"longitude":-120.6175},"LIRX":{"rawOb":"METAR LIRX 260755Z AUTO 33017KT 9999 ///////// 07/00 Q0995 RMK /// VIS MIN 9999","observationTime":"2026-03-26T07:55:00.000Z","flightCategory":"VFR","latitude":42.731,"longitude":10.396},"LIVR":{"rawOb":"METAR LIVR 260755Z AUTO 36012KT 9999 ///////// M07/M12 Q0994 RMK /// VIS MIN 9999","observationTime":"2026-03-26T07:55:00.000Z","flightCategory":"VFR","latitude":46.298,"longitude":11.787},"LIVT":{"rawOb":"METAR LIVT 260755Z AUTO 14010G26KT 060V200 //// // ///////// 08/02 Q0994 RMK ///","observationTime":"2026-03-26T07:55:00.000Z","flightCategory":"null","latitude":45.677,"longitude":13.754},"KFEW":{"rawOb":"METAR KFEW 260755Z AUTO 30007KT 10SM FEW120 SCT140 12/M02 A2992 RMK AO2 SLP048 T01231024 $","observationTime":"2026-03-26T07:55:00.000Z","flightCategory":"VFR","latitude":41.141,"longitude":-104.869},"LIMK":{"rawOb":"METAR LIMK 260755Z AUTO 31023KT //// // ///////// 06/M13 Q0999 RMK ///","observationTime":"2026-03-26T07:55:00.000Z","flightCategory":"null","latitude":45.033,"longitude":7.731},"KCNK":{"rawOb":"METAR KCNK 260755Z AUTO 21019G27KT 10SM CLR 23/12 A2970 RMK AO2 PK WND 20027/0717 SLP038 T02280122","observationTime":"2026-03-26T07:55:00.000Z","flightCategory":"VFR","latitude":39.5513,"longitude":-97.6508},"KVOK":{"rawOb":"METAR KVOK 260755Z AUTO 14006KT 10SM SCT130 09/05 A2966 RMK AO2 SLP046 T00850051 $","observationTime":"2026-03-26T07:55:00.000Z","flightCategory":"VFR","latitude":43.938,"longitude":-90.253},"KLLJ":{"rawOb":"METAR KLLJ 260755Z AUTO 25005KT 10SM CLR 10/M04 A2992 RMK AO2 SLP087 T01001039","observationTime":"2026-03-26T07:55:00.000Z","flightCategory":"VFR","latitude":44.523,"longitude":-114.2161},"K1NW":{"rawOb":"METAR K1NW 260755Z AUTO 23011KT 10SM OVC180 17/M02 A2979 RMK AO2 SLP018 T01711016 $","observationTime":"2026-03-26T07:55:00.000Z","flightCategory":"VFR","latitude":40.632,"longitude":-103.836},"KEND":{"rawOb":"METAR KEND 260755Z 16012KT 10SM CLR 21/16 A2982 RMK AO2A SLP084 T02060158 $","observationTime":"2026-03-26T07:55:00.000Z","flightCategory":"VFR","latitude":36.338,"longitude":-97.919},"KRCA":{"rawOb":"METAR KRCA 260755Z AUTO 35006KT 10SM CLR 12/02 A2982 RMK AO2 SLP080 T01160023","observationTime":"2026-03-26T07:55:00.000Z","flightCategory":"VFR","latitude":44.155,"longitude":-103.118},"LIQC":{"rawOb":"METAR LIQC 260755Z AUTO 25014KT 9999 ///////// 12/04 Q0997 RMK /// VIS MIN 9999","observationTime":"2026-03-26T07:55:00.000Z","flightCategory":"VFR","latitude":40.558,"longitude":14.201},"KNKX":{"rawOb":"METAR KNKX 260755Z 00000KT OVC004 15/14 A2997 RMK AO2 SLP142 T01500139 402500128 $","observationTime":"2026-03-26T07:55:00.000Z","flightCategory":"null","latitude":32.865,"longitude":-117.137},"KMCF":{"rawOb":"METAR KMCF 260755Z AUTO 04006KT 10SM CLR 19/18 A3008 RMK AO2 SLP189 T01880178","observationTime":"2026-03-26T07:55:00.000Z","flightCategory":"VFR","latitude":27.8598,"longitude":-82.5132},"KSSC":{"rawOb":"METAR KSSC 260755Z 21006KT 10SM FEW055 14/12 A3017 RMK AO2A SLP217 T01390118 $","observationTime":"2026-03-26T07:55:00.000Z","flightCategory":"VFR","latitude":33.978,"longitude":-80.466},"KAST":{"rawOb":"METAR KAST 260755Z AUTO 00000KT 10SM BKN037 OVC090 03/01 A3042 RMK AO2 SLP299 T00280011 401110022 $","observationTime":"2026-03-26T07:55:00.000Z","flightCategory":"VFR","latitude":46.157,"longitude":-123.8833},"PGUA":{"rawOb":"METAR PGUA 260755Z 16005KT 10SM SCT015 BKN025 25/24 A2975 RMK AO2A RAB02E21 SLP065 P0001 T02530242 $","observationTime":"2026-03-26T07:55:00.000Z","flightCategory":"MVFR","latitude":13.583,"longitude":144.918},"K1KW":{"rawOb":"METAR K1KW 260755Z AUTO 00000KT 10SM BKN140 21/M03 A2979 RMK AO2 SLP014 T02061032 $","observationTime":"2026-03-26T07:55:00.000Z","flightCategory":"VFR","latitude":41.137,"longitude":-103.488},"KGOV":{"rawOb":"METAR KGOV 260755Z AUTO 00000KT 10SM CLR M01/M03 A2973 RMK AO2 SLP082 T10131026 $","observationTime":"2026-03-26T07:55:00.000Z","flightCategory":"VFR","latitude":44.681,"longitude":-84.727},"K1IW":{"rawOb":"METAR K1IW 260755Z AUTO 29007KT 10SM BKN150 BKN180 BKN200 23/M01 A2978 RMK AO2 SLP017 T02301012 $","observationTime":"2026-03-26T07:55:00.000Z","flightCategory":"VFR","latitude":41.046,"longitude":-102.865},"PAEI":{"rawOb":"METAR PAEI 260755Z 00000KT 10SM CLR M19/M23 A3038 RMK AO2A SLP307 AURBO T11861229","observationTime":"2026-03-26T07:55:00.000Z","flightCategory":"VFR","latitude":64.654,"longitude":-147.094},"K1NM":{"rawOb":"METAR K1NM 260755Z AUTO 00000KT 1 1/2SM -SN BR OVC029 M01/M02 A3000 RMK AO2 VIS 1 1/2V4 SLP173 P0002 T10071017 $","observationTime":"2026-03-26T07:55:00.000Z","flightCategory":"IFR","latitude":47.059,"longitude":-109.031},"K1KM":{"rawOb":"METAR K1KM 260755Z AUTO 00000KT 10SM -RA FEW015 SCT030 BKN040 OVC060 02/M01 A2998 RMK AO2 RAE0655RAB51 SLP152 P0000 T00231011 $","observationTime":"2026-03-26T07:55:00.000Z","flightCategory":"VFR","latitude":46.444,"longitude":-109.801},"K1OM":{"rawOb":"METAR K1OM 260755Z AUTO 15008KT 8SM -SN OVC029 M01/M02 A3001 RMK AO2 SNE0655SNB32 CIG 029V037 SLP176 P0000 T10091025 $","observationTime":"2026-03-26T07:55:00.000Z","flightCategory":"MVFR","latitude":47.328,"longitude":-108.927},"K1CM":{"rawOb":"METAR K1CM 260755Z AUTO 07007KT 1 3/8SM -SN BR FEW004 OVC008 M00/M01 A2997 RMK AO2 SLP156 P0002 T10031009 $","observationTime":"2026-03-26T07:55:00.000Z","flightCategory":"IFR","latitude":47.096,"longitude":-110.164},"LIVF":{"rawOb":"METAR LIVF 260755Z AUTO 22012KT //// // ///////// 04/01 Q0990 RMK ///","observationTime":"2026-03-26T07:55:00.000Z","flightCategory":"null","latitude":43.517,"longitude":12.728},"K1JM":{"rawOb":"METAR K1JM 260755Z AUTO 03010KT 10SM BKN003 BKN085 OVC110 M04/M05 A2999 RMK AO2 CIG 003V110 BKN003 V FEW SLP173 T10431054 $","observationTime":"2026-03-26T07:55:00.000Z","flightCategory":"LIFR","latitude":47.751,"longitude":-111.547},"KEAT":{"rawOb":"METAR KEAT 260755Z AUTO 35007KT 10SM CLR 03/M03 A3023 RMK AO2 SLP241 T00281028 401440017","observationTime":"2026-03-26T07:55:00.000Z","flightCategory":"VFR","latitude":47.3975,"longitude":-120.2013},"K1BM":{"rawOb":"METAR K1BM 260755Z AUTO 19004KT 1SM -SN BR VV008 00/M01 A3001 RMK AO2 CIG 008V010 SLP174 P0002 T00031006 RVRNO $","observationTime":"2026-03-26T07:55:00.000Z","flightCategory":"IFR","latitude":47.285,"longitude":-110.359},"K1EM":{"rawOb":"METAR K1EM 260755Z AUTO 16008KT 10SM -RA OVC039 02/M03 A3000 RMK AO2 RAE0655DZB0655E05RAB39 PRESRR SLP169 P0000 T00151026 $","observationTime":"2026-03-26T07:55:00.000Z","flightCategory":"VFR","latitude":47.454,"longitude":-109.416},"KLSV":{"rawOb":"METAR KLSV 260755Z AUTO 13004KT 10SM CLR 26/M04 A2978 RMK AO2 SLP057 T02561039 403590190 $","observationTime":"2026-03-26T07:55:00.000Z","flightCategory":"VFR","latitude":36.236,"longitude":-115.034},"KRYM":{"rawOb":"METAR KRYM 260755Z AUTO 31004KT 10SM -RA BKN065 OVC080 07/07 A2974 RMK AO2 SLP076 P0005 T00740067 $","observationTime":"2026-03-26T07:55:00.000Z","flightCategory":"VFR","latitude":46.0878,"longitude":-94.353},"K1BW":{"rawOb":"METAR K1BW 260755Z AUTO 26004KT 10SM BKN140 OVC160 19/02 A2988 RMK AO2 TSB14E29 SLP044 T01860020 $","observationTime":"2026-03-26T07:55:00.000Z","flightCategory":"VFR","latitude":41.511,"longitude":-103.995},"KCMY":{"rawOb":"METAR KCMY 260755Z AUTO 00000KT 10SM SCT130 04/02 A2968 RMK AO2 SLP055 T00350023","observationTime":"2026-03-26T07:55:00.000Z","flightCategory":"VFR","latitude":43.9581,"longitude":-90.7398},"KRDR":{"rawOb":"METAR KRDR 260755Z 01017G24KT 10SM OVC007 M05/M07 A2994 RMK AO2A SLP156 T10531073","observationTime":"2026-03-26T07:55:00.000Z","flightCategory":"IFR","latitude":47.9477,"longitude":-97.4029},"KWRI":{"rawOb":"METAR KWRI 260755Z AUTO 21010G17KT 10SM OVC100 10/05 A3003 RMK AO2 SLP169 T00980050 $","observationTime":"2026-03-26T07:55:00.000Z","flightCategory":"VFR","latitude":40.016,"longitude":-74.591},"KSUU":{"rawOb":"METAR KSUU 260755Z AUTO 21013KT 10SM CLR 13/08 A2999 RMK AO2 SLP162 T01330077 402760103","observationTime":"2026-03-26T07:55:00.000Z","flightCategory":"VFR","latitude":38.25,"longitude":-121.938},"KSKA":{"rawOb":"METAR KSKA 260755Z 25016KT 10SM CLR 01/M04 A3012 RMK AO2A SLP210 T00061044 401210005 $","observationTime":"2026-03-26T07:55:00.000Z","flightCategory":"VFR","latitude":47.612,"longitude":-117.679},"KLTS":{"rawOb":"METAR KLTS 260755Z AUTO 14007KT 10SM CLR 17/13 A2986 RMK AO2 SLP094 T01740125 $","observationTime":"2026-03-26T07:55:00.000Z","flightCategory":"VFR","latitude":34.666,"longitude":-99.27},"KSVN":{"rawOb":"METAR KSVN 260755Z AUTO 00000KT 8SM CLR 15/14 A3013 RMK AO2 SLP206 T01470139 $","observationTime":"2026-03-26T07:55:00.000Z","flightCategory":"VFR","latitude":32.011,"longitude":-81.131},"KCAO":{"rawOb":"METAR KCAO 260755Z AUTO 24009KT 10SM CLR 15/M02 A2993 RMK AO2 SLP063 T01501022","observationTime":"2026-03-26T07:55:00.000Z","flightCategory":"VFR","latitude":36.4483,"longitude":-103.1537},"KHON":{"rawOb":"METAR KHON 260755Z AUTO 02016KT 10SM CLR 13/07 A2968 RMK AO2 PK WND 04027/0719 SLP044 T01280067","observationTime":"2026-03-26T07:55:00.000Z","flightCategory":"VFR","latitude":44.3792,"longitude":-98.2227},"TNCB":{"rawOb":"METAR TNCB 260755Z AUTO 10012KT 9999 FEW020/// SCT032/// 26/21 Q1011","observationTime":"2026-03-26T07:55:00.000Z","flightCategory":"VFR","latitude":12.133,"longitude":-68.277},"KAFF":{"rawOb":"METAR KAFF 260755Z AUTO 01009KT 10SM CLR 10/M02 A2997 RMK AO2 SLP055 T01031024","observationTime":"2026-03-26T07:55:00.000Z","flightCategory":"VFR","latitude":38.971,"longitude":-104.816},"KSLI":{"rawOb":"METAR KSLI 260755Z AUTO 00000KT 5SM BR CLR 15/13 A2991 RMK AO2 SLP131 T01510131 402540146","observationTime":"2026-03-26T07:55:00.000Z","flightCategory":"MVFR","latitude":33.796,"longitude":-118.042},"K1GM":{"rawOb":"METAR K1GM 260755Z AUTO 31007KT 10SM FEW060 BKN080 OVC100 01/M05 M RMK AO2 SLPNO T00101051 $","observationTime":"2026-03-26T07:55:00.000Z","flightCategory":"VFR","latitude":47.325,"longitude":-112.093},"KT70":{"rawOb":"METAR KT70 260755Z AUTO 14011KT 10SM CLR 22/17 A2995 RMK AO2 SLP128 T02150173 $","observationTime":"2026-03-26T07:55:00.000Z","flightCategory":"VFR","latitude":29.117,"longitude":-100.473},"K1EW":{"rawOb":"METAR K1EW 260755Z AUTO 00000KT 10SM SCT180 17/M04 A2983 RMK AO2 SLP029 T01701043 $","observationTime":"2026-03-26T07:55:00.000Z","flightCategory":"VFR","latitude":41.103,"longitude":-103.983},"KDLF":{"rawOb":"METAR KDLF 260755Z AUTO 11013KT 10SM CLR 23/18 A2992 RMK AO2 SLP119 T02280175 $","observationTime":"2026-03-26T07:55:00.000Z","flightCategory":"VFR","latitude":29.3666,"longitude":-100.7847},"KEDW":{"rawOb":"METAR KEDW 260755Z AUTO 20009KT 10SM CLR 17/01 A2994 RMK AO2 SLP117 T01690009 403310106 $","observationTime":"2026-03-26T07:55:00.000Z","flightCategory":"VFR","latitude":34.908,"longitude":-117.874},"K4MR":{"rawOb":"METAR K4MR 260755Z AUTO 20016G23KT 10SM CLR 21/06 A2994 RMK AO2 SLP039 T02110058 $","observationTime":"2026-03-26T07:55:00.000Z","flightCategory":"VFR","latitude":34.29,"longitude":-103.791},"KADF":{"rawOb":"METAR KADF 260755Z AUTO 00000KT 6SM BR CLR 14/12 A3002 RMK AO2 SLP164 T01440122","observationTime":"2026-03-26T07:55:00.000Z","flightCategory":"VFR","latitude":34.0953,"longitude":-93.069},"KQHY":{"rawOb":"METAR KQHY 260755Z AUTO 00000KT 10SM CLR 15/14 A3013 RMK AO2 SLPNO T01480142","observationTime":"2026-03-26T07:55:00.000Z","flightCategory":"VFR","latitude":-99.99,"longitude":-99.99},"KLFI":{"rawOb":"METAR KLFI 260755Z 23008KT 10SM FEW035 SCT048 SCT170 14/09 A3014 RMK AO2A SLP213 T01440088 $","observationTime":"2026-03-26T07:55:00.000Z","flightCategory":"VFR","latitude":37.088,"longitude":-76.349},"KMKG":{"rawOb":"METAR KMKG 260755Z AUTO 00000KT 10SM CLR 08/04 A2976 RMK AO2 SLP079 T00830044 $","observationTime":"2026-03-26T07:55:00.000Z","flightCategory":"VFR","latitude":43.1711,"longitude":-86.2369},"KGPI":{"rawOb":"METAR KGPI 260755Z AUTO 21008KT 10SM FEW065 SCT090 BKN100 01/M04 A3000 RMK AO2 SLP168 T00111039","observationTime":"2026-03-26T07:55:00.000Z","flightCategory":"VFR","latitude":48.3041,"longitude":-114.2643},"K1JW":{"rawOb":"METAR K1JW 260755Z AUTO 22008KT 10SM CLR 20/M01 A2977 RMK AO2 SLP011 T02021010 $","observationTime":"2026-03-26T07:55:00.000Z","flightCategory":"VFR","latitude":40.961,"longitude":-103.199},"KU19":{"rawOb":"METAR KU19 260755Z AUTO 05009KT 10SM FEW120 19/M07 A2990 RMK AO2 SLPNO T01871069","observationTime":"2026-03-26T07:55:00.000Z","flightCategory":"VFR","latitude":40.1604,"longitude":-113.4506},"KQD3":{"rawOb":"METAR KQD3 260755Z 02007G15KT 350V050 9999 SCT027 BKN035 31/23 A2984 RMK AO2A SLP096 WND DATA ESTMD T03090234","observationTime":"2026-03-26T07:55:00.000Z","flightCategory":"VFR","latitude":-99.99,"longitude":-99.99},"RKJK":{"rawOb":"METAR RKJK 260755Z VRB06KT 10SM CLR 10/05 A2996 RMK AO2A SLP150 WND DATA ESTMD T00960052 $","observationTime":"2026-03-26T07:55:00.000Z","flightCategory":"VFR","latitude":35.9,"longitude":126.618},"KBKT":{"rawOb":"METAR KBKT 260755Z AUTO 21008KT 10SM CLR 11/06 A3012 RMK AO2 SLP202 T01130064","observationTime":"2026-03-26T07:55:00.000Z","flightCategory":"VFR","latitude":37.082,"longitude":-77.953},"KSXS":{"rawOb":"METAR KSXS 260755Z AUTO 00000KT 10SM CLR 15/14 A3014 RMK AO2 SLP206 T01540141","observationTime":"2026-03-26T07:55:00.000Z","flightCategory":"VFR","latitude":31.364,"longitude":-85.846},"KDMA":{"rawOb":"METAR KDMA 260755Z 11007KT 10SM CLR 19/M04 A3000 RMK AO2A SLP160","observationTime":"2026-03-26T07:55:00.000Z","flightCategory":"VFR","latitude":32.165,"longitude":-110.887},"PATL":{"rawOb":"METAR PATL 260755Z AUTO VRB03KT 10SM CLR M11/M21 A3036 RMK AO2 SLP313 T11141212","observationTime":"2026-03-26T07:55:00.000Z","flightCategory":"VFR","latitude":62.893,"longitude":-155.977},"TNCE":{"rawOb":"METAR TNCE 260755Z AUTO 09010KT 060V120 //// // ///////// 25/21 Q1014 RE//","observationTime":"2026-03-26T07:55:00.000Z","flightCategory":"null","latitude":17.497,"longitude":-62.979},"KCBM":{"rawOb":"METAR KCBM 260755Z 19007KT 10SM BKN070 20/15 A3005 RMK AO2A SLP176 T01960150 $","observationTime":"2026-03-26T07:55:00.000Z","flightCategory":"VFR","latitude":33.6519,"longitude":-88.4567},"PAED":{"rawOb":"METAR PAED 260755Z 00000KT 10SM CLR M08/M16 A3012 RMK AO2A SLP199 T10811162 RVRNO $","observationTime":"2026-03-26T07:55:00.000Z","flightCategory":"VFR","latitude":61.25,"longitude":-149.837},"OTBH":{"rawOb":"METAR OTBH 260755Z 13019G23KT 9000 HZ FEW150 FEW200 28/22 A2964 Q1004 RMK AO2A SLP038 T02800220 FZRANO $","observationTime":"2026-03-26T07:55:00.000Z","flightCategory":"VFR","latitude":25.117,"longitude":51.315},"KNKT":{"rawOb":"METAR KNKT 260755Z 00000KT 10SM FEW055 08/07 A3020 RMK AO2 SLP222 T00830072","observationTime":"2026-03-26T07:55:00.000Z","flightCategory":"VFR","latitude":34.897,"longitude":-76.881},"KINS":{"rawOb":"METAR KINS 260755Z 00000KT 10SM CLR 22/M02 A2989 RMK AO2A SLP069 T02231025 403340138 $","observationTime":"2026-03-26T07:55:00.000Z","flightCategory":"VFR","latitude":36.586,"longitude":-115.69},"KRIV":{"rawOb":"METAR KRIV 260755Z AUTO 29003KT 10SM CLR 16/12 A2997 RMK AO2 SLP135 T01620120 403280099","observationTime":"2026-03-26T07:55:00.000Z","flightCategory":"VFR","latitude":33.878,"longitude":-117.244},"KGTB":{"rawOb":"METAR KGTB 260755Z AUTO 14008KT 10SM OVC080 07/00 A2975 RMK AO2 SLP077 T00670002 $","observationTime":"2026-03-26T07:55:00.000Z","flightCategory":"VFR","latitude":44.0618,"longitude":-75.7218},"ETEB":{"rawOb":"METAR ETEB 260755Z AUTO 31009KT 9999 FEW013 SCT021 BKN031 03/M01 A2982 RMK AO2 RAB0658E11RAB20E33 SLP124 P0000 T00251011 FZRANO $","observationTime":"2026-03-26T07:55:00.000Z","flightCategory":"VFR","latitude":49.308,"longitude":10.639},"KSZL":{"rawOb":"METAR KSZL 260755Z 22014KT 10SM CLR 22/15 A2979 RMK AO2A SLP082 T02200146 CHINO RWY01 $","observationTime":"2026-03-26T07:55:00.000Z","flightCategory":"VFR","latitude":38.736,"longitude":-93.55},"KSKF":{"rawOb":"METAR KSKF 260755Z AUTO 14013KT 10SM OVC013 22/18 A2999 RMK AO2 SLP148 T02150175 $","observationTime":"2026-03-26T07:55:00.000Z","flightCategory":"MVFR","latitude":29.392,"longitude":-98.581},"KNTD":{"rawOb":"METAR KNTD 260755Z AUTO 01008KT 5SM BR FEW005 14/14 A2994 RMK AO2 SLP139 T01440139 402000144 PWINO CHINO S $","observationTime":"2026-03-26T07:55:00.000Z","flightCategory":"MVFR","latitude":34.124,"longitude":-119.123},"KCVS":{"rawOb":"METAR KCVS 260755Z AUTO 23006KT 10SM CLR 19/05 A2997 RMK AO2 SLP073 T01900054 $","observationTime":"2026-03-26T07:55:00.000Z","flightCategory":"VFR","latitude":34.381,"longitude":-103.322},"PAEH":{"rawOb":"METAR PAEH 260755Z AUTO 36007KT 10SM SCT180 SCT210 M10/M13 A3037 RMK AO2 SLP304 T10991135 $","observationTime":"2026-03-26T07:55:00.000Z","flightCategory":"VFR","latitude":58.652,"longitude":-162.062},"KBYS":{"rawOb":"METAR KBYS 260755Z AUTO 21005KT 10SM CLR 20/02 A2991 RMK AO2 SLP102 T02000023 403390164 $","observationTime":"2026-03-26T07:55:00.000Z","flightCategory":"VFR","latitude":35.271,"longitude":-116.634},"EGUN":{"rawOb":"METAR EGUN 260755Z 32009KT 9999 FEW060 04/M01 A3014 RMK AO2A SLP210 T00381006 $","observationTime":"2026-03-26T07:55:00.000Z","flightCategory":"VFR","latitude":52.362,"longitude":0.486},"PAIM":{"rawOb":"METAR PAIM 260755Z AUTO VRB01KT 10SM CLR M15/M22 A3039 RMK AO2 SLP335 T11531217","observationTime":"2026-03-26T07:55:00.000Z","flightCategory":"VFR","latitude":65.994,"longitude":-153.695},"LIPL":{"rawOb":"METAR LIPL 260755Z /////KT 9999 SCT050 SCT070 08/06 Q0996 RMK OVC VIS MIN 9999 WIND THR31 26003KT WIND THR13 26003KT BLU","observationTime":"2026-03-26T07:55:00.000Z","flightCategory":"VFR","latitude":45.432,"longitude":10.268},"LIVC":{"rawOb":"METAR LIVC 260755Z AUTO /////KT //// // ///////// M06/M07 Q0990 RMK ///","observationTime":"2026-03-26T07:55:00.000Z","flightCategory":"null","latitude":44.194,"longitude":10.7},"KLGF":{"rawOb":"METAR KLGF 260755Z AUTO 00000KT 10SM CLR 23/04 A2983 RMK AO2 SLP098 T02290039 $","observationTime":"2026-03-26T07:55:00.000Z","flightCategory":"VFR","latitude":32.868,"longitude":-114.393},"LIVP":{"rawOb":"METAR LIVP 260755Z AUTO 36033KT 9999 ///////// M09/M10 Q0991 RMK /// VIS MIN 9999","observationTime":"2026-03-26T07:55:00.000Z","flightCategory":"VFR","latitude":46.143,"longitude":11.038},"PACZ":{"rawOb":"METAR PACZ 260755Z AUTO 00000KT 10SM BKN100 M11/M16 A3043 RMK AO2 SLP320 T11061159","observationTime":"2026-03-26T07:55:00.000Z","flightCategory":"VFR","latitude":61.776,"longitude":-166.043},"PAFR":{"rawOb":"METAR PAFR 260755Z AUTO 00000KT 10SM CLR M15/M20 A3012 RMK AO2 SLP209 T11541202 $","observationTime":"2026-03-26T07:55:00.000Z","flightCategory":"VFR","latitude":61.263,"longitude":-149.66},"PASV":{"rawOb":"METAR PASV 260755Z AUTO 34001KT 10SM CLR M13/M21 A3016 RMK AO2 SLP270 T11331207","observationTime":"2026-03-26T07:55:00.000Z","flightCategory":"VFR","latitude":61.101,"longitude":-155.577},"K1AM":{"rawOb":"METAR K1AM 260755Z AUTO 23009KT 7SM -SN BKN024 OVC040 01/M01 A2998 RMK AO2 SNE0655PLB0655E0659SNB0659 SLP165 P0000 T00091010 $","observationTime":"2026-03-26T07:55:00.000Z","flightCategory":"MVFR","latitude":47.281,"longitude":-110.801},"K1DM":{"rawOb":"METAR K1DM 260755Z AUTO 15005KT 2 1/2SM -SN BR OVC017 01/M00 A3002 RMK AO2 SNE0655RAB0658E09PLB09E13SNB13 SLP180 P0001 T00091001 $","observationTime":"2026-03-26T07:55:00.000Z","flightCategory":"IFR","latitude":47.376,"longitude":-109.814},"KTCM":{"rawOb":"METAR KTCM 260755Z AUTO 20010KT 10SM CLR 03/01 A3038 RMK AO2 SLP294 T00310013 401210018 $","observationTime":"2026-03-26T07:55:00.000Z","flightCategory":"VFR","latitude":47.149,"longitude":-122.475},"K1MM":{"rawOb":"METAR K1MM 260755Z AUTO 08006KT 1 1/8SM -SN BR FEW038 BKN100 OVC150 00/M00 A3000 RMK AO2 VIS 1 1/8V2 SLPNO P0002 T00021005 $","observationTime":"2026-03-26T07:55:00.000Z","flightCategory":"IFR","latitude":47.014,"longitude":-109.63},"K1MW":{"rawOb":"METAR K1MW 260755Z AUTO 23012G16KT 10SM BKN190 17/M01 A2976 RMK AO2 SLP016 T01731009 $","observationTime":"2026-03-26T07:55:00.000Z","flightCategory":"VFR","latitude":40.704,"longitude":-103.477},"K1OW":{"rawOb":"METAR K1OW 260755Z AUTO 31012KT 10SM BKN130 BKN180 13/M03 A2998 RMK AO2 SLP085 T01321031 $","observationTime":"2026-03-26T07:55:00.000Z","flightCategory":"VFR","latitude":40.885,"longitude":-103.999},"LIBN":{"rawOb":"METAR LIBN 260755Z 16011KT CAVOK 16/09 Q1002 RMK BKN SCT100 BKN200 VIS MIN 9999 WIND THR14 15012KT WIND THR32 16009KT BLU","observationTime":"2026-03-26T07:55:00.000Z","flightCategory":"VFR","latitude":40.238,"longitude":18.138},"LIBQ":{"rawOb":"METAR LIBQ 260755Z 26010G25KT 0000 -RA FG VV/// 02/01 Q1001 RMK /// MON INVIS VAL INVIS VIS MIN 0000","observationTime":"2026-03-26T07:55:00.000Z","flightCategory":"LIFR","latitude":39.331,"longitude":16.396},"KVGN":{"rawOb":"METAR KVGN 260755Z AUTO 12005KT 10SM CLR 11/09 A3000 RMK AO2 SLP161 T01060094 401890096 $","observationTime":"2026-03-26T07:55:00.000Z","flightCategory":"VFR","latitude":34.8494,"longitude":-120.5996},"LIBV":{"rawOb":"METAR LIBV 260755Z 15016KT CAVOK 12/07 Q0999 RMK BKN BKN070 SCT200 VIS MIN 9999 WIND THR32 17013KT WIND THR14 16016KT BLU","observationTime":"2026-03-26T07:55:00.000Z","flightCategory":"VFR","latitude":40.766,"longitude":16.935},"LICT":{"rawOb":"METAR LICT 260755Z 27012KT 9999 FEW020 16/13 Q1007 RMK BKN BKN070 VIS MIN 9999 WIND THR13 28014KT BLU","observationTime":"2026-03-26T07:55:00.000Z","flightCategory":"VFR","latitude":37.911,"longitude":12.488},"KN60":{"rawOb":"METAR KN60 260754Z AUTO 35011G20KT M05/M06 A3003 RMK AO1 SLP187 T10501061","observationTime":"2026-03-26T07:54:00.000Z","flightCategory":"null","latitude":47.654,"longitude":-101.436},"KMEM":{"rawOb":"METAR KMEM 260754Z 20007KT 10SM CLR 19/12 A3000 RMK AO2 SLP156 T01940117 $","observationTime":"2026-03-26T07:54:00.000Z","flightCategory":"VFR","latitude":35.0564,"longitude":-89.9864},"KWLD":{"rawOb":"METAR KWLD 260754Z AUTO 20014KT 10SM CLR 21/16 A2985 RMK AO2 SLP096 T02110156","observationTime":"2026-03-26T07:54:00.000Z","flightCategory":"VFR","latitude":37.1649,"longitude":-97.0349},"KUZA":{"rawOb":"METAR KUZA 260754Z AUTO 24008KT 10SM OVC085 14/10 A3017 RMK AO2 SLP212 T01440100","observationTime":"2026-03-26T07:54:00.000Z","flightCategory":"VFR","latitude":34.9836,"longitude":-81.0562},"K1V4":{"rawOb":"METAR K1V4 260754Z AUTO 03/00 A2991 RMK AO1 SLP133 P0001 T00330000","observationTime":"2026-03-26T07:54:00.000Z","flightCategory":"null","latitude":44.42,"longitude":-72.019},"KMWN":{"rawOb":"METAR KMWN 260754Z 25042G48KT 0SM -SN FZFG BLSN VV000 M07/M07 RMK VRY LGT ICG","observationTime":"2026-03-26T07:54:00.000Z","flightCategory":"LIFR","latitude":44.271,"longitude":-71.304},"KMGJ":{"rawOb":"METAR KMGJ 260754Z AUTO 00000KT 10SM OVC095 06/M01 A2998 RMK AO2 SLP152 T00611011","observationTime":"2026-03-26T07:54:00.000Z","flightCategory":"VFR","latitude":41.5091,"longitude":-74.2645},"KMKC":{"rawOb":"METAR KMKC 260754Z 21016KT 10SM CLR 23/15 A2976 RMK AO2 SLP068 T02330150","observationTime":"2026-03-26T07:54:00.000Z","flightCategory":"VFR","latitude":39.1279,"longitude":-94.5892},"KOLM":{"rawOb":"METAR KOLM 260754Z AUTO 20007KT 10SM CLR 02/01 A3040 RMK AO2 SLP296 T00170006 401170017","observationTime":"2026-03-26T07:54:00.000Z","flightCategory":"VFR","latitude":46.9737,"longitude":-122.9049},"KNAK":{"rawOb":"METAR KNAK 260754Z AUTO 17007KT 10SM OVC110 11/06 A3004 RMK AO2 SLP175 T01110056","observationTime":"2026-03-26T07:54:00.000Z","flightCategory":"VFR","latitude":38.9913,"longitude":-76.4891},"KPHF":{"rawOb":"METAR KPHF 260754Z AUTO 21008KT 10SM OVC042 13/09 A3015 RMK AO2 SLP208 T01330089","observationTime":"2026-03-26T07:54:00.000Z","flightCategory":"VFR","latitude":37.1322,"longitude":-76.494},"KRFD":{"rawOb":"METAR KRFD 260754Z 12003KT 10SM BKN250 07/06 A2977 RMK AO2 SLP080 T00720056 PNO $","observationTime":"2026-03-26T07:54:00.000Z","flightCategory":"VFR","latitude":42.1915,"longitude":-89.0876},"KCOS":{"rawOb":"METAR KCOS 260754Z 36006KT 10SM FEW130 12/M01 A2996 RMK AO2 SLP064 T01171011 $","observationTime":"2026-03-26T07:54:00.000Z","flightCategory":"VFR","latitude":38.8095,"longitude":-104.6887},"KMVL":{"rawOb":"METAR KMVL 260754Z AUTO 00000KT 10SM -RA BKN050 BKN070 OVC095 01/M01 A2989 RMK AO2 RAB47 SLP128 P0000 T00061006","observationTime":"2026-03-26T07:54:00.000Z","flightCategory":"VFR","latitude":44.5328,"longitude":-72.6152},"KILN":{"rawOb":"METAR KILN 260754Z AUTO 22012KT 10SM FEW100 16/09 A2993 RMK AO2 SLP132 T01560089","observationTime":"2026-03-26T07:54:00.000Z","flightCategory":"VFR","latitude":39.4308,"longitude":-83.777},"KGSO":{"rawOb":"METAR KGSO 260754Z 22007KT 10SM OVC039 13/06 A3016 RMK AO2 SLP207 T01330061","observationTime":"2026-03-26T07:54:00.000Z","flightCategory":"VFR","latitude":36.0969,"longitude":-79.9432},"KGCK":{"rawOb":"METAR KGCK 260754Z AUTO 14010KT 10SM CLR 15/07 A2978 RMK AO2 SLP049 T01500067","observationTime":"2026-03-26T07:54:00.000Z","flightCategory":"VFR","latitude":37.9221,"longitude":-100.723},"KFZY":{"rawOb":"METAR KFZY 260754Z AUTO 18008KT 10SM OVC080 10/01 A2980 RMK AO2 RAB0658E08 SLP093 P0000 T01000006","observationTime":"2026-03-26T07:54:00.000Z","flightCategory":"VFR","latitude":43.3504,"longitude":-76.3832},"KGCN":{"rawOb":"METAR KGCN 260754Z AUTO 00000KT 10SM CLR 00/M07 A3019 RMK AO2 SLP153 T00001072","observationTime":"2026-03-26T07:54:00.000Z","flightCategory":"VFR","latitude":35.9458,"longitude":-112.1554},"KPSF":{"rawOb":"METAR KPSF 260754Z AUTO VRB04KT 10SM OVC090 05/M03 A2995 RMK AO2 SLP137 T00501033","observationTime":"2026-03-26T07:54:00.000Z","flightCategory":"VFR","latitude":42.4269,"longitude":-73.2891},"KFIG":{"rawOb":"METAR KFIG 260754Z AUTO 00000KT 10SM FEW070 07/M01 A2990 RMK AO2 SLP129 T00671006","observationTime":"2026-03-26T07:54:00.000Z","flightCategory":"VFR","latitude":41.0465,"longitude":-78.4112},"KMOT":{"rawOb":"METAR KMOT 260754Z AUTO 35013KT 10SM OVC005 M08/M09 A3007 RMK AO2 SLP203 T10831094","observationTime":"2026-03-26T07:54:00.000Z","flightCategory":"IFR","latitude":48.252,"longitude":-101.269},"KVSF":{"rawOb":"METAR KVSF 260754Z AUTO 18005KT 10SM BKN095 OVC120 04/M03 A2996 RMK AO2 SLP149 T00441028","observationTime":"2026-03-26T07:54:00.000Z","flightCategory":"VFR","latitude":43.3421,"longitude":-72.5213},"KSUS":{"rawOb":"METAR KSUS 260754Z 22015G22KT 10SM CLR 23/13 A2980 RMK AO2 PK WND 23027/0702 SLP083 T02330133","observationTime":"2026-03-26T07:54:00.000Z","flightCategory":"VFR","latitude":38.6575,"longitude":-90.6557},"KTAD":{"rawOb":"METAR KTAD 260754Z AUTO 23014KT 10SM CLR 16/M03 A2995 RMK AO2 SLP051 T01611028","observationTime":"2026-03-26T07:54:00.000Z","flightCategory":"VFR","latitude":37.2618,"longitude":-104.3319},"KBFL":{"rawOb":"METAR KBFL 260754Z AUTO 30004KT 10SM CLR 15/09 A3001 RMK AO2 SLP157 T01500094 403000144","observationTime":"2026-03-26T07:54:00.000Z","flightCategory":"VFR","latitude":35.4342,"longitude":-119.0552},"KEWN":{"rawOb":"METAR KEWN 260754Z AUTO 00000KT 10SM BKN055 09/08 A3020 RMK AO2 SLP227 T00890078","observationTime":"2026-03-26T07:54:00.000Z","flightCategory":"VFR","latitude":35.0684,"longitude":-77.0478},"KEVV":{"rawOb":"METAR KEVV 260754Z AUTO 22011G21KT 10SM BKN095 BKN110 20/11 A2992 RMK AO2 SLP130 T02000111 $","observationTime":"2026-03-26T07:54:00.000Z","flightCategory":"VFR","latitude":38.0502,"longitude":-87.5147},"PAHN":{"rawOb":"METAR PAHN 260754Z AUTO 29009KT 10SM OVC085 M07/M17 A3027 RMK AO2 SLP253 T10671167 TSNO","observationTime":"2026-03-26T07:54:00.000Z","flightCategory":"VFR","latitude":59.243,"longitude":-135.511},"KIZG":{"rawOb":"METAR KIZG 260754Z AUTO 00000KT 10SM SCT016 SCT026 OVC055 02/00 A3000 RMK AO2 RAB0655E05 SLP161 P0000 T00220000","observationTime":"2026-03-26T07:54:00.000Z","flightCategory":"VFR","latitude":43.9899,"longitude":-70.9501},"KAUW":{"rawOb":"METAR KAUW 260754Z AUTO 08003KT 10SM CLR 04/02 A2971 RMK AO2 SLP069 T00390022","observationTime":"2026-03-26T07:54:00.000Z","flightCategory":"VFR","latitude":44.9265,"longitude":-89.6248},"KEUG":{"rawOb":"METAR KEUG 260754Z AUTO 21003KT 10SM CLR 01/00 A3044 RMK AO2 SLP311 T00110000 401441006","observationTime":"2026-03-26T07:54:00.000Z","flightCategory":"VFR","latitude":44.1331,"longitude":-123.2156},"KVAY":{"rawOb":"METAR KVAY 260754Z AUTO 21006KT 10SM OVC100 11/06 A3003 RMK AO2 SLP170 T01110056","observationTime":"2026-03-26T07:54:00.000Z","flightCategory":"VFR","latitude":39.9408,"longitude":-74.8407},"KDSM":{"rawOb":"METAR KDSM 260754Z 16003KT 10SM FEW250 FEW300 14/09 A2969 RMK AO2 SLP049 T01440089","observationTime":"2026-03-26T07:54:00.000Z","flightCategory":"VFR","latitude":41.5339,"longitude":-93.6531},"KOLS":{"rawOb":"METAR KOLS 260754Z AUTO 16003KT 10SM CLR 15/M08 A3007 RMK AO2 SLP119 T01501083","observationTime":"2026-03-26T07:54:00.000Z","flightCategory":"VFR","latitude":31.4208,"longitude":-110.8465},"KSLC":{"rawOb":"METAR KSLC 260754Z 14006KT 10SM BKN120 BKN160 18/06 A2990 RMK AO2 SLP074 T01830061","observationTime":"2026-03-26T07:54:00.000Z","flightCategory":"VFR","latitude":40.7707,"longitude":-111.965},"KINT":{"rawOb":"METAR KINT 260754Z AUTO 18003KT 10SM OVC036 13/06 A3017 RMK AO2 SLP213 T01280056","observationTime":"2026-03-26T07:54:00.000Z","flightCategory":"VFR","latitude":36.1335,"longitude":-80.2244},"KNGW":{"rawOb":"METAR KNGW 260754Z AUTO 16010KT 10SM 21/19 A3002 RMK AO2 SLP159 T02110194 $","observationTime":"2026-03-26T07:54:00.000Z","flightCategory":"VFR","latitude":27.702,"longitude":-97.442},"KIPT":{"rawOb":"METAR KIPT 260754Z AUTO VRB03KT 10SM OVC085 08/M01 A2993 RMK AO2 SLP137 T00781011 $","observationTime":"2026-03-26T07:54:00.000Z","flightCategory":"VFR","latitude":41.243,"longitude":-76.9217},"KECG":{"rawOb":"METAR KECG 260754Z AUTO 21006KT 10SM BKN055 13/10 A3018 RMK AO2 SLP219 T01330100","observationTime":"2026-03-26T07:54:00.000Z","flightCategory":"VFR","latitude":36.2572,"longitude":-76.1716},"KJST":{"rawOb":"METAR KJST 260754Z AUTO 25010G19KT 10SM BKN110 12/00 A2993 RMK AO2 SLP134 T01220000","observationTime":"2026-03-26T07:54:00.000Z","flightCategory":"VFR","latitude":40.3149,"longitude":-78.8307},"KSBN":{"rawOb":"METAR KSBN 260754Z AUTO 00000KT 10SM CLR 11/06 A2983 RMK AO2 SLP102 T01110061","observationTime":"2026-03-26T07:54:00.000Z","flightCategory":"VFR","latitude":41.7072,"longitude":-86.3163},"KAPN":{"rawOb":"METAR KAPN 260754Z AUTO 21003KT 10SM CLR M01/M03 A2977 RMK AO2 SLP088 T10061028","observationTime":"2026-03-26T07:54:00.000Z","flightCategory":"VFR","latitude":45.0716,"longitude":-83.5645},"KSET":{"rawOb":"METAR KSET 260754Z AUTO 23005KT 10SM CLR 22/13 A2980 RMK AO2 SLP085 T02170128","observationTime":"2026-03-26T07:54:00.000Z","flightCategory":"VFR","latitude":38.9304,"longitude":-90.4329},"KACY":{"rawOb":"METAR KACY 260754Z 19009KT 10SM BKN120 09/06 A3006 RMK AO2 SLP179 T00940061 $","observationTime":"2026-03-26T07:54:00.000Z","flightCategory":"VFR","latitude":39.452,"longitude":-74.567},"KTQE":{"rawOb":"METAR KTQE 260754Z AUTO 14006KT 10SM CLR 12/05 A2966 RMK AO2 SLP034 T01170050","observationTime":"2026-03-26T07:54:00.000Z","flightCategory":"VFR","latitude":41.763,"longitude":-96.1797},"KLNK":{"rawOb":"METAR KLNK 260754Z AUTO 18007KT 10SM CLR 13/08 A2968 RMK AO2 SLP040 T01330078","observationTime":"2026-03-26T07:54:00.000Z","flightCategory":"VFR","latitude":40.8478,"longitude":-96.7647},"KLYH":{"rawOb":"METAR KLYH 260754Z AUTO 20003KT 10SM CLR 08/M01 A3011 RMK AO2 SLP194 T00781006","observationTime":"2026-03-26T07:54:00.000Z","flightCategory":"VFR","latitude":37.3213,"longitude":-79.2065},"KLEX":{"rawOb":"METAR KLEX 260754Z AUTO 21013KT 10SM BKN110 17/10 A2999 RMK AO2 RAB41E54 SLP149 P0000 T01720100 $","observationTime":"2026-03-26T07:54:00.000Z","flightCategory":"VFR","latitude":38.0339,"longitude":-84.6114},"KRDG":{"rawOb":"METAR KRDG 260754Z AUTO 19007KT 10SM BKN090 OVC100 11/04 A3000 RMK AO2 SLP164 T01060039 $","observationTime":"2026-03-26T07:54:00.000Z","flightCategory":"VFR","latitude":40.3734,"longitude":-75.9592},"KNXP":{"rawOb":"METAR KNXP 260754Z AUTO 00000KT 10SM CLR 22/01 A2998 RMK AO2 SLP116 T02220006 403500167 $","observationTime":"2026-03-26T07:54:00.000Z","flightCategory":"VFR","latitude":34.294,"longitude":-116.1472},"KRIC":{"rawOb":"METAR KRIC 260754Z 20007KT 10SM CLR 11/08 A3012 RMK AO2 SLP202 T01110083","observationTime":"2026-03-26T07:54:00.000Z","flightCategory":"VFR","latitude":37.5115,"longitude":-77.3234},"KPIA":{"rawOb":"METAR KPIA 260754Z 16005KT 10SM FEW085 16/12 A2976 RMK AO2 SLP075 T01610117","observationTime":"2026-03-26T07:54:00.000Z","flightCategory":"VFR","latitude":40.6675,"longitude":-89.6842},"KPNE":{"rawOb":"METAR KPNE 260754Z AUTO 22009KT 10SM OVC095 10/04 A3004 RMK AO2 SLP172 T01000044 TSNO","observationTime":"2026-03-26T07:54:00.000Z","flightCategory":"VFR","latitude":40.0789,"longitude":-75.0133},"KAKH":{"rawOb":"METAR KAKH 260754Z AUTO 22003KT 10SM FEW065 13/07 A3017 RMK AO2 SLP215 T01280067","observationTime":"2026-03-26T07:54:00.000Z","flightCategory":"VFR","latitude":35.1968,"longitude":-81.1555},"KFWA":{"rawOb":"METAR KFWA 260754Z 23004KT 10SM SCT160 09/06 A2987 RMK AO2 SLP114 T00940056","observationTime":"2026-03-26T07:54:00.000Z","flightCategory":"VFR","latitude":40.9725,"longitude":-85.2064},"KWAL":{"rawOb":"METAR KWAL 260754Z AUTO 21010KT 10SM CLR 13/08 A3013 RMK AO2 SLP199 T01280083","observationTime":"2026-03-26T07:54:00.000Z","flightCategory":"VFR","latitude":37.9372,"longitude":-75.4662},"KPTW":{"rawOb":"METAR KPTW 260754Z AUTO VRB03KT 10SM OVC100 09/03 A3003 RMK AO2 SLP166 T00890028","observationTime":"2026-03-26T07:54:00.000Z","flightCategory":"VFR","latitude":40.238,"longitude":-75.5549},"KSYR":{"rawOb":"METAR KSYR 260754Z 19011KT 10SM OVC080 11/00 A2983 RMK AO2 RAE54 SLP099 P0000 T01060000","observationTime":"2026-03-26T07:54:00.000Z","flightCategory":"VFR","latitude":43.1111,"longitude":-76.1038},"KUIN":{"rawOb":"METAR KUIN 260754Z AUTO 20008KT 10SM CLR 18/13 A2975 RMK AO2 SLP068 T01780128 $","observationTime":"2026-03-26T07:54:00.000Z","flightCategory":"VFR","latitude":39.9371,"longitude":-91.1966},"KAKR":{"rawOb":"METAR KAKR 260754Z AUTO 22006KT 10SM CLR 12/04 A2987 RMK AO2 SLP114 T01170044","observationTime":"2026-03-26T07:54:00.000Z","flightCategory":"VFR","latitude":41.0373,"longitude":-81.4634},"KCRW":{"rawOb":"METAR KCRW 260754Z 21006KT 10SM SCT060 17/04 A3001 RMK AO2 SLP157 T01720044","observationTime":"2026-03-26T07:54:00.000Z","flightCategory":"VFR","latitude":38.3795,"longitude":-81.5911},"KDYL":{"rawOb":"METAR KDYL 260754Z AUTO 20004KT 10SM OVC090 09/04 A3001 RMK AO2 SLP163 T00940039","observationTime":"2026-03-26T07:54:00.000Z","flightCategory":"VFR","latitude":40.3302,"longitude":-75.1228},"KCOU":{"rawOb":"METAR KCOU 260754Z AUTO 22013KT 10SM CLR 22/14 A2981 RMK AO2 SLP085 T02170139 $","observationTime":"2026-03-26T07:54:00.000Z","flightCategory":"VFR","latitude":38.8171,"longitude":-92.2148},"KBWI":{"rawOb":"METAR KBWI 260754Z 00000KT 10SM BKN100 OVC150 09/04 A3002 RMK AO2 SLP166 T00940044","observationTime":"2026-03-26T07:54:00.000Z","flightCategory":"VFR","latitude":39.1733,"longitude":-76.684},"KPHL":{"rawOb":"METAR KPHL 260754Z 21007KT 10SM BKN100 OVC130 11/05 A3004 RMK AO2 SLP172 T01060050 $","observationTime":"2026-03-26T07:54:00.000Z","flightCategory":"VFR","latitude":39.8733,"longitude":-75.2268},"KAAO":{"rawOb":"METAR KAAO 260754Z AUTO 20018G34KT 10SM CLR 22/16 A2982 RMK AO2 PK WND 20034/0747 SLP083 T02220156","observationTime":"2026-03-26T07:54:00.000Z","flightCategory":"VFR","latitude":37.7497,"longitude":-97.2191},"KRKS":{"rawOb":"METAR KRKS 260754Z AUTO 21006KT 10SM FEW050 FEW110 13/M04 A2999 RMK AO2 SLP072 T01281039","observationTime":"2026-03-26T07:54:00.000Z","flightCategory":"VFR","latitude":41.5947,"longitude":-109.0529},"KROA":{"rawOb":"METAR KROA 260754Z 00000KT 10SM CLR 09/00 A3012 RMK AO2 SLP197 T00890000","observationTime":"2026-03-26T07:54:00.000Z","flightCategory":"VFR","latitude":37.3172,"longitude":-79.9737},"KMRY":{"rawOb":"METAR KMRY 260754Z AUTO 20006KT 10SM CLR 11/08 A3011 RMK AO2 SLP209 T01110078 401890083","observationTime":"2026-03-26T07:54:00.000Z","flightCategory":"VFR","latitude":36.5904,"longitude":-121.8488},"KROC":{"rawOb":"METAR KROC 260754Z 22012KT 10SM BKN080 OVC100 11/04 A2978 RMK AO2 SLP087 T01110039","observationTime":"2026-03-26T07:54:00.000Z","flightCategory":"VFR","latitude":43.1172,"longitude":-77.6754},"PGSN":{"rawOb":"METAR PGSN 260754Z 15004KT 10SM SCT030 27/23 A2973 RMK AO2 SLP090 T02670233 $","observationTime":"2026-03-26T07:54:00.000Z","flightCategory":"VFR","latitude":15.116,"longitude":145.72},"KDEC":{"rawOb":"METAR KDEC 260754Z AUTO 20009KT 10SM BKN090 19/13 A2981 RMK AO2 SLP089 T01940128","observationTime":"2026-03-26T07:54:00.000Z","flightCategory":"VFR","latitude":39.8308,"longitude":-88.8719},"PHMK":{"rawOb":"METAR PHMK 260754Z AUTO 04010G19KT 10SM FEW022 FEW029 SCT040 21/17 A3000 RMK AO2 SLP164 T02060167 TSNO","observationTime":"2026-03-26T07:54:00.000Z","flightCategory":"VFR","latitude":21.1545,"longitude":-157.0961},"K12N":{"rawOb":"METAR K12N 260754Z AUTO 19005KT 08/01 A3000 RMK AO1 SLP161 T00780006 $","observationTime":"2026-03-26T07:54:00.000Z","flightCategory":"null","latitude":41.0093,"longitude":-74.7363},"KDDH":{"rawOb":"METAR KDDH 260754Z AUTO 19008KT 10SM BKN085 OVC110 07/M04 A2993 RMK AO2 SLP138 T00721044","observationTime":"2026-03-26T07:54:00.000Z","flightCategory":"VFR","latitude":42.8935,"longitude":-73.2488},"KSJN":{"rawOb":"METAR KSJN 260754Z AUTO 22003KT 10SM CLR 14/M08 A3014 RMK AO2 SLP115 T01391078","observationTime":"2026-03-26T07:54:00.000Z","flightCategory":"VFR","latitude":34.5184,"longitude":-109.3801},"KAPC":{"rawOb":"METAR KAPC 260754Z AUTO 00000KT 10SM CLR 09/07 A3006 RMK AO2 SLP169 T00940072 402440050","observationTime":"2026-03-26T07:54:00.000Z","flightCategory":"VFR","latitude":38.2075,"longitude":-122.2804},"KALO":{"rawOb":"METAR KALO 260754Z AUTO 00000KT 7SM CLR 08/06 A2968 RMK AO2 SLP051 T00780061","observationTime":"2026-03-26T07:54:00.000Z","flightCategory":"VFR","latitude":42.5544,"longitude":-92.4013},"KRST":{"rawOb":"METAR KRST 260754Z 11004KT 8SM CLR 09/06 A2968 RMK AO2 SLP052 T00890061 $","observationTime":"2026-03-26T07:54:00.000Z","flightCategory":"VFR","latitude":43.904,"longitude":-92.4921},"KFFZ":{"rawOb":"METAR KFFZ 260754Z AUTO 00000KT 10SM CLR 22/05 A2987 RMK AO2 SLP091 T02170050 TSNO","observationTime":"2026-03-26T07:54:00.000Z","flightCategory":"VFR","latitude":33.4659,"longitude":-111.7212},"KAVL":{"rawOb":"METAR KAVL 260754Z AUTO 18003KT 10SM BKN070 11/06 A3018 RMK AO2 SLP206 T01060056","observationTime":"2026-03-26T07:54:00.000Z","flightCategory":"VFR","latitude":35.4318,"longitude":-82.5379},"KBOS":{"rawOb":"METAR KBOS 260754Z 17008KT 10SM FEW023 FEW045 OVC110 05/04 A3004 RMK AO2 RAE09 SLP173 P0001 T00500039 $","observationTime":"2026-03-26T07:54:00.000Z","flightCategory":"VFR","latitude":42.3606,"longitude":-71.0097},"KDSV":{"rawOb":"METAR KDSV 260754Z AUTO 17005KT 10SM OVC080 11/04 A2983 RMK AO2 SLP110 T01060044","observationTime":"2026-03-26T07:54:00.000Z","flightCategory":"VFR","latitude":42.5699,"longitude":-77.7143},"KHWD":{"rawOb":"METAR KHWD 260754Z AUTO 23003KT 10SM CLR 12/09 A3008 RMK AO2 SLP196 T01220094 402220094","observationTime":"2026-03-26T07:54:00.000Z","flightCategory":"VFR","latitude":37.6589,"longitude":-122.1212},"KGED":{"rawOb":"METAR KGED 260754Z AUTO 22014KT 10SM OVC110 14/08 A3008 RMK AO2 SLP184 T01390078","observationTime":"2026-03-26T07:54:00.000Z","flightCategory":"VFR","latitude":38.6898,"longitude":-75.3625},"KIMT":{"rawOb":"METAR KIMT 260754Z AUTO 00000KT 10SM SCT080 01/M02 A2974 RMK AO2 SLP079 T00111017","observationTime":"2026-03-26T07:54:00.000Z","flightCategory":"VFR","latitude":45.8134,"longitude":-88.1129},"KISW":{"rawOb":"METAR KISW 260754Z AUTO 00000KT 10SM CLR 09/05 A2970 RMK AO2 SLP057 T00940050 $","observationTime":"2026-03-26T07:54:00.000Z","flightCategory":"VFR","latitude":44.3591,"longitude":-89.837},"KLAF":{"rawOb":"METAR KLAF 260754Z AUTO VRB04KT 6SM RA FEW027 BKN050 OVC085 17/14 A2986 RMK AO2 SLP108 P0007 T01720144","observationTime":"2026-03-26T07:54:00.000Z","flightCategory":"VFR","latitude":40.4124,"longitude":-86.9474},"KLWM":{"rawOb":"METAR KLWM 260754Z AUTO 19004KT 10SM FEW034 BKN075 OVC085 04/03 A3004 RMK AO2 RAE14 SLP173 P0000 T00440028","observationTime":"2026-03-26T07:54:00.000Z","flightCategory":"VFR","latitude":42.7125,"longitude":-71.1256},"KMFI":{"rawOb":"METAR KMFI 260754Z AUTO 00000KT 10SM BKN110 08/05 A2970 RMK AO2 SLP060 T00830050","observationTime":"2026-03-26T07:54:00.000Z","flightCategory":"VFR","latitude":44.6379,"longitude":-90.1875},"KMIV":{"rawOb":"METAR KMIV 260754Z AUTO VRB03KT 10SM OVC100 10/06 A3005 RMK AO2 SLP174 T01000061 $","observationTime":"2026-03-26T07:54:00.000Z","flightCategory":"VFR","latitude":39.3662,"longitude":-75.0778},"KOFP":{"rawOb":"METAR KOFP 260754Z AUTO 20008KT 10SM SCT110 12/06 A3012 RMK AO2 SLP199 T01170056","observationTime":"2026-03-26T07:54:00.000Z","flightCategory":"VFR","latitude":37.7093,"longitude":-77.4348},"KRSP":{"rawOb":"METAR KRSP 260754Z AUTO 21012G25KT 170V230 10SM OVC085 10/04 A2997 RMK AO2 SLP157 T01000044 $","observationTime":"2026-03-26T07:54:00.000Z","flightCategory":"VFR","latitude":39.646,"longitude":-77.468},"PAKN":{"rawOb":"METAR PAKN 260754Z 34003KT 10SM CLR M15/M19 A3028 RMK AO2 SLP254 T11501189 $","observationTime":"2026-03-26T07:54:00.000Z","flightCategory":"VFR","latitude":58.683,"longitude":-156.656},"KPLN":{"rawOb":"METAR KPLN 260754Z AUTO 00000KT 4SM BR CLR M03/M03 A2977 RMK AO2 SLP088 T10281033","observationTime":"2026-03-26T07:54:00.000Z","flightCategory":"MVFR","latitude":45.5644,"longitude":-84.7929},"KBUF":{"rawOb":"METAR KBUF 260754Z 20009KT 10SM OVC080 11/04 A2977 RMK AO2 SLP084 T01110039 $","observationTime":"2026-03-26T07:54:00.000Z","flightCategory":"VFR","latitude":42.94,"longitude":-78.7361},"KBTV":{"rawOb":"METAR KBTV 260754Z AUTO 19007KT 10SM -RA BKN047 BKN060 OVC070 06/01 A2987 RMK AO2 RAB51 SLP119 P0000 T00560011","observationTime":"2026-03-26T07:54:00.000Z","flightCategory":"VFR","latitude":44.4682,"longitude":-73.1499},"KAVP":{"rawOb":"METAR KAVP 260754Z 20008G15KT 10SM OVC090 09/00 A2994 RMK AO2 SLP136 T00890000","observationTime":"2026-03-26T07:54:00.000Z","flightCategory":"VFR","latitude":41.3335,"longitude":-75.7227},"KSBY":{"rawOb":"METAR KSBY 260754Z AUTO 20014G20KT 10SM FEW120 13/08 A3010 RMK AO2 SLP196 T01330083 $","observationTime":"2026-03-26T07:54:00.000Z","flightCategory":"VFR","latitude":38.3409,"longitude":-75.5132},"KAKQ":{"rawOb":"METAR KAKQ 260754Z AUTO 21003KT 10SM FEW034 FEW050 13/09 A3015 RMK AO2 SLP211 T01330089","observationTime":"2026-03-26T07:54:00.000Z","flightCategory":"VFR","latitude":36.9827,"longitude":-77.0014},"KVTA":{"rawOb":"METAR KVTA 260754Z AUTO 23012G20KT 10SM FEW075 17/08 A2991 RMK AO2 SLP124 T01720083","observationTime":"2026-03-26T07:54:00.000Z","flightCategory":"VFR","latitude":40.0264,"longitude":-82.4635},"KMLU":{"rawOb":"METAR KMLU 260753Z AUTO 20005KT 10SM CLR 17/13 A3007 RMK AO2 SLP182 T01720128","observationTime":"2026-03-26T07:53:00.000Z","flightCategory":"VFR","latitude":32.5155,"longitude":-92.0299},"KNSI":{"rawOb":"METAR KNSI 260753Z AUTO 28009KT CLR 13/13 A2995 RMK AO2 SLP139 T01330128 401890122 $","observationTime":"2026-03-26T07:53:00.000Z","flightCategory":"null","latitude":33.2338,"longitude":-119.4559},"KAEX":{"rawOb":"METAR KAEX 260753Z 00000KT 10SM CLR 14/13 A3008 RMK AO2 SLP190 T01440133 $","observationTime":"2026-03-26T07:53:00.000Z","flightCategory":"VFR","latitude":31.3346,"longitude":-92.5585},"MMSP":{"rawOb":"METAR MMSP 260753Z 11010KT 7SM SKC 13/08 A3025","observationTime":"2026-03-26T07:53:00.000Z","flightCategory":"VFR","latitude":22.256,"longitude":-100.93},"KNUW":{"rawOb":"METAR KNUW 260753Z 25018KT 10SM FEW035 SCT065 SCT110 06/01 A3036 RMK AO2 SLP284 T00560011 400940028 $","observationTime":"2026-03-26T07:53:00.000Z","flightCategory":"VFR","latitude":48.355,"longitude":-122.664},"KNUI":{"rawOb":"METAR KNUI 260753Z AUTO 21010KT 10SM OVC110 13/08 A3009 RMK AO2 SLP188 T01280083","observationTime":"2026-03-26T07:53:00.000Z","flightCategory":"VFR","latitude":38.152,"longitude":-76.432},"TJNR":{"rawOb":"METAR TJNR 260753Z AUTO 13009KT 10SM FEW017 SCT024 SCT028 23/21 A2997 RMK AO2 SLP149 T02330211","observationTime":"2026-03-26T07:53:00.000Z","flightCategory":"VFR","latitude":18.253,"longitude":-65.638},"KTYR":{"rawOb":"METAR KTYR 260753Z AUTO 19010KT 10SM CLR 20/17 A3003 RMK AO2 SLP164 T02000167","observationTime":"2026-03-26T07:53:00.000Z","flightCategory":"VFR","latitude":32.3587,"longitude":-95.404},"KFWN":{"rawOb":"METAR KFWN 260753Z AUTO VRB05KT 10SM OVC090 08/M01 A2999 RMK AO2 SLP156 T00831006","observationTime":"2026-03-26T07:53:00.000Z","flightCategory":"VFR","latitude":41.1993,"longitude":-74.6259},"KNRS":{"rawOb":"METAR KNRS 260753Z AUTO 00000KT OVC012 16/14 A2998 RMK AO2 SLP150 T01610144 402110139 $","observationTime":"2026-03-26T07:53:00.000Z","flightCategory":"null","latitude":32.563,"longitude":-117.1109},"PANN":{"rawOb":"METAR PANN 260753Z AUTO 00000KT 10SM CLR M22/M25 A3038 RMK AO2 SLP302 T12171250 TSNO","observationTime":"2026-03-26T07:53:00.000Z","flightCategory":"VFR","latitude":64.547,"longitude":-149.087},"LIMA":{"rawOb":"SPECI LIMA 260752Z 33010G26KT 280V020 CAVOK 11/M15 Q1001","observationTime":"2026-03-26T07:52:00.000Z","flightCategory":"VFR","latitude":45.086,"longitude":7.603},"KCCU":{"rawOb":"METAR KCCU 260752Z AUTO 23011G17KT 190V250 10SM CLR 06/M04 A3040 RMK AO2","observationTime":"2026-03-26T07:52:00.000Z","flightCategory":"VFR","latitude":39.475,"longitude":-106.152},"PHBK":{"rawOb":"METAR PHBK 260751Z AUTO 01006KT 10SM CLR 21/14 A3001 RMK AO2 SLP164 T02110139","observationTime":"2026-03-26T07:51:00.000Z","flightCategory":"VFR","latitude":22.034,"longitude":-159.783},"KSNT":{"rawOb":"METAR KSNT 260751Z AUTO VRB06G15KT 07/M02 A3001 RMK AO1 SLP096 T00721017","observationTime":"2026-03-26T07:51:00.000Z","flightCategory":"null","latitude":44.1708,"longitude":-114.9269},"PGRO":{"rawOb":"METAR PGRO 260750Z 18005KT 7SM BKN012 BKN100 27/25 A2974 RMK LAST","observationTime":"2026-03-26T07:50:00.000Z","flightCategory":"MVFR","latitude":14.172,"longitude":145.24},"NSTU":{"rawOb":"METAR NSTU 260750Z VRB03KT 10SM SCT020 28/25 A2976 RMK SLP080 T02800245","observationTime":"2026-03-26T07:50:00.000Z","flightCategory":"VFR","latitude":-14.337,"longitude":-170.721},"LIMG":{"rawOb":"METAR LIMG 260750Z 31017G34KT 270V030 CAVOK 13/M15 Q0997","observationTime":"2026-03-26T07:50:00.000Z","flightCategory":"VFR","latitude":44.046,"longitude":8.126},"MUCU":{"rawOb":"METAR MUCU 260750Z COR 36005KT 9000 FEW020 22/19 Q1014","observationTime":"2026-03-26T07:50:00.000Z","flightCategory":"VFR","latitude":19.971,"longitude":-75.837},"LIMP":{"rawOb":"METAR LIMP 260750Z 20005KT 160V240 9999 FEW010 BKN025 08/04 Q0998","observationTime":"2026-03-26T07:50:00.000Z","flightCategory":"MVFR","latitude":44.825,"longitude":10.296},"LIBF":{"rawOb":"METAR LIBF 260750Z 24030KT CAVOK 14/03 Q0996","observationTime":"2026-03-26T07:50:00.000Z","flightCategory":"VFR","latitude":41.433,"longitude":15.535},"LIRI":{"rawOb":"METAR LIRI 260750Z 26014KT 9000 BKN055 15/07 Q0999","observationTime":"2026-03-26T07:50:00.000Z","flightCategory":"VFR","latitude":40.62,"longitude":14.911},"LIBC":{"rawOb":"METAR LIBC 260750Z 22014KT 9999 BKN040 12/09 Q1003","observationTime":"2026-03-26T07:50:00.000Z","flightCategory":"VFR","latitude":38.997,"longitude":17.079},"OOKB":{"rawOb":"METAR OOKB 260750Z 15004KT 060V210 9999 FEW025 29/19 Q1011 NOSIG","observationTime":"2026-03-26T07:50:00.000Z","flightCategory":"VFR","latitude":26.168,"longitude":56.239},"LIPU":{"rawOb":"METAR LIPU 260750Z VRB05KT 9999 RA BKN020 06/05 Q0997","observationTime":"2026-03-26T07:50:00.000Z","flightCategory":"MVFR","latitude":45.396,"longitude":11.848},"MUCM":{"rawOb":"METAR MUCM 260750Z 09005KT 9000 NSC 20/20 Q1016","observationTime":"2026-03-26T07:50:00.000Z","flightCategory":"VFR","latitude":21.42,"longitude":-77.85},"MUCF":{"rawOb":"METAR MUCF 260750Z AUTO /////KT XX/XX Q////","observationTime":"2026-03-26T07:50:00.000Z","flightCategory":"null","latitude":22.159,"longitude":-80.41},"OOMS":{"rawOb":"METAR OOMS 260750Z 03008KT CAVOK 26/23 Q1010 NOSIG","observationTime":"2026-03-26T07:50:00.000Z","flightCategory":"VFR","latitude":23.595,"longitude":58.298},"EGYE":{"rawOb":"METAR EGYE 260750Z 28007KT 9999 SKC 02/M01 Q1021 RMK BLU","observationTime":"2026-03-26T07:50:00.000Z","flightCategory":"VFR","latitude":52.962,"longitude":-0.562},"LIBG":{"rawOb":"METAR LIBG 260750Z 18013KT 9999 FEW040 15/08 Q1000","observationTime":"2026-03-26T07:50:00.000Z","flightCategory":"VFR","latitude":40.517,"longitude":17.403},"EGYD":{"rawOb":"METAR EGYD 260750Z 30009KT CAVOK 03/M01 Q1021 RMK BLU","observationTime":"2026-03-26T07:50:00.000Z","flightCategory":"VFR","latitude":53.031,"longitude":-0.503},"OOSA":{"rawOb":"METAR OOSA 260750Z 17016KT 9999 FEW012 BKN020 SCT080 31/25 Q1011 NOSIG","observationTime":"2026-03-26T07:50:00.000Z","flightCategory":"MVFR","latitude":17.044,"longitude":54.102},"EGQL":{"rawOb":"METAR EGQL 260750Z 27009KT CAVOK 03/M04 Q1020 RMK BLU","observationTime":"2026-03-26T07:50:00.000Z","flightCategory":"VFR","latitude":56.377,"longitude":-2.862},"OOSH":{"rawOb":"METAR OOSH 260750Z AUTO 07008KT CAVOK ////// 26/21 Q1010 RMK QFE1007 RH071? PR000.0","observationTime":"2026-03-26T07:50:00.000Z","flightCategory":"VFR","latitude":24.388,"longitude":56.624},"OODQ":{"rawOb":"METAR OODQ 260750Z AUTO 16017KT 9999 BKN022 28/26 Q1012 NOSIG RMK RH91? 0","observationTime":"2026-03-26T07:50:00.000Z","flightCategory":"MVFR","latitude":19.511,"longitude":57.657},"OOAD":{"rawOb":"METAR OOAD 260750Z AUTO 13009KT //// R31/P2000N // ///////// 26/23 Q1015 NOSIG","observationTime":"2026-03-26T07:50:00.000Z","flightCategory":"IFR","latitude":22.5,"longitude":57.37},"EGQA":{"rawOb":"METAR EGQA 260750Z AUTO 27005KT 9999 // FEW028/// OVC039/// 02/M00 Q1018","observationTime":"2026-03-26T07:50:00.000Z","flightCategory":"VFR","latitude":57.825,"longitude":-3.955},"EGYP":{"rawOb":"METAR EGYP 260750Z 29015KT CAVOK 04/02 Q0993","observationTime":"2026-03-26T07:50:00.000Z","flightCategory":"VFR","latitude":-51.82,"longitude":-58.448},"MUHA":{"rawOb":"METAR MUHA 260750Z VRB01KT 9000 FEW030 16/15 Q1018","observationTime":"2026-03-26T07:50:00.000Z","flightCategory":"VFR","latitude":22.991,"longitude":-82.41},"MUHG":{"rawOb":"METAR MUHG 260750Z 02005KT 350V050 8000 FEW030 BKN120 BKN210 22/20 Q1015","observationTime":"2026-03-26T07:50:00.000Z","flightCategory":"MVFR","latitude":20.786,"longitude":-76.316},"MUVR":{"rawOb":"METAR MUVR 260750Z 12005KT 9000 SKC 16/15 Q1018","observationTime":"2026-03-26T07:50:00.000Z","flightCategory":"VFR","latitude":23.033,"longitude":-81.435},"LTFK":{"rawOb":"METAR LTFK 260750Z 34006KT CAVOK 13/08 Q1007","observationTime":"2026-03-26T07:50:00.000Z","flightCategory":"VFR","latitude":40.2,"longitude":25.883},"MMMM":{"rawOb":"METAR MMMM 260749Z 00000KT 6SM SKC 08/02 A3021 RMK HZY","observationTime":"2026-03-26T07:49:00.000Z","flightCategory":"VFR","latitude":19.844,"longitude":-101.037},"FASB":{"rawOb":"SPECI FASB 260748Z AUTO 01004KT //// // ////// 28/07 Q1017","observationTime":"2026-03-26T07:48:00.000Z","flightCategory":"null","latitude":-29.69,"longitude":17.935},"EQYS":{"rawOb":"METAR EQYS 260746Z AUTO 26015KT 10SM CLR 15/09 A2972 RMK AO2 SLP064 T01500089 $","observationTime":"2026-03-26T07:46:00.000Z","flightCategory":"VFR","latitude":37.4,"longitude":14.92},"KSWF":{"rawOb":"METAR KSWF 260745Z 00000KT 10SM OVC110 07/M01 A3001","observationTime":"2026-03-26T07:45:00.000Z","flightCategory":"VFR","latitude":41.5045,"longitude":-74.0999},"LKVO":{"rawOb":"METAR LKVO 260745Z 35007KT 320V050 9999 BKN024 BKN034 05/01 Q1007","observationTime":"2026-03-26T07:45:00.000Z","flightCategory":"MVFR","latitude":50.217,"longitude":14.396},"MMTJ":{"rawOb":"METAR MMTJ 260743Z 05002KT 5SM BKN009 14/13 A3000 RMK 8/600 HZY","observationTime":"2026-03-26T07:43:00.000Z","flightCategory":"IFR","latitude":32.544,"longitude":-116.982},"MMSM":{"rawOb":"METAR MMSM 260742Z 34005KT 8SM SKC 09/06 A3031 RMK HZY","observationTime":"2026-03-26T07:42:00.000Z","flightCategory":"VFR","latitude":19.763,"longitude":-99.002},"MMMX":{"rawOb":"METAR MMMX 260742Z 31008KT 10SM SKC 12/06 A3030 NOSIG RMK HZY","observationTime":"2026-03-26T07:42:00.000Z","flightCategory":"VFR","latitude":19.436,"longitude":-99.072},"MMAA":{"rawOb":"METAR MMAA 260742Z 31003KT 5SM FEW300 25/22 A2986 RMK 8/001 HZY AC","observationTime":"2026-03-26T07:42:00.000Z","flightCategory":"MVFR","latitude":16.758,"longitude":-99.754},"FAEO":{"rawOb":"SPECI FAEO 260741Z 27006KT 9999 FEW015 22/17 Q1026","observationTime":"2026-03-26T07:41:00.000Z","flightCategory":"VFR","latitude":-26.496,"longitude":29.98},"MMMZ":{"rawOb":"METAR MMMZ 260741Z 14003KT 9SM BKN040 22/21 A2989 RMK 8/500 FULYR 3RD QUAD HZY","observationTime":"2026-03-26T07:41:00.000Z","flightCategory":"VFR","latitude":23.161,"longitude":-106.271},"MMGL":{"rawOb":"METAR MMGL 260741Z 00000KT 8SM SCT090 17/07 A3015 RMK 8/030 HZY","observationTime":"2026-03-26T07:41:00.000Z","flightCategory":"VFR","latitude":20.523,"longitude":-103.312},"MMUN":{"rawOb":"METAR MMUN 260741Z 07003KT 7SM FEW015TCU 24/20 A3002 RMK 8/200","observationTime":"2026-03-26T07:41:00.000Z","flightCategory":"VFR","latitude":21.038,"longitude":-86.855},"MMMD":{"rawOb":"METAR MMMD 260741Z 07005KT 6SM FEW020 22/19 A3002 RMK 8/500 HZY","observationTime":"2026-03-26T07:41:00.000Z","flightCategory":"VFR","latitude":20.936,"longitude":-89.659},"MMHO":{"rawOb":"METAR MMHO 260740Z 00000KT 10SM SKC 24/10 A2984 RMK HZY","observationTime":"2026-03-26T07:40:00.000Z","flightCategory":"VFR","latitude":29.097,"longitude":-111.051},"MMQT":{"rawOb":"METAR MMQT 260740Z 08007KT 7SM SKC 11/08 A3031","observationTime":"2026-03-26T07:40:00.000Z","flightCategory":"VFR","latitude":20.617,"longitude":-100.194},"MMTO":{"rawOb":"METAR MMTO 260740Z 00000KT 8SM SKC 08/02 A3035","observationTime":"2026-03-26T07:40:00.000Z","flightCategory":"VFR","latitude":19.343,"longitude":-99.568},"MMTL":{"rawOb":"METAR MMTL 260740Z 00000KT 6SM SKC 20/19 A3005","observationTime":"2026-03-26T07:40:00.000Z","flightCategory":"VFR","latitude":20.1725,"longitude":-87.6622},"MMMY":{"rawOb":"METAR MMMY 260740Z 10010KT 8SM BKN015 21/18 A3001 RMK 8/500 HZY","observationTime":"2026-03-26T07:40:00.000Z","flightCategory":"MVFR","latitude":25.774,"longitude":-100.104},"MMPR":{"rawOb":"METAR MMPR 260740Z 04002KT 8SM SKC 23/21 A2990 RMK HZY SC","observationTime":"2026-03-26T07:40:00.000Z","flightCategory":"VFR","latitude":20.68,"longitude":-105.25},"MMML":{"rawOb":"METAR MMML 260740Z 13004KT 10SM SCT200 23/M02 A2983 RMK 8/006","observationTime":"2026-03-26T07:40:00.000Z","flightCategory":"VFR","latitude":32.631,"longitude":-115.238},"K28J":{"rawOb":"METAR K28J 260735Z AUTO 34003KT M1/4SM UP FG OVC003 15/15 A3012 RMK AO2 TSNO","observationTime":"2026-03-26T07:35:00.000Z","flightCategory":"LIFR","latitude":29.6602,"longitude":-81.6918},"RJTK":{"rawOb":"SPECI RJTK 260732Z 02012KT 9999 -RA FEW008 BKN015 BKN025 13/10 Q1010 RMK 1ST008 5SC015 6SC025 A2982","observationTime":"2026-03-26T07:32:00.000Z","flightCategory":"MVFR","latitude":35.398,"longitude":139.91},"VEBN":{"rawOb":"METAR VEBN 260730Z 27008KT 5000 HZ NSC 34/08 Q1010 NOSIG","observationTime":"2026-03-26T07:30:00.000Z","flightCategory":"MVFR","latitude":25.452,"longitude":82.859},"RJTL":{"rawOb":"SPECI RJTL 260730Z 05010KT 9999 SCT012 BKN035 BKN050 12/10 Q1010 RMK 4CU012 6SC035 7SC050 A2984","observationTime":"2026-03-26T07:30:00.000Z","flightCategory":"VFR","latitude":35.799,"longitude":140.012}}}
